CCN,CNH,NOMBRE,COMUNIDAD_AUTONOMA,PROVINCIA,MUNICIPIO,DIRECCION,CODIGO_POSTAL,TELEFONO,NUMERO_DE_CAMAS,TIPO_DE_CENTRO,DEPENDENCIA,OBSERVACIONES,CONCIERTO,ACREDITACION_DOCENTE
104000314,40059,HOSPITAL VIRGEN DEL MAR,ANDALUCÍA,ALMERÍA,Almería,"CARRETERA DEL MAMI, KM. 1 S/N",4120,950210100,76,Hospitales Generales,PRIVADOS,,Concierto parcial,NO
104000316,40010,HOSPITAL UNIVERSITARIO TORRECARDENAS,ANDALUCÍA,ALMERÍA,Almería,CALLE PARAJE TORRECARDENAS S/N,4009,950016114,635,Hospitales Generales,SERVICIOS E INSTITUTOS DE SALUD DE LAS COMUNIDADES AUTÓNOMAS,,Sin concierto.,NO
104000319,40031,HOSPITAL DE  LA CRUZ ROJA DE ALMERIA,ANDALUCÍA,ALMERÍA,Almería,CARRETERA DE RONDA S/N,4009,950017400,69,Hospitales Generales,SERVICIOS E INSTITUTOS DE SALUD DE LAS COMUNIDADES AUTÓNOMAS,,Sin concierto.,NO
104000320,40084,HOSPITAL LA INMACULADA,ANDALUCÍA,ALMERÍA,Huércal-Overa,AVENIDA DOCTORA ANA PARRA S/N,4600,950029176,184,Hospitales Generales,SERVICIOS E INSTITUTOS DE SALUD DE LAS COMUNIDADES AUTÓNOMAS,,Sin concierto,SI
104000321,40118,HOSPITAL DE PONIENTE,ANDALUCÍA,ALMERÍA,"Ejido, El",CARRETERA ALMERIMAR S/N,4700,950022500,261,Hospitales Generales,SERVICIOS E INSTITUTOS DE SALUD DE LAS COMUNIDADES AUTÓNOMAS,,Sin concierto,SI
104000322,40101,HOSPITAL  MEDITERRANEO,ANDALUCÍA,ALMERÍA,Almería,CALLE NUEVA MUSA 8,4007,950621063,89,Hospitales Generales,PRIVADOS,,Concierto parcial,NO
104001001,40127,HOSPITAL DE ALTA RESOLUCION ELTOYO,ANDALUCÍA,ALMERÍA,Almería,CAMINO DE LA BOTICA S/N,4131,950158015,44,Hospitales Generales,SERVICIOS E INSTITUTOS DE SALUD DE LAS COMUNIDADES AUTÓNOMAS,,Sin concierto,SI
111000252,110271,CLINICA SERMAN - INSTITUTO MEDICO,ANDALUCÍA,CÁDIZ,Jerez de la Frontera,PASEO LA ROSALEDA 40,11405,956301211,41,Hospitales Generales,PRIVADOS,,Concierto parcial,NO
111000283,110162,HOSPITAL GENERAL SANTA MARIA DEL PUERTO,ANDALUCÍA,CÁDIZ,"Puerto de Santa María, El",CALLE VALDES S/N,11500,956017000,238,Hospitales Generales,PRIVADOS,,Concierto parcial,NO
111000284,110125,HOSPITAL SAN  JUAN GRANDE,ANDALUCÍA,CÁDIZ,Jerez de la Frontera,GLORIETA DOCTOR FELIX RODRIGUEZ DE LA FUENTE S/N,11408,956357300,143,Hospitales Generales,PRIVADOS,,Concierto parcial,NO
111000285,110051,HOSPITAL SAN RAFAEL,ANDALUCÍA,CÁDIZ,Cádiz,CALLE DIEGO ARIAS 2,11002,956017267,280,Hospitales Generales,PRIVADOS,,Concierto parcial,NO
111000286,110259,HOSPITAL PUNTA DE EUROPA,ANDALUCÍA,CÁDIZ,Algeciras,CARRETERA GETARES S/N,11207,956025000,270,Hospitales Generales,SERVICIOS E INSTITUTOS DE SALUD DE LAS COMUNIDADES AUTÓNOMAS,,Sin concierto,SI
111000289,110327,HOSPITAL UNIVERSITARIO PUERTA DEL MAR,ANDALUCÍA,CÁDIZ,Cádiz,AVENIDA ANA DE VIYA 21,11009,956002040,674,Hospitales Generales,SERVICIOS E INSTITUTOS DE SALUD DE LAS COMUNIDADES AUTÓNOMAS,,Sin concierto.,NO
111000290,110110,HOSPITAL UNIVERSITARIO DE JEREZ DE LA FRONTERA,ANDALUCÍA,CÁDIZ,Jerez de la Frontera,CARRETERA RONDA CIRCUNVALACION S/N,11408,956032075,476,Hospitales Generales,SERVICIOS E INSTITUTOS DE SALUD DE LAS COMUNIDADES AUTÓNOMAS,,Sin concierto,SI
111000291,110184,HOSPITAL UNIVERSITARIO DE PUERTO REAL,ANDALUCÍA,CÁDIZ,Puerto Real,"CARRETERA NACIONAL IV, KM. 665 S/N",11510,956005147,319,Hospitales Generales,SERVICIOS E INSTITUTOS DE SALUD DE LAS COMUNIDADES AUTÓNOMAS,,Sin concierto,SI
111000292,110048,CLINICA LA SALUD,ANDALUCÍA,CÁDIZ,Cádiz,CALLE FEDUCHY 8-14,11001,956225301,58,Hospitales Generales,PRIVADOS,,Sin concierto,NO
111000293,110218,HOSPITAL VIRGEN DE LAS MONTAÑAS,ANDALUCÍA,CÁDIZ,Villamartín,AVENIDA AMBULATORIO S/N,11650,956041000,108,Hospitales Generales,PRIVADOS,,Concierto parcial,NO
111000294,110223,HOSPITAL VIRGEN DEL CAMINO,ANDALUCÍA,CÁDIZ,Sanlúcar de Barrameda,"CARRETERA SANLUCAR-CHIPIONA, S/N S/N",11540,956048068,118,Hospitales Generales,PRIVADOS,,Concierto parcial,NO
111000295,110239,HOSPITAL JEREZ PUERTA DEL SUR,ANDALUCÍA,CÁDIZ,Jerez de la Frontera,AVENIDA PUERTA DEL SUR S/N,11408,956357100,98,Hospitales Generales,PRIVADOS,,Concierto parcial,NO
111000297,110103,CLINICA LOS ALAMOS,ANDALUCÍA,CÁDIZ,Jerez de la Frontera,AVENIDA TAMARIX 4,11407,956182244,15,Hospitales Generales,PRIVADOS,,Sin concierto,NO
111000300,110260,HOSPITAL VIAMED NOVO SANCTI PETRI,ANDALUCÍA,CÁDIZ,Chiclana de la Frontera,"AVENIDA OCTAVIO AUGUSTO, S/N S/N",11139,956495000,37,Hospitales Generales,PRIVADOS,,Concierto parcial,NO
111000411,110248,HOSPITAL VIAMED BAHIA DE CADIZ,ANDALUCÍA,CÁDIZ,Chiclana de la Frontera,CALLE AYALA 2,11130,956533333,46,Hospitales Generales,PRIVADOS,,Concierto parcial,NO
111002394,110282,HOSPITAL QUIRON CAMPO DE GIBRALTAR,ANDALUCÍA,CÁDIZ,"Barrios, Los",CALLE ARTTYSUR - P. E. T. LAS MARISMAS DE PALMONES S/N,11379,956798301,64,Hospitales Generales,PRIVADOS,,Concierto parcial,NO
111004317,110316,HOSPITAL DE LA LINEA DE LA CONCEPCION,ANDALUCÍA,CÁDIZ,"Línea de la Concepción, La","RONDA NORTE, ESQUINA C/ GABRIEL MIRÃ³ S/N",11300,956026500,243,Hospitales Generales,SERVICIOS E INSTITUTOS DE SALUD DE LAS COMUNIDADES AUTÓNOMAS,,Sin concierto,SI
111004473,110305,HOSPITAL SAN  CARLOS DE SAN FERNANDO,ANDALUCÍA,CÁDIZ,San Fernando,PASEO CAPITAN CONFORTO S/N,11100,956002040,65,Hospitales Generales,SERVICIOS E INSTITUTOS DE SALUD DE LAS COMUNIDADES AUTÓNOMAS,,Sin concierto.,NO
111004486,110213,HOSPITAL DE ALTA RESOLUCION DE ESPECIALIDADES DE LA JANDA,ANDALUCÍA,CÁDIZ,Vejer de la Frontera,POLIGONO 53 PARCELA 72 S/N,11150,955018063,24,Hospitales Generales,SERVICIOS E INSTITUTOS DE SALUD DE LAS COMUNIDADES AUTÓNOMAS,,Sin concierto,SI
114000529,140116,HOSPITAL INFANTA  MARGARITA,ANDALUCÍA,CÓRDOBA,Cabra,AVENIDA GONGORA S/N,14940,957021300,232,Hospitales Generales,SERVICIOS E INSTITUTOS DE SALUD DE LAS COMUNIDADES AUTÓNOMAS,,Sin concierto,NO
114000530,140230,HOSPITAL UNIVERSITARIO REINA SOFIA,ANDALUCÍA,CÓRDOBA,Córdoba,AVENIDA MENENDEZ PIDAL S/N,14004,957010380,607,Hospitales Generales,SERVICIOS E INSTITUTOS DE SALUD DE LAS COMUNIDADES AUTÓNOMAS,,Sin concierto.,NO
114000531,140060,HOSPITAL PROVINCIAL,ANDALUCÍA,CÓRDOBA,Córdoba,AVENIDA MENENDEZ PIDAL S/N,14004,957011604,392,Hospitales Generales,SERVICIOS E INSTITUTOS DE SALUD DE LAS COMUNIDADES AUTÓNOMAS,,Sin concierto.,NO
114000532,140039,HOSPITAL LOS MORALES,ANDALUCÍA,CÓRDOBA,Córdoba,CARRETERA LOS MOLARES S/N,14012,957012042,19,Hospitales Generales,SERVICIOS E INSTITUTOS DE SALUD DE LAS COMUNIDADES AUTÓNOMAS,,Sin concierto.,NO
114000533,140044,HOSPITAL MATERNO - INFANTIL DEL H.U. REINA SOFIA,ANDALUCÍA,CÓRDOBA,Córdoba,AVENIDA MENENDEZ PIDAL S/N,14004,957010380,194,Hospitales Generales,SERVICIOS E INSTITUTOS DE SALUD DE LAS COMUNIDADES AUTÓNOMAS,,Sin concierto.,NO
114000535,140121,HOSPITAL  VALLE DE LOS PEDROCHES,ANDALUCÍA,CÓRDOBA,Pozoblanco,CALLE JUAN DEL REY CALERO S/N,14400,957026306,135,Hospitales Generales,SERVICIOS E INSTITUTOS DE SALUD DE LAS COMUNIDADES AUTÓNOMAS,,Sin concierto,NO
114000536,140082,HOSPITAL SAN JUAN DE DIOS DE CORDOBA,ANDALUCÍA,CÓRDOBA,Córdoba,AVENIDA DEL BRILLANTE 106,14012,957274600,193,Hospitales Generales,PRIVADOS,,Concierto parcial,NO
114000537,140076,HOSPITAL CRUZ ROJA DE CORDOBA,ANDALUCÍA,CÓRDOBA,Córdoba,PASEO DE LA VICTORIA S/N,14004,957420666,138,Hospitales Generales,PRIVADOS,,Concierto parcial,NO
114000873,140195,HOSPITAL DE MONTILLA,ANDALUCÍA,CÓRDOBA,Montilla,"CARRETERA CTRA. MONTORO-PUENTE GENIL, KM. 65,350 S/N",14550,957022600,92,Hospitales Generales,SERVICIOS E INSTITUTOS DE SALUD DE LAS COMUNIDADES AUTÓNOMAS,,Sin concierto,NO
114001301,140218,HOSPITAL DE ALTA RESOLUCION  DE PUENTE GENIL,ANDALUCÍA,CÓRDOBA,Puente Genil,CALLE BURGOS S/N,14500,957615000,24,Hospitales Generales,SERVICIOS E INSTITUTOS DE SALUD DE LAS COMUNIDADES AUTÓNOMAS,,Sin concierto,NO
114001599,140229,HOSPITAL DE ALTA RESOLUCION VALLE DEL GUADIATO,ANDALUCÍA,CÓRDOBA,Peñarroya-Pueblonuevo,CALLE PARAJE CERRO DEL CAMELLO S/N,14200,957579100,17,Hospitales Generales,SERVICIOS E INSTITUTOS DE SALUD DE LAS COMUNIDADES AUTÓNOMAS,,Sin concierto,NO
114003668,140241,HOSPITAL QUIRONSALUD CORDOBA,ANDALUCÍA,CÓRDOBA,Córdoba,"AVENIDA DEL AEROPUERTO, S/N S/N",14004,957410000,115,Hospitales Generales,PRIVADOS,,Concierto parcial,NO
118000553,180074,HOSPITAL DE LA INMACULADA CONCEPCION,ANDALUCÍA,GRANADA,Granada,CALLE DOCTOR ALEJANDRO OTERO 8,18004,958187712,95,Hospitales Generales,PRIVADOS,,Concierto parcial,NO
118000554,180093,HOSPITAL DE BAZA,ANDALUCÍA,GRANADA,Baza,"CARRETERA MURCIA, KM. 1,6 S/N",18800,958031303,117,Hospitales Generales,SERVICIOS E INSTITUTOS DE SALUD DE LAS COMUNIDADES AUTÓNOMAS,,Sin concierto,NO
118000556,180016,HOSPITAL UNIVERSITARIO VIRGEN DE LAS NIEVES,ANDALUCÍA,GRANADA,Granada,AVENIDA DE LAS FUERZAS ARMADAS 2,18014,958020000,468,Hospitales Generales,SERVICIOS E INSTITUTOS DE SALUD DE LAS COMUNIDADES AUTÓNOMAS,,Sin concierto.,NO
118000560,180166,HOSPITAL MATERNO-INFANTIL DEL H.U. VIRGEN DE LAS NIEVES,ANDALUCÍA,GRANADA,Granada,AVENIDA DE LAS FUERZAS ARMADAS 2,18014,000000000,230,Hospitales especializados,SERVICIOS E INSTITUTOS DE SALUD DE LAS COMUNIDADES AUTÓNOMAS,,Sin concierto.,NO
118000562,180107,HOSPITAL SANTA ANA,ANDALUCÍA,GRANADA,Motril,AVENIDA ENRIQUE MARTIN CUEVAS S/N,18600,958038200,184,Hospitales Generales,SERVICIOS E INSTITUTOS DE SALUD DE LAS COMUNIDADES AUTÓNOMAS,,Sin concierto,SI
118000563,180055,HOSPITAL SAN RAFAEL,ANDALUCÍA,GRANADA,Granada,CALLE SAN JUAN DE DIOS 19-23,18001,958275700,166,Hospitales Generales,PRIVADOS,,Concierto parcial,NO
118001566,180122,HOSPITAL DE ALTA RESOLUCION DE  GUADIX,ANDALUCÍA,GRANADA,Guadix,AVENIDA MARIANA PINEDA S/N,18500,958699136,50,Hospitales Generales,SERVICIOS E INSTITUTOS DE SALUD DE LAS COMUNIDADES AUTÓNOMAS,,Sin concierto,SI
118004203,180133,HOSPITAL DE ALTA RESOLUCIÃN DE LOJA,ANDALUCÍA,GRANADA,Loja,AVENIDA TIERNO GALVÃN S/N,18300,958338150,22,Hospitales Generales,SERVICIOS E INSTITUTOS DE SALUD DE LAS COMUNIDADES AUTÓNOMAS,,Sin concierto,SI
118004282,180146,HOSPITAL VITHAS LA SALUD,ANDALUCÍA,GRANADA,Granada,AVENIDA SANTA MARIA DE LA ALHAMBRA S/N,18008,958001450,77,Hospitales Generales,PRIVADOS,,Sin concierto,NO
118004562,180150,HOSPITAL UNIVERSITARIO CLINICO SAN CECILIO,ANDALUCÍA,GRANADA,Granada,AVENIDA DE LA INVESTIGACION S/N,18016,958021702,543,Hospitales Generales,SERVICIOS E INSTITUTOS DE SALUD DE LAS COMUNIDADES AUTÓNOMAS,,Sin concierto,SI
118004856,180042,HOSPITAL  DE NEUROTRAUMATOLOGIA Y REHABILITACION DEL H.U. VIRGEN DE LAS NIEVES,ANDALUCÍA,GRANADA,Granada,CARRETERA DE JAÃ©N S/N,18013,958020000,185,Hospitales especializados,SERVICIOS E INSTITUTOS DE SALUD DE LAS COMUNIDADES AUTÓNOMAS,,Sin concierto.,NO
121000146,210025,HOSPITAL INFANTA ELENA,ANDALUCÍA,HUELVA,Huelva,CALLE DR. PEDRO NARANJO RODRÃ­GUEZ S/N,21007,959015132,304,Hospitales Generales,SERVICIOS E INSTITUTOS DE SALUD DE LAS COMUNIDADES AUTÓNOMAS,,Sin concierto,SI
121000147,210123,HOSPITAL UNIVERSITARIO JUAN RAMON JIMENEZ,ANDALUCÍA,HUELVA,Huelva,RONDA EXTERIOR NORTE S/N,21005,959016000,542,Hospitales Generales,SERVICIOS E INSTITUTOS DE SALUD DE LAS COMUNIDADES AUTÓNOMAS,,Sin concierto.,NO
121000149,210031,HOSPITAL VAZQUEZ  DIAZ,ANDALUCÍA,HUELVA,Huelva,CARRETERA SEVILLA-HUELVA S/N,21005,959014603,91,Hospitales Generales,SERVICIOS E INSTITUTOS DE SALUD DE LAS COMUNIDADES AUTÓNOMAS,,Sin concierto.,NO
121000150,210097,HOSPITAL DE RIOTINTO,ANDALUCÍA,HUELVA,Minas de Riotinto,AVENIDA LA ESQUILA 5,21660,959025295,118,Hospitales Generales,SERVICIOS E INSTITUTOS DE SALUD DE LAS COMUNIDADES AUTÓNOMAS,,Sin concierto,NO
121000151,210084,CLINICA LOS NARANJOS,ANDALUCÍA,HUELVA,Huelva,PASEO DE LOS NARANJOS 1,21004,959243900,25,Hospitales Generales,PRIVADOS,,Sin concierto,NO
121001251,210137,HOSPITAL QUIRONSALUD HUELVA,ANDALUCÍA,HUELVA,Huelva,CALLE PUNTA UMBRÃA 8,21002,959242100,56,Hospitales Generales,PRIVADOS,,Concierto parcial,NO
121001889,210148,HOSPITAL VIRGEN DE LA BELLA,ANDALUCÍA,HUELVA,Lepe,"AVENIDA LAS ROSAS, S/N S/N",21440,959180550,61,Hospitales Generales,PRIVADOS,,Concierto parcial,NO
123000208,230011,HOSPITAL UNIVERSITARIO DE JAEN,ANDALUCÍA,JAÉN,Jaén,AVENIDA EJERCITO ESPAÃOL 10,23007,953008010,805,Hospitales Generales,SERVICIOS E INSTITUTOS DE SALUD DE LAS COMUNIDADES AUTÓNOMAS,,Sin concierto.,NO
123000210,230047,HOSPITAL NEUROTRAUMATOLOGICO DEL H.U. DE JAEN,ANDALUCÍA,JAÉN,Jaén,CARRETERA BAILEN MOTRIL S/N,23007,953008000,193,Hospitales Generales,SERVICIOS E INSTITUTOS DE SALUD DE LAS COMUNIDADES AUTÓNOMAS,,Sin concierto.,NO
123000211,230026,HOSPITAL DOCTOR  SAGAZ,ANDALUCÍA,JAÉN,Jaén,CARRETERA DEL NEVERAL S/N,23004,953008001,54,Hospitales Generales,SERVICIOS E INSTITUTOS DE SALUD DE LAS COMUNIDADES AUTÓNOMAS,,Sin concierto.,NO
123000212,230151,HOSPITAL MATERNO-INFANTIL DEL H.U. DE JAEN,ANDALUCÍA,JAÉN,Jaén,AVENIDA DEL EJERCITO ESPAÃ?OL 10,23007,953008000,122,Hospitales especializados,SERVICIOS E INSTITUTOS DE SALUD DE LAS COMUNIDADES AUTÓNOMAS,,Sin concierto.,NO
123000213,230079,HOSPITAL  SAN AGUSTIN,ANDALUCÍA,JAÉN,Linares,AVENIDA SAN CRISTOBAL S/N,23700,953024200,204,Hospitales Generales,SERVICIOS E INSTITUTOS DE SALUD DE LAS COMUNIDADES AUTÓNOMAS,,Sin concierto,SI
123000214,230098,HOSPITAL SAN JUAN DE LA CRUZ,ANDALUCÍA,JAÉN,Úbeda,CARRETERA DE LINARES S/N,23400,953028200,225,Hospitales Generales,SERVICIOS E INSTITUTOS DE SALUD DE LAS COMUNIDADES AUTÓNOMAS,,Sin concierto,NO
123000215,230063,CLINICA CRISTO REY,ANDALUCÍA,JAÉN,Jaén,PASEO LA ESTACION 40,23008,953250440,39,Otros Centros con Internamiento,PRIVADOS,,Sin concierto,NO
123000216,230145,HOSPITAL ALTO GUADALQUIVIR,ANDALUCÍA,JAÉN,Andújar,AVENIDA BLAS INFANTE S/N,23740,953021575,67,Hospitales Generales,SERVICIOS E INSTITUTOS DE SALUD DE LAS COMUNIDADES AUTÓNOMAS,,Sin concierto,NO
123000703,230162,HOSPITAL DE ALTA RESOLUCION SIERRA DE SEGURA,ANDALUCÍA,JAÉN,Puente de Génave,"CARRETERA PUENTE GENAVE - LA PUERTA DE SEGURA, KM. 0,300 S/N",23350,953499012,24,Hospitales Generales,SERVICIOS E INSTITUTOS DE SALUD DE LAS COMUNIDADES AUTÓNOMAS,,Sin concierto,NO
123000736,230173,HOSPITAL DE ALTA RESOLUCION DE ALCAUDETE,ANDALUCÍA,JAÉN,Alcaudete,CAMINO VIEJO DE LA FUENSANTA 2,23660,953368211,16,Hospitales Generales,SERVICIOS E INSTITUTOS DE SALUD DE LAS COMUNIDADES AUTÓNOMAS,,Sin concierto,NO
123002675,230184,HOSPITAL DE ALTA RESOLUCION DE ALCALA LA REAL,ANDALUCÍA,JAÉN,Alcalá la Real,AVENIDA DE IBEROAMÃ?RICA S/N,23680,953599008,28,Hospitales Generales,SERVICIOS E INSTITUTOS DE SALUD DE LAS COMUNIDADES AUTÓNOMAS,,Sin concierto,NO
123003108,230195,HOSPITAL PUERTA DE ANDALUCÃA,ANDALUCÍA,JAÉN,Jaén,CARRETERA CARRETERA BAILEN-MOTRIL S/N,23009,953008000,79,Hospitales Generales,SERVICIOS E INSTITUTOS DE SALUD DE LAS COMUNIDADES AUTÓNOMAS,,Sin concierto.,NO
129001066,290287,HOSPITAL COSTA DEL SOL,ANDALUCÍA,MALAGA,Marbella,CARRETERA AUTOVIA A-7 S/N,29603,951976669,408,Hospitales Generales,SERVICIOS E INSTITUTOS DE SALUD DE LAS COMUNIDADES AUTÓNOMAS,,Sin concierto,SI
129001068,290017,HOSPITAL UNIVERSITARIO REGIONAL DE MALAGA,ANDALUCÍA,MALAGA,Málaga,AVENIDA CARLOS HAYA S/N,29010,951030100,523,Hospitales Generales,SERVICIOS E INSTITUTOS DE SALUD DE LAS COMUNIDADES AUTÓNOMAS,,Sin concierto.,NO
129001070,290265,HOSPITAL MATERNO INFANTIL DEL H.U.R.  DE  MALAGA,ANDALUCÍA,MALAGA,Málaga,CALLE ARROYO DE LOS ANGELES S/N,29009,951030200,349,Hospitales especializados,SERVICIOS E INSTITUTOS DE SALUD DE LAS COMUNIDADES AUTÓNOMAS,,Sin concierto.,NO
129001071,290038,HOSPITAL CIVIL,ANDALUCÍA,MALAGA,Málaga,PLAZA DEL HOSPITAL CIVIL S/N,29009,951030300,201,Hospitales Generales,SERVICIOS E INSTITUTOS DE SALUD DE LAS COMUNIDADES AUTÓNOMAS,,Sin concierto.,NO
129001073,290022,HOSPITAL UNIVERSITARIO VIRGEN DE LA VICTORIA,ANDALUCÍA,MALAGA,Málaga,CALLE CAMPUS UNIVERSITARIO TEATINOS S/N,29010,951032000,657,Hospitales Generales,SERVICIOS E INSTITUTOS DE SALUD DE LAS COMUNIDADES AUTÓNOMAS,,Sin concierto.,NO
129001075,290213,HOSPITAL MARITIMO DE  TORREMOLINOS,ANDALUCÍA,MALAGA,Torremolinos,CALLE SANATORIO 5,29620,951033735,89,Hospitales Generales,SERVICIOS E INSTITUTOS DE SALUD DE LAS COMUNIDADES AUTÓNOMAS,,Sin concierto.,NO
129001077,290206,HOSPITAL DE LA AXARQUIA,ANDALUCÍA,MALAGA,Vélez-Málaga,AVENIDA DEL SOL 43,29740,951067010,196,Hospitales Generales,SERVICIOS E INSTITUTOS DE SALUD DE LAS COMUNIDADES AUTÓNOMAS,,Sin concierto,SI
129001079,290081,HOSPITAL VITHAS PARQUE SAN ANTONIO,ANDALUCÍA,MALAGA,Málaga,AVENIDA PINTOR JOAQUIN SOROLLA 2,29016,952211050,100,Hospitales Generales,PRIVADOS,,Concierto parcial,NO
129001080,290141,CLINICA NUESTRA SEÑORA DEL PILAR,ANDALUCÍA,MALAGA,Málaga,PASEO DE SANCHA 15,29016,952217606,21,Hospitales Generales,PRIVADOS,,Sin concierto,NO
129001081,290115,CLINICA DE LA ENCARNACION,ANDALUCÍA,MALAGA,Málaga,CALLE FERNANDEZ DE ALARCON 2,29007,952287766,105,Hospitales Generales,PRIVADOS,,Concierto parcial,NO
129001082,290108,HOSPITAL DR. GALVEZ,ANDALUCÍA,MALAGA,Málaga,CALLE SAN AGUSTIN 1,29015,952224295,62,Hospitales Generales,PRIVADOS,,Concierto parcial,NO
129001083,290228,CLINICA SANTA ELENA,ANDALUCÍA,MALAGA,Torremolinos,URBANIZACION LOS ALAMOS S/N,29620,952386266,90,Hospitales Generales,PRIVADOS,,Sin concierto,NO
129001084,290094,HOSPITAL EL ANGEL,ANDALUCÍA,MALAGA,Málaga,CALLE CORREGIDOR NICOLAS ISIDRO 16,29007,952045000,138,Hospitales Generales,PRIVADOS,,Concierto parcial,NO
129001085,290075,CENTRO ASISTENCIAL HNAS. HOSPITALARIAS DEL  SAGRADO CORAZON DE JESUS,ANDALUCÍA,MALAGA,Málaga,CALLE SAN JUAN BOSCO 41,29014,952256150,321,Hospitales de salud mental y tratamiento de toxicomanías,PRIVADOS,,Concierto parcial,NO
129001086,290348,CLINICA EL SERANIL,ANDALUCÍA,MALAGA,Vélez-Málaga,CARRETERA ALMERIA S/N,29790,952513267,60,Hospitales de salud mental y tratamiento de toxicomanías,PRIVADOS,,Sin concierto,NO
129001087,290154,HOSPITAL  DE ANTEQUERA,ANDALUCÍA,MALAGA,Antequera,AVENIDA POETA MUÃOZ ROJAS S/N,29200,951061008,159,Hospitales Generales,SERVICIOS E INSTITUTOS DE SALUD DE LAS COMUNIDADES AUTÓNOMAS,,Sin concierto,SI
129001088,290173,HOSPITAL QUIRONSALUD MARBELLA,ANDALUCÍA,MALAGA,Marbella,AVENIDA SEVERO OCHOA 22,29603,952774200,75,Hospitales Generales,PRIVADOS,,Concierto parcial,NO
129001090,290069,CENTRO ASISTENCIAL SAN JUAN DE DIOS,ANDALUCÍA,MALAGA,Málaga,CAMINO CASABERMEJA 126,29014,952250550,398,Hospitales de salud mental y tratamiento de toxicomanías,PRIVADOS,,Concierto parcial,NO
129001091,290136,HOSPITAL PSIQUIATRICO SAN FRANCISCO DE ASIS,ANDALUCÍA,MALAGA,Málaga,AVENIDA HERNAN NUÑEZ DE TOLEDO 5,29018,952201464,150,Hospitales de salud mental y tratamiento de toxicomanías,PRIVADOS,,Sin concierto,NO
129001092,290359,HC MARBELLA INTERNATIONAL HOSPITAL,ANDALUCÍA,MALAGA,Marbella,"URBANIZACION LAS MIMOSAS, CASA SANTA ISABEL, S/N S/N",29660,952908628,12,Hospitales Generales,PRIVADOS,,Sin concierto,NO
129001095,290416,COMUNIDAD TERAPEUTICA SAN ANTONIO,ANDALUCÍA,MALAGA,Málaga,CALLE EXTREMADURA 8,29018,952201464,35,Hospitales de salud mental y tratamiento de toxicomanías,PRIVADOS,,Sin concierto,NO
129001424,290461,HOSPITAL OCHOA,ANDALUCÍA,MALAGA,Marbella,PASEO ALFONSO CAÃAS NOGUERAS (PASEO MARITIMO) S/N,29603,952861400,22,Hospitales Generales,PRIVADOS,,Sin concierto,NO
129001851,290382,HOSPITEN ESTEPONA,ANDALUCÍA,MALAGA,Estepona,CARRETERA NACIONAL 340 S/N,29680,952760600,74,Hospitales Generales,PRIVADOS,,Concierto parcial,NO
129001928,290405,HOSPITAL VITHAS XANIT INTERNACIONAL,ANDALUCÍA,MALAGA,Benalmádena,AVENIDA DE LOS ARGONAUTAS S/N,29630,952443119,125,Hospitales Generales,PRIVADOS,,Concierto parcial,NO
129001929,290393,FUNDACION CUDECA. CENTRO DE CUIDADOS PALIATIVOS,ANDALUCÍA,MALAGA,Benalmádena,AVENIDA DEL COSMOS S/N,29631,952564910,15,Hospitales especializados,PRIVADOS,,Red de utilización pública (RUP),NO
129002204,290427,HOSPITAL DE ALTA RESOLUCION DE BENALMADENA,ANDALUCÍA,MALAGA,Benalmádena,AVENIDA ARROYO HONDO S/N,29630,951976000,46,Hospitales Generales,SERVICIOS E INSTITUTOS DE SALUD DE LAS COMUNIDADES AUTÓNOMAS,,Sin concierto,SI
129002504,290449,HOSPITAL QUIRONSALUD MALAGA,ANDALUCÍA,MALAGA,Málaga,AVENIDA IMPERIO ARGENTINA 1,29004,952176016,121,Hospitales Generales,PRIVADOS,,Sin concierto,NO
129003159,290472,CENTRO DE REPRODUCCION ASISTIDA DE MARBELLA (CERAM),ANDALUCÍA,MALAGA,Marbella,CALLE MAESTRA DOÑA CAROLA 8,29602,952829035,22,Hospitales Generales,PRIVADOS,,Sin concierto,NO
129007039,290506,HOSPITAL DE LA SERRANIA,ANDALUCÍA,MALAGA,Ronda,"CARRETERA RONDA-SAN PEDRO, KM. 2 S/N",29400,951065077,150,Hospitales Generales,SERVICIOS E INSTITUTOS DE SALUD DE LAS COMUNIDADES AUTÓNOMAS,,Sin concierto,SI
129007432,290517,HOSPITAL VALLE DE GUADALHORCE DE  CARTAMA,ANDALUCÍA,MALAGA,Cártama,"CARRETERA AUTOVIA A-357 MÃ?LAGA - CAMPIÃ?A, KM 49 S/N",29570,951291105,28,Hospitales Generales,SERVICIOS E INSTITUTOS DE SALUD DE LAS COMUNIDADES AUTÓNOMAS,,Sin concierto.,NO
141000534,410114,HOSPITAL QUIRONSALUD SAGRADO CORAZON,ANDALUCÍA,SEVILLA,Sevilla,CALLE RAFAEL SALGADO 3,41013,954937676,147,Hospitales Generales,PRIVADOS,,Sin concierto,NO
141000536,410325,"FREMAP, HOSPITAL Y CENTRO DE REHABILITACION DE SEVILLA",ANDALUCÍA,SEVILLA,Sevilla,AVENIDA DE JEREZ S/N,41014,954249102,102,Hospitales especializados,PRIVADOS,,Sin concierto,NO
141000537,410129,HOSPITAL FÃ?TIMA,ANDALUCÍA,SEVILLA,Sevilla,GLORIETA DE MEJICO 1,41012,954613300,73,Hospitales Generales,PRIVADOS,,Sin concierto,NO
141000538,410074,HOSPITAL VICTORIA EUGENIA DE LA CRUZ ROJA ESPAÑOLA,ANDALUCÍA,SEVILLA,Sevilla,AVENIDA DE LA CRUZ ROJA 1,41009,954352082,39,Hospitales Generales,PRIVADOS,,Concierto parcial,NO
141000539,410107,CLINICA SANTA ISABEL,ANDALUCÍA,SEVILLA,Sevilla,CALLE LUIS MONTOTO 100,41018,954919000,96,Hospitales Generales,PRIVADOS,,Concierto parcial,NO
141000540,410251,HOSPITAL LA MERCED,ANDALUCÍA,SEVILLA,Osuna,AVENIDA DE LA CONSTITUCION 2,41640,955077200,225,Hospitales Generales,SERVICIOS E INSTITUTOS DE SALUD DE LAS COMUNIDADES AUTÓNOMAS,,Sin concierto,SI
141000541,410021,HOSPITAL UNIVERSITARIO VIRGEN DE VALME,ANDALUCÍA,SEVILLA,Sevilla,AVENIDA DE BELLAVISTA S/N,41014,955015160,504,Hospitales Generales,SERVICIOS E INSTITUTOS DE SALUD DE LAS COMUNIDADES AUTÓNOMAS,,Sin concierto.,NO
141000543,410227,HOSPITAL EL TOMILLAR,ANDALUCÍA,SEVILLA,Alcalá de Guadaíra,CARRETERA ALCALA-DOS HERMANAS S/N,41500,000000000,80,Hospitales Generales,SERVICIOS E INSTITUTOS DE SALUD DE LAS COMUNIDADES AUTÓNOMAS,,Sin concierto.,NO
141000544,410042,HOSPITAL UNIVERSITARIO VIRGEN MACARENA,ANDALUCÍA,SEVILLA,Sevilla,AVENIDA DOCTOR FEDRIANI 3,41009,955008000,777,Hospitales Generales,SERVICIOS E INSTITUTOS DE SALUD DE LAS COMUNIDADES AUTÓNOMAS,,Sin concierto.,NO
141000546,410055,HOSPITAL SAN  LAZARO,ANDALUCÍA,SEVILLA,Sevilla,AVENIDA DOCTOR FEDRIANI S/N,41009,955017800,66,Hospitales Generales,SERVICIOS E INSTITUTOS DE SALUD DE LAS COMUNIDADES AUTÓNOMAS,,Sin concierto.,NO
141000547,410016,HOSPITAL UNIVERSITARIO VIRGEN DEL ROCIO,ANDALUCÍA,SEVILLA,Sevilla,AVENIDA MANUEL SIUROT S/N,41013,955013466,655,Hospitales Generales,SERVICIOS E INSTITUTOS DE SALUD DE LAS COMUNIDADES AUTÓNOMAS,,Sin concierto.,NO
141000549,410093,HOSPITAL DUQUES DEL INFANTADO,ANDALUCÍA,SEVILLA,Sevilla,CALLE SOR GREGORIA DE SANTA TERESA S/N,41012,955016300,43,Hospitales Generales,SERVICIOS E INSTITUTOS DE SALUD DE LAS COMUNIDADES AUTÓNOMAS,,Sin concierto.,NO
141000550,410443,HOSPITAL DE REHABILITACION Y TRAUMATOLOGIA DEL H.U.  VIRGEN DEL ROCIO,ANDALUCÍA,SEVILLA,Sevilla,AVENIDA MANUEL SIUROT S/N,41013,000000000,295,Hospitales especializados,SERVICIOS E INSTITUTOS DE SALUD DE LAS COMUNIDADES AUTÓNOMAS,,Sin concierto.,NO
141000551,410465,HOSPITAL INFANTIL,ANDALUCÍA,SEVILLA,Sevilla,AVENIDA MANUEL SIUROT S/N,41013,000000000,136,Hospitales especializados,SERVICIOS E INSTITUTOS DE SALUD DE LAS COMUNIDADES AUTÓNOMAS,,Sin concierto.,NO
141000552,410080,HOSPITAL SAN JUAN DE DIOS DE SEVILLA,ANDALUCÍA,SEVILLA,Sevilla,AVENIDA EDUARDO DATO 42,41005,954933870,47,Hospitales Generales,PRIVADOS,,Concierto parcial,NO
141000554,410248,HOSPITAL DE ALTA RESOLUCION DE MORON DE LA FRONTERA,ANDALUCÍA,SEVILLA,Morón de la Frontera,PLAZA SAN FRANCISCO S/N,41530,954851008,12,Hospitales Generales,SERVICIOS E INSTITUTOS DE SALUD DE LAS COMUNIDADES AUTÓNOMAS,,Sin concierto,NO
141000555,410353,HOSPITAL SAN JUAN DE DIOS DEL ALJARAFE,ANDALUCÍA,SEVILLA,Bormujos,AVENIDA SAN JUAN DE DIOS S/N,41930,955050550,200,Hospitales Generales,OTROS CENTROS O ESTABLECIMIENTOS PÚBLICOS DE DEPENDENCIA AUTONÓMICA,,Sin concierto,SI
141000556,410212,RESIDENCIA DE SALUD MENTAL NUESTRA SEÑORA DEL CARMEN,ANDALUCÍA,SEVILLA,Bormujos,AVENIDA DEL RIO PUDIO S/N,41930,955723391,54,Hospitales de salud mental y tratamiento de toxicomanías,PRIVADOS,,Sin concierto,NO
141000649,410483,"CENTRO ABB, SL",ANDALUCÍA,SEVILLA,Sevilla,CALLE VIDRIO 32,41005,954633252,19,Otros Centros con Internamiento,PRIVADOS,,Sin concierto,NO
141000727,410135,HOSPITAL QUIRONSALUD INFANTA LUISA,ANDALUCÍA,SEVILLA,Sevilla,CALLE SAN JACINTO 87,41010,954330100,139,Hospitales Generales,PRIVADOS,,Concierto parcial,NO
141001379,410233,HOSPITAL SAN AGUSTIN,ANDALUCÍA,SEVILLA,Dos Hermanas,"CALLE PROLONGACION DOCTOR FLEMING, SECTOR 13 S/N",41703,955050570,93,Hospitales Generales,PRIVADOS,,Concierto parcial,NO
141001671,410375,HOSPITAL NISA SEVILLA-ALJARAFE,ANDALUCÍA,SEVILLA,Castilleja de la Cuesta,AVENIDA PLACIDO FERNANDEZ VIAGAS S/N,41950,954464000,148,Hospitales Generales,PRIVADOS,,Concierto parcial,NO
141001947,410386,HOSPITAL DE ALTA RESOLUCION DE UTRERA,ANDALUCÍA,SEVILLA,Utrera,CALLE BRIGADAS INTERNACIONALES S/N,41710,955839097,14,Hospitales Generales,SERVICIOS E INSTITUTOS DE SALUD DE LAS COMUNIDADES AUTÓNOMAS,,Sin concierto,NO
141002499,410409,HOSPITAL VIAMED SANTA ANGELA DE LA CRUZ,ANDALUCÍA,SEVILLA,Sevilla,AVENIDA DE JEREZ 59,41013,954032000,105,Hospitales Generales,PRIVADOS,,Concierto parcial,NO
141006016,410454,HOSPITAL DE ALTA RESOLUCIÃ?N DE LEBRIJA,ANDALUCÍA,SEVILLA,Lebrija,AVENIDA EL CUERVO S/N,41740,000000000,22,Hospitales Generales,SERVICIOS E INSTITUTOS DE SALUD DE LAS COMUNIDADES AUTÓNOMAS,,Sin concierto,SI
141006017,410419,HOSPITAL DE ALTA RESOLUCION DE ECIJA,ANDALUCÍA,SEVILLA,Écija,AVENIDA DOCTOR SÃ?NCHEZ MALO 73,41400,000000000,36,Hospitales Generales,SERVICIOS E INSTITUTOS DE SALUD DE LAS COMUNIDADES AUTÓNOMAS,,Sin concierto,NO
141006243,410346,HOSPITAL PSIQUIATRICO PENITENCIARIO,ANDALUCÍA,SEVILLA,Sevilla,"CARRETERA TORREBLANCA-MAIRENA KM. 3,5 S/N",41007,955616666,184,Hospitales de salud mental y tratamiento de toxicomanías,SERVICIOS E INSTITUTOS DE SALUD DE LAS COMUNIDADES AUTÓNOMAS,,Sin concierto,NO
141006465,410432,CLINICA DE SALUD MENTAL MIGUEL DE MAÑARA,ANDALUCÍA,SEVILLA,Dos Hermanas,CALLE HERMANOS DE LA CRUZ BLANCA 1,41089,954127033,18,Hospitales de salud mental y tratamiento de toxicomanías,PRIVADOS,,Sin concierto,NO
141006842,410476,HOSPITAL DE LA  MUJER,ANDALUCÍA,SEVILLA,Sevilla,AVENIDA MANUEL SIUROT S/N,41013,955012720,221,Hospitales especializados,SERVICIOS E INSTITUTOS DE SALUD DE LAS COMUNIDADES AUTÓNOMAS,,Sin concierto.,NO
141006854,410496,"ADINFA, SOCIEDAD COOPERATIVA ANDALUZA",ANDALUCÍA,SEVILLA,Coria del Río,CALLE MARIA JESUS 3,41100,607271338,25,Hospitales de salud mental y tratamiento de toxicomanías,PRIVADOS,,Sin concierto,NO
222000001,220036,HOSPITAL SAGRADO CORAZON DE JESUS,ARAGÓN,HUESCA,Huesca,PASEO LUCAS MALLADA 22,22006,974292000,70,Hospitales de media y larga estancia,SERVICIOS E INSTITUTOS DE SALUD DE LAS COMUNIDADES AUTÓNOMAS,,Sin concierto,SI
222000002,220015,HOSPITAL UNIVERSITARIO SAN JORGE,ARAGÓN,HUESCA,Huesca,AVENIDA MARTINEZ DE VELASCO 36,22004,974247000,297,Hospitales Generales,SERVICIOS E INSTITUTOS DE SALUD DE LAS COMUNIDADES AUTÓNOMAS,,Sin concierto,SI
222000003,220054,HOSPITAL DE BARBASTRO,ARAGÓN,HUESCA,Barbastro,CARRETERA NACIONAL 240 S/N,22300,974249000,172,Hospitales Generales,SERVICIOS E INSTITUTOS DE SALUD DE LAS COMUNIDADES AUTÓNOMAS,,Sin concierto,NO
222000004,220020,CENTRO DE REHABILITACION PSICOSOCIAL SANTO CRISTO DE LOS MILAGROS,ARAGÓN,HUESCA,Huesca,"CARRETERA ARGUIS KM 2,5",22006,974220772,110,Hospitales de salud mental y tratamiento de toxicomanías,SERVICIOS E INSTITUTOS DE SALUD DE LAS COMUNIDADES AUTÓNOMAS,,Sin concierto,NO
222000005,220089,HOSPITAL DE JACA SALUD,ARAGÓN,HUESCA,Jaca,CARRETERA RAPITAN S/N,22700,974355331,50,Hospitales Generales,SERVICIOS E INSTITUTOS DE SALUD DE LAS COMUNIDADES AUTÓNOMAS,,Sin concierto,NO
222000006,220041,HOSPITAL VIAMED SANTIAGO,ARAGÓN,HUESCA,Huesca,CALLE SARIÑENA 12,22004,974220600,40,Hospitales Generales,PRIVADOS,,Concierto parcial,NO
222000030,220105,CENTRO SANITARIO BAJO CINCA-BAIX CINCA,ARAGÓN,HUESCA,Fraga,CALLE HERMANA ANDRESA 2,22520,974474545,20,Otros Centros con Internamiento,SERVICIOS E INSTITUTOS DE SALUD DE LAS COMUNIDADES AUTÓNOMAS,,Sin concierto,NO
244000001,440048,HOSPITAL DE ALCAÑIZ,ARAGÓN,TERUEL,Alcañiz,CALLE DOCTOR REPOLLES 2,44600,978830100,131,Hospitales Generales,SERVICIOS E INSTITUTOS DE SALUD DE LAS COMUNIDADES AUTÓNOMAS,,Sin concierto,SI
244000002,440012,HOSPITAL OBISPO POLANCO,ARAGÓN,TERUEL,Teruel,AVENIDA RUIZ JARABO S/N,44002,978654000,215,Hospitales Generales,SERVICIOS E INSTITUTOS DE SALUD DE LAS COMUNIDADES AUTÓNOMAS,,Sin concierto,SI
244000003,440027,HOSPITAL DE SAN JOSE,ARAGÓN,TERUEL,Teruel,AVENIDA ZARAGOZA 16,44001,978654070,50,Hospitales de media y larga estancia,SERVICIOS E INSTITUTOS DE SALUD DE LAS COMUNIDADES AUTÓNOMAS,,Sin concierto,SI
244000004,440033,CENTRO DE REHABILITACION PSICOSOCIAL SAN JUAN DE DIOS,ARAGÓN,TERUEL,Teruel,AVENIDA ZARAGOZA 10-14,44001,978654040,150,Hospitales de salud mental y tratamiento de toxicomanías,SERVICIOS E INSTITUTOS DE SALUD DE LAS COMUNIDADES AUTÓNOMAS,,Sin concierto,SI
250000001,500114,HOSPITAL SAN JUAN DE DIOS,ARAGÓN,ZARAGOZA,Zaragoza,PASEO COLON 14,50006,976271660,184,Hospitales de media y larga estancia,ORGANIZACIONES NO GUBERNAMENTALES,,Red de utilización pública (RUP),SI
250000002,500129,HOSPITAL QUIRONSALUD ZARAGOZA,ARAGÓN,ZARAGOZA,Zaragoza,PASEO MARIANO RENOVALES S/N,50006,976720000,104,Hospitales Generales,PRIVADOS,,Concierto parcial,NO
250000034,500068,CENTRO DE REHABILITACION PSICOSOCIAL NUESTRA SEÑORA DEL PILAR,ARAGÓN,ZARAGOZA,Zaragoza,CALLE DUQUESA VILLAHERMOSA 66-68,50009,976331500,172,Hospitales de salud mental y tratamiento de toxicomanías,SERVICIOS E INSTITUTOS DE SALUD DE LAS COMUNIDADES AUTÓNOMAS,,Sin concierto,SI
250000035,500093,"CLINICA MONTPELLIER, GRUPO HLA,  S.A.U",ARAGÓN,ZARAGOZA,Zaragoza,VIA HISPANIDAD 37,50012,976765300,90,Hospitales Generales,PRIVADOS,,Concierto parcial,NO
250000067,500188,UNIDAD REHABILITADORA DE MEDIA ESTANCIA PROFESOR REY ARDID,ARAGÓN,ZARAGOZA,Zaragoza,CALLE CAMINO VIEJO DE LA ALFOCEA 10,50191,976731000,39,Hospitales de salud mental y tratamiento de toxicomanías,ORGANIZACIONES NO GUBERNAMENTALES,,Red de utilización pública (RUP),NO
250000068,500055,HOSPITAL ROYO VILLANOVA,ARAGÓN,ZARAGOZA,Zaragoza,AVENIDA SAN GREGORIO 30,50015,976466910,254,Hospitales Generales,SERVICIOS E INSTITUTOS DE SALUD DE LAS COMUNIDADES AUTÓNOMAS,,Sin concierto,SI
250000069,500021,HOSPITAL UNIVERSITARIO MIGUEL SERVET,ARAGÓN,ZARAGOZA,Zaragoza,PASEO ISABEL LA CATOLICA 1-3,50009,976765500,1213,Hospitales Generales,SERVICIOS E INSTITUTOS DE SALUD DE LAS COMUNIDADES AUTÓNOMAS,,Sin concierto,SI
250000070,500107,CENTRO NEUROPSIQUIATRICO NUESTRA SEÑORA DEL CARMEN,ARAGÓN,ZARAGOZA,Zaragoza,CAMINO ABEJAR 100,50190,976770635,277,Hospitales de salud mental y tratamiento de toxicomanías,ORGANIZACIONES NO GUBERNAMENTALES,,Concierto parcial,SI
250000071,500016,HOSPITAL CLINICO UNIVERSITARIO LOZANO BLESA,ARAGÓN,ZARAGOZA,Zaragoza,CALLE SAN JUAN BOSCO 15,50009,976765700,807,Hospitales Generales,SERVICIOS E INSTITUTOS DE SALUD DE LAS COMUNIDADES AUTÓNOMAS,,Sin concierto,SI
250000072,500135,CLINICA NUESTRA SEÑORA DEL PILAR,ARAGÓN,ZARAGOZA,Zaragoza,PASEO RUISEÑORES 20,50006,976275700,34,Hospitales Generales,PRIVADOS,,Concierto parcial,NO
250000082,500153,HOSPITAL ERNEST LLUCH MARTIN,ARAGÓN,ZARAGOZA,Calatayud,CARRETERA SAGUNTO BURGOS KM 254,50300,976880964,122,Hospitales Generales,SERVICIOS E INSTITUTOS DE SALUD DE LAS COMUNIDADES AUTÓNOMAS,,Sin concierto,SI
250000083,500074,HOSPITAL NUESTRA SEÑORA DE GRACIA,ARAGÓN,ZARAGOZA,Zaragoza,CALLE RAMON Y  CAJAL 60,50004,976440022,151,Hospitales Generales,SERVICIOS E INSTITUTOS DE SALUD DE LAS COMUNIDADES AUTÓNOMAS,,Sin concierto,SI
250000085,500172,UNIDAD DE REHABILITACION DE LARGA ESTANCIA,ARAGÓN,ZARAGOZA,Sádaba,CARRETERA SOS S/N,50670,976675479,45,Hospitales de salud mental y tratamiento de toxicomanías,ORGANIZACIONES NO GUBERNAMENTALES,,Concierto parcial,NO
250000086,500195,HOSPITAL DE REHABILITACION PSIQUIATRICA PRISMA,ARAGÓN,ZARAGOZA,Zaragoza,CALLE TORRE DEL CEREZO (SAN JUAN DE MOZARRIFAR) 17,50820,976151152,50,Hospitales de salud mental y tratamiento de toxicomanías,PRIVADOS,,Sin concierto,NO
250000087,500080,HOSPITAL MAZ,ARAGÓN,ZARAGOZA,Zaragoza,AVENIDA ACADEMIA GENERAL MILITAR 74,50015,976748000,107,Hospitales Generales,MÚTUAS COLABORADORAS CON LA SEGURIDAD SOCIAL,,Sin concierto,NO
250000091,500218,HOSPITAL VIAMED MONTECANAL,ARAGÓN,ZARAGOZA,Zaragoza,CALLE FRANZ SCHUBERT 2,50012,876241818,68,Hospitales Generales,PRIVADOS,,Concierto parcial,NO
250000095,500200,CENTRO SANITARIO CINCO VILLAS,ARAGÓN,ZARAGOZA,Ejea de los Caballeros,CALLE ANTONIO MACHADO S/N,50600,976677978,32,Otros Centros con Internamiento,SERVICIOS E INSTITUTOS DE SALUD DE LAS COMUNIDADES AUTÓNOMAS,,Sin concierto,NO
250004610,500140,HOSPITAL GENERAL DE LA DEFENSA EN ZARAGOZA,ARAGÓN,ZARAGOZA,Zaragoza,CALLE VIA IBERICA 1-15 1-15,50009,976567710,200,Hospitales Generales,MINISTERIO DE DEFENSA,,Sin concierto,NO
250005838,500223,HOSPITAL HERNAN CORTES MIRAFLORES,ARAGÓN,ZARAGOZA,Zaragoza,CAMINO TORRES (DE LAS) 51-53,50008,976222981,36,Hospitales Generales,PRIVADOS,,Sin concierto,SI
333000032,330321,CENTRO SALUD MENTAL PEREZ ESPINOSA,ASTURIAS,ASTURIAS,Llanera,CALLE SANTA ROSA 6,33690,985771677,35,Hospitales de salud mental y tratamiento de toxicomanías,PRIVADOS,,Sin concierto,NO
333000265,330376,INSTITUTO OFTALMOLOGICO FERNANDEZ-VEGA,ASTURIAS,ASTURIAS,Oviedo,AVENIDA DTRES. FERNANDEZ VEGA 34,33012,985241512,13,Hospitales especializados,PRIVADOS,,Sin concierto,SI
333000848,330254,FUNDACION SANATORIO ADARO,ASTURIAS,ASTURIAS,Langreo,CALLE JOVE Y CANELLA 1,33900,985692111,138,Hospitales de media y larga estancia,PRIVADOS,,Red de utilización pública (RUP),NO
333001050,330138,HOSPITAL CARMEN Y SEVERO OCHOA,ASTURIAS,ASTURIAS,Cangas del Narcea,CALLE SIENRA 11,33800,985812346,103,Hospitales Generales,SERVICIOS E INSTITUTOS DE SALUD DE LAS COMUNIDADES AUTÓNOMAS,,Sin concierto,SI
333001052,330241,HOSPITAL VALLE DEL NALON,ASTURIAS,ASTURIAS,Langreo,POLIGONO DE RIAÑO S/N,33920,985652000,223,Hospitales Generales,SERVICIOS E INSTITUTOS DE SALUD DE LAS COMUNIDADES AUTÓNOMAS,,Sin concierto,SI
333001472,330045,HOSPITAL MONTE NARANCO,ASTURIAS,ASTURIAS,Oviedo,AVENIDA DOCTORES FENANDEZ VEGA S/N,33012,985106900,194,Hospitales de media y larga estancia,SERVICIOS E INSTITUTOS DE SALUD DE LAS COMUNIDADES AUTÓNOMAS,,Sin concierto,SI
333002321,330313,HOSPITAL DE LUARCA,ASTURIAS,ASTURIAS,Valdés,CALLE VILLAR S/N 0,33700,985470707;985470727,19,Otros Centros con Internamiento,PRIVADOS,,Sin concierto,NO
333002526,330208,HOSPITAL  BEGOÑA,ASTURIAS,ASTURIAS,Gijón,AVENIDA PABLO IGLESIAS 92,33204,985367711,41,Hospitales Generales,PRIVADOS,,Sin concierto,NO
333002562,330077,CLINICA ASTURIAS,ASTURIAS,ASTURIAS,Oviedo,CALLE NARANJO DE BULNES 4-6,33012,985286000,46,Hospitales Generales,PRIVADOS,,Concierto parcial,NO
333002574,330306,HOSPITAL DEL ORIENTE DE ASTURIAS FRANCISCO GRANDE COVIAN,ASTURIAS,ASTURIAS,Parres,URBANIZACION CASTAÑERA S/N,33540,985840032,90,Hospitales Generales,SERVICIOS E INSTITUTOS DE SALUD DE LAS COMUNIDADES AUTÓNOMAS,,Sin concierto,SI
333002581,330332,CLINICA PSIQUIATRICA SOMIO,ASTURIAS,ASTURIAS,Gijón,"CARRETERA LA PROVIDENCIA-INFANZON, 3518 3518",33203,985133806,40,Hospitales de salud mental y tratamiento de toxicomanías,PRIVADOS,,Sin concierto,NO
333002620,330096,CLINICA SAN RAFAEL,ASTURIAS,ASTURIAS,Oviedo,"CALLE LA ESTRECHA, 33",33011,985282526;985290284,36,Hospitales de salud mental y tratamiento de toxicomanías,PRIVADOS,,Sin concierto,NO
333002775,330169,HOSPITAL CRUZ ROJA,ASTURIAS,ASTURIAS,Gijón,CALLE URIA 37,33202,985195000,120,Hospitales Generales,PRIVADOS,,Red de utilización pública (RUP),NO
333002776,330194,HOSPITAL DE JOVE,ASTURIAS,ASTURIAS,Gijón,AVENIDA EDUARDO CASTRO S/N,33290,985320050,233,Hospitales Generales,PRIVADOS,,Sin concierto,SI
333002777,330100,HOSPITAL UNIVERSITARIO SAN AGUSTIN,ASTURIAS,ASTURIAS,Avilés,CAMINO DE HEROS 6,33401,985123000,436,Hospitales Generales,SERVICIOS E INSTITUTOS DE SALUD DE LAS COMUNIDADES AUTÓNOMAS,,Sin concierto,SI
333002780,330156,HOSPITAL UNIVERSITARIO DE CABUEÑES,ASTURIAS,ASTURIAS,Gijón,CALLE LOS PRADOS 395,33203,985185000,457,Hospitales Generales,SERVICIOS E INSTITUTOS DE SALUD DE LAS COMUNIDADES AUTÓNOMAS,,Sin concierto,SI
333002781,330175,HOSPITAL COVADONGA,ASTURIAS,ASTURIAS,Gijón,CALLE GENERAL SUAREZ VALDES 40,33204,985365122,24,Hospitales Generales,PRIVADOS,,Sin concierto,NO
333003295,330365,CENTRO TERAPEUTICO VISTA ALEGRE,ASTURIAS,ASTURIAS,Gijón,CALLE PROFESOR PEREZ PIMENTEL (LA GUIA - SOMIO) 30,33203,985363435;985771677,28,Hospitales de salud mental y tratamiento de toxicomanías,PRIVADOS,,Sin concierto,NO
333003415,330061,CENTRO MEDICO DE ASTURIAS,ASTURIAS,ASTURIAS,Oviedo,AVENIDA RICHARD GRANDIO S/N,33193,985250300,105,Hospitales Generales,PRIVADOS,,Concierto parcial,NO
333003421,330117,FUNDACION HOSPITAL DE AVILES,ASTURIAS,ASTURIAS,Avilés,CALLE CABRUÑANA 19,33400,627513515;985525744,90,Hospitales especializados,OTROS CENTROS O ESTABLECIMIENTOS PÚBLICOS DE DEPENDENCIA AUTONÓMICA,,Concierto parcial,SI
333004419,330143,HOSPITAL DE JARRIO,ASTURIAS,ASTURIAS,Coaña,CARRETERA DE JARRIO S/N,33719,985639300,116,Hospitales Generales,SERVICIOS E INSTITUTOS DE SALUD DE LAS COMUNIDADES AUTÓNOMAS,,Sin concierto,SI
333005233,330354,HOSPITAL GIJON,ASTURIAS,ASTURIAS,Gijón,AVENIDA DE LA COSTA 45,33201,985360612;985360613,32,Hospitales de media y larga estancia,PRIVADOS,,Sin concierto,NO
333005240,330292,HOSPITAL UNIVERSITARIO CENTRAL DE ASTURIAS,ASTURIAS,ASTURIAS,Oviedo,AVENIDA DE ROMA S/N,33011,985108000,991,Hospitales Generales,SERVICIOS E INSTITUTOS DE SALUD DE LAS COMUNIDADES AUTÓNOMAS,,Sin concierto,SI
333005582,330325,HOSPITAL VITAL ALVAREZ BUYLLA,ASTURIAS,ASTURIAS,Mieres,CALLE VISTALEGRE 2,33619,985458500,176,Hospitales Generales,SERVICIOS E INSTITUTOS DE SALUD DE LAS COMUNIDADES AUTÓNOMAS,,Sin concierto,SI
333005787,330387,HOSPITAL DE CAMPAÑA SANITARIO (HCS144),ASTURIAS,ASTURIAS,Gijón,PASEO DR. FLEMING 481,33203,985108501,144,Otros Centros con Internamiento,SERVICIOS E INSTITUTOS DE SALUD DE LAS COMUNIDADES AUTÓNOMAS,,Sin concierto,NO
407000001,70309,HOSPITAL  DE MANACOR,ILLES BALEARS,ILLES BALEARS,Manacor,CARRETERA MANACOR - ALCUDIA S/N,7500,971847000,224,Hospitales Generales,SERVICIOS E INSTITUTOS DE SALUD DE LAS COMUNIDADES AUTÓNOMAS,,Sin concierto,SI
407000002,70048,HOSPITAL GENERAL DE MALLORCA,ILLES BALEARS,ILLES BALEARS,Palma,PLAZA HOSPITAL 3,7012,871205000,100,Hospitales de media y larga estancia,SERVICIOS E INSTITUTOS DE SALUD DE LAS COMUNIDADES AUTÓNOMAS,,Sin concierto,NO
407000003,70260,HOSPITAL JUANEDA MURO,ILLES BALEARS,ILLES BALEARS,Muro,CALLE VELER S/N,7408,971891900,85,Hospitales Generales,PRIVADOS,,Concierto parcial,NO
407000004,70099,CLINICA ROTGER,ILLES BALEARS,ILLES BALEARS,Palma,CALLE SANTIAGO RUSSINYOL 9,7012,971448500,186,Hospitales Generales,PRIVADOS,,Sin concierto,NO
407000005,70086,HOSPITAL SANT JOAN DE DEU,ILLES BALEARS,ILLES BALEARS,Palma,CALLE SANT JOAN DE DEU 7,7007,971265854,197,Hospitales de media y larga estancia,PRIVADOS,,Sin concierto,NO
407000006,70295,CLINICA JUANEDA MAHON,ILLES BALEARS,ILLES BALEARS,Maó-Mahón,AVENIDA VIVES LLULL 6,7703,971351115,15,Hospitales Generales,PRIVADOS,,Concierto parcial,NO
407000008,70110,CLINICA JUANEDA,ILLES BALEARS,ILLES BALEARS,Palma,CALLE COMPANY 30,7014,971731647,191,Hospitales Generales,PRIVADOS,,Sin concierto,NO
407000009,70131,JUANEDA MIRAMAR,ILLES BALEARS,ILLES BALEARS,Palma,CALLE CAMI DE LA VILETA 30,7011,971767001,291,Hospitales Generales,PRIVADOS,,Concierto parcial,NO
407000010,70184,HOSPITAL CAN MISSES,ILLES BALEARS,ILLES BALEARS,Eivissa,CALLE CORONA S/N,7800,971397000,307,Hospitales Generales,SERVICIOS E INSTITUTOS DE SALUD DE LAS COMUNIDADES AUTÓNOMAS,,Sin concierto,SI
407000011,70064,MUTUA BALEAR,ILLES BALEARS,ILLES BALEARS,Palma,CALLE BISBE CAMPINS 4,7012,971213400,40,Hospitales Generales,MÚTUAS COLABORADORAS CON LA SEGURIDAD SOCIAL,,Sin concierto,SI
407000032,70244,CLINICA JUANEDA MENORCA,ILLES BALEARS,ILLES BALEARS,Ciutadella de Menorca,CALLE CANONGE MOLL S/N,7760,971480505,41,Hospitales Generales,PRIVADOS,,Concierto parcial,NO
407000216,70051,HOSPITAL PSIQUIATRIC,ILLES BALEARS,ILLES BALEARS,Palma,CALLE CAMI DE JESUS 40,7010,871205000,168,Hospitales de salud mental y tratamiento de toxicomanías,SERVICIOS E INSTITUTOS DE SALUD DE LAS COMUNIDADES AUTÓNOMAS,,Sin concierto,NO
407000218,70162,HOSPITAL JOAN MARCH,ILLES BALEARS,ILLES BALEARS,Bunyola,CARRETERA PALMA-SOLLER KM. 12,7110,871202000,106,Hospitales de media y larga estancia,SERVICIOS E INSTITUTOS DE SALUD DE LAS COMUNIDADES AUTÓNOMAS,,Sin concierto,SI
407000411,70377,HOSPITAL COMARCAL D´INCA,ILLES BALEARS,ILLES BALEARS,Inca,CARRETERA VELLA DE LLUBI S/N,7300,971888514,163,Hospitales Generales,SERVICIOS E INSTITUTOS DE SALUD DE LAS COMUNIDADES AUTÓNOMAS,,Sin concierto,SI
407000423,70388,HOSPITAL MATEU ORFILA,ILLES BALEARS,ILLES BALEARS,Maó-Mahón,RONDA MALBUGER 1,7703,971487000,142,Hospitales Generales,SERVICIOS E INSTITUTOS DE SALUD DE LAS COMUNIDADES AUTÓNOMAS,,Sin concierto,SI
407000872,70399,HOSPITAL UNIVERSITARI SON ESPASES,ILLES BALEARS,ILLES BALEARS,Palma,CARRETERA VALLDEMOSSA 79,7120,871205001,839,Hospitales Generales,SERVICIOS E INSTITUTOS DE SALUD DE LAS COMUNIDADES AUTÓNOMAS,,Sin concierto,SI
407001219,70201,POLICLINICA NUESTRA SRA. DEL ROSARIO,ILLES BALEARS,ILLES BALEARS,Eivissa,VIA ROMANA S/N,7800,971301916,68,Hospitales Generales,PRIVADOS,,Concierto parcial,NO
407001223,70070,HOSPITAL DE LA CREU ROJA ESPANYOLA,ILLES BALEARS,ILLES BALEARS,Palma,CALLE PONS I GALLARZA 90,7004,971751440,73,Hospitales de media y larga estancia,PRIVADOS,,Red de utilización pública (RUP),NO
407001617,70333,HOSPITAL SON LLATZER,ILLES BALEARS,ILLES BALEARS,Palma,CARRETERA MANACOR KM. 4,7198,871202000,417,Hospitales Generales,SERVICIOS E INSTITUTOS DE SALUD DE LAS COMUNIDADES AUTÓNOMAS,,Sin concierto,SI
407001618,70344,HOSPITAL QUIRONSALUD PALMAPLANAS,ILLES BALEARS,ILLES BALEARS,Palma,CALLE CAMI DELS REIS 308,7010,971918000,169,Hospitales Generales,PRIVADOS,,Concierto parcial,NO
407001619,70366,HOSPITAL DE FORMENTERA,ILLES BALEARS,ILLES BALEARS,Formentera,CALLE VENDA DES BROLLS S/N,7860,971321212,12,Hospitales Generales,SERVICIOS E INSTITUTOS DE SALUD DE LAS COMUNIDADES AUTÓNOMAS,,Sin concierto,NO
407001647,70412,HOSPITAL DE LLEVANT,ILLES BALEARS,ILLES BALEARS,Manacor,CALLE ESCAMARLA 6,7680,971822400,70,Hospitales Generales,PRIVADOS,,Sin concierto,NO
407001688,70423,HOSPITAL QUIRONSALUD SON VERI,ILLES BALEARS,ILLES BALEARS,Llucmajor,PASEO ARBREDA S/N,7609,971443030,34,Hospitales Generales,PRIVADOS,,Concierto parcial,NO
407003152,70434,CLINICA LUZ DE PALMA,ILLES BALEARS,ILLES BALEARS,Palma,CALLE CAMILO JOSE CELA 20,7014,971599167,38,Hospitales Generales,PRIVADOS,,Sin concierto,NO
535000315,350167,CLINICA CAJAL,CANARIAS,LAS PALMAS,"Palmas de Gran Canaria, Las",CALLE SENADOR CASTILLO OLIVARES 15,35003,928369166,136,Hospitales Generales,PRIVADOS,,Sin concierto,NO
535000319,350287,HOSPITAL CIUDAD DE TELDE,CANARIAS,LAS PALMAS,Telde,CALLE MISTER BLISSE S/N,35212,928707555,219,Hospitales de media y larga estancia,PRIVADOS,,Concierto parcial,NO
535000320,350154,HOSPITAL LA PALOMA,CANARIAS,LAS PALMAS,"Palmas de Gran Canaria, Las",CALLE MAESTRO VALLE 20,35005,928234466,108,Hospitales Generales,PRIVADOS,,Concierto parcial,NO
535000321,350206,HOSPITAL PERPETUO SOCORRO,CANARIAS,LAS PALMAS,"Palmas de Gran Canaria, Las",CALLE LEON Y CASTILLO 407,35007,928499900,185,Hospitales Generales,PRIVADOS,,Concierto parcial,SI
535000322,350304,HOSPITEN CLINICA ROCA SAN AGUSTIN,CANARIAS,LAS PALMAS,San Bartolomé de Tirajana,CALLE BUGANVILLA 1,35100,928769004,81,Hospitales Generales,PRIVADOS,,Concierto parcial,NO
535000323,350115,HOSPITAL SAN JOSE,CANARIAS,LAS PALMAS,"Palmas de Gran Canaria, Las",CALLE PADRE CUETO 26,35008,928263708,66,Hospitales Generales,PRIVADOS,,Concierto parcial,NO
535000324,350120,VITHAS HOSPITAL SANTA CATALINA,CANARIAS,LAS PALMAS,"Palmas de Gran Canaria, Las",CALLE LEON Y CASTILLO 292,35005,928297151,152,Hospitales Generales,PRIVADOS,,Concierto parcial,NO
535000463,350326,HOSPITEN LANZAROTE,CANARIAS,LAS PALMAS,Tías,CAMINO LOMO GORDO S/N,35572,928596100,61,Hospitales Generales,PRIVADOS,,Concierto parcial,NO
535000688,350265,QUINTA MEDICA DE REPOSO,CANARIAS,LAS PALMAS,Santa Brígida,CAMINO PALMA ROMERO 7,35300,928640050,60,Hospitales de salud mental y tratamiento de toxicomanías,PRIVADOS,,Sin concierto,NO
535001243,350367,HOSPITAL SAN ROQUE MASPALOMAS,CANARIAS,LAS PALMAS,San Bartolomé de Tirajana,CALLE MAR DE SIBERIA 1,35100,928063615,147,Hospitales Generales,MUNICIPIO,,Concierto parcial,SI
535001314,350173,CLINICA SAN ROQUE,CANARIAS,LAS PALMAS,"Palmas de Gran Canaria, Las",CALLE DOLORES DE LA ROCHA 5,35001,928404040,162,Hospitales Generales,PRIVADOS,,Concierto parcial,SI
535001550,350192,CLINICA BANDAMA,CANARIAS,LAS PALMAS,"Palmas de Gran Canaria, Las",CALLE SANTA TERESA 9,35017,928350050;928350054,64,Hospitales de salud mental y tratamiento de toxicomanías,PRIVADOS,,Sin concierto,NO
535001830,350311,HOSPITAL UNIVERSITARIO DE GRAN CANARIA DR. NEGRIN,CANARIAS,LAS PALMAS,"Palmas de Gran Canaria, Las",PLAZA BARRANCO DE LA BALLENA S/N,35012,928450000,652,Hospitales Generales,SERVICIOS E INSTITUTOS DE SALUD DE LAS COMUNIDADES AUTÓNOMAS,,Sin concierto.,NO
535001838,350290,COMPLEJO HOSPITALARIO UNIVERSITARIO INSULAR MATERNO INFANTIL,CANARIAS,LAS PALMAS,"Palmas de Gran Canaria, Las",CALLE AUTOVIA DEL SUR S/N,35016,928444000,916,Hospitales Generales,SERVICIOS E INSTITUTOS DE SALUD DE LAS COMUNIDADES AUTÓNOMAS,,Sin concierto,SI
535001908,350252,HOSPITAL GENERAL DE FUERTEVENTURA,CANARIAS,LAS PALMAS,Puerto del Rosario,CALLE CARRETERA AEROPUERTO KM 1,35600,928862000,131,Hospitales Generales,SERVICIOS E INSTITUTOS DE SALUD DE LAS COMUNIDADES AUTÓNOMAS,,Sin concierto,SI
535002081,350390,CLINICA JORGANI,CANARIAS,LAS PALMAS,Teguise,CALLE AVDA. ISLAS CANARIAS 5,35508,928346868,11,Otros Centros con Internamiento,PRIVADOS,,Sin concierto,NO
535002243,350228,HOSPITAL DOCTOR JOSE MOLINA OROSA,CANARIAS,LAS PALMAS,Arrecife,CALLE CARRETERA ARRECIFE- TINAJO KM 1300 0,35500,928 595 102;928 595 103;928595000,252,Hospitales Generales,SERVICIOS E INSTITUTOS DE SALUD DE LAS COMUNIDADES AUTÓNOMAS,,Sin concierto,SI
535003839,350271,HOSPITAL SAN ROQUE DE GUIA,CANARIAS,LAS PALMAS,Santa María de Guía de Gran Canaria,LUGAR DISEMINADO CUESTA DE CARABALLO 11,35450,928896500,54,Hospitales de media y larga estancia,SERVICIOS E INSTITUTOS DE SALUD DE LAS COMUNIDADES AUTÓNOMAS,,Sin concierto.,NO
535003845,350069,HOSPITAL UNIVERSITARIO DE SALUD MENTAL JUAN CARLOS I,CANARIAS,LAS PALMAS,"Palmas de Gran Canaria, Las",CALLE REAL DEL CASTILLO 152,35014,928302734,119,Hospitales de salud mental y tratamiento de toxicomanías,OTROS CENTROS O ESTABLECIMIENTOS PÚBLICOS DE DEPENDENCIA AUTONÓMICA,,Sin concierto.,NO
535003934,350249,HOSPITAL INSULAR DE LANZAROTE,CANARIAS,LAS PALMAS,Arrecife,CALLE JUAN DE QUESADA S/N,35500,928810000,80,Hospitales de media y larga estancia,SERVICIOS E INSTITUTOS DE SALUD DE LAS COMUNIDADES AUTÓNOMAS,,Sin concierto,NO
538000115,380201,CLINICA VIDA,CANARIAS,SANTA CRUZ DE TENERIFE,"Orotava, La",CALLE MAGNOLIAS 2,38312,922330550,24,Hospitales Generales,PRIVADOS,,Sin concierto,NO
538000116,380103,HOSPITAL PARQUE,CANARIAS,SANTA CRUZ DE TENERIFE,Santa Cruz de Tenerife,CALLE MENDEZ NUÑEZ 40,38003,922274400,64,Hospitales Generales,PRIVADOS,,Concierto parcial,NO
538000118,380359,CLINICA TARA,CANARIAS,SANTA CRUZ DE TENERIFE,Tacoronte,CALLE CASAS ALTAS S/N,38399,922563351,12,Otros Centros con Internamiento,PRIVADOS,,Concierto parcial,SI
538000120,380282,HOSPITAL QUIRON SALUD COSTA ADEJE,CANARIAS,SANTA CRUZ DE TENERIFE,Adeje,URBANIZACION SAN EUGENIO S/N,38660,922752626,62,Hospitales Generales,PRIVADOS,,Sin concierto,NO
538000121,380146,HOSPITEN SUR,CANARIAS,SANTA CRUZ DE TENERIFE,Arona,CALLE AV. MARITIMA 8,38660,922750032,242,Hospitales Generales,PRIVADOS,,Concierto parcial,SI
538000126,380223,HOSPITEN BELLEVUE,CANARIAS,SANTA CRUZ DE TENERIFE,Puerto de la Cruz,CALLE ALEMANIA 4,38400,922383551,195,Hospitales Generales,PRIVADOS,,Concierto parcial,SI
538000373,380295,HOSPITEN RAMBLA,CANARIAS,SANTA CRUZ DE TENERIFE,Santa Cruz de Tenerife,RAMBLA SANTA CRUZ 115,38001,922291600,97,Hospitales Generales,PRIVADOS,,Concierto parcial,NO
538000536,380086,HOSPITAL QUIRON SALUD TENERIFE,CANARIAS,SANTA CRUZ DE TENERIFE,Santa Cruz de Tenerife,CALLE POETA RODRIGUEZ HERRERA 1,38006,922270700,187,Hospitales Generales,PRIVADOS,,Concierto parcial,NO
538001244,380064,HOSPITAL SAN JUAN DE DIOS TENERIFE,CANARIAS,SANTA CRUZ DE TENERIFE,Santa Cruz de Tenerife,CARRETERA SANTA CRUZ LAGUNA 53,38009,922645511,141,Hospitales Generales,ORGANIZACIONES NO GUBERNAMENTALES,,Concierto parcial,NO
538001821,380178,HOSPITAL UNIVERSITARIO DE CANARIAS,CANARIAS,SANTA CRUZ DE TENERIFE,San Cristóbal de La Laguna,CARRETERA CUESTA TACO S/N,38320,922678000,681,Hospitales Generales,SERVICIOS E INSTITUTOS DE SALUD DE LAS COMUNIDADES AUTÓNOMAS,,Sin concierto.,NO
538001932,380027,HOSPITAL UNIVERSITARIO NUESTRA SEÑORA DE LA CANDELARIA,CANARIAS,SANTA CRUZ DE TENERIFE,Santa Cruz de Tenerife,CARRETERA ROSARIO (DEL) 145,38010,922602000,891,Hospitales Generales,SERVICIOS E INSTITUTOS DE SALUD DE LAS COMUNIDADES AUTÓNOMAS,,Sin concierto.,NO
538002288,380276,HOSPITAL INSULAR NUESTRA SEÑORA DE LOS REYES,CANARIAS,SANTA CRUZ DE TENERIFE,Valverde,CALLE CALLE LOS BARRIALES 1,38900,922 553 505;922553505,32,Hospitales Generales,SERVICIOS E INSTITUTOS DE SALUD DE LAS COMUNIDADES AUTÓNOMAS,,Sin concierto,NO
538002289,380244,HOSPITAL NUESTRA SEÑORA DE GUADALUPE,CANARIAS,SANTA CRUZ DE TENERIFE,San Sebastián de la Gomera,CALLE LANGRERO S/N,38800,922140219,40,Hospitales Generales,SERVICIOS E INSTITUTOS DE SALUD DE LAS COMUNIDADES AUTÓNOMAS,,Sin concierto,NO
538002290,380316,HOSPITAL GENERAL DE LA PALMA,CANARIAS,SANTA CRUZ DE TENERIFE,Breña Alta,CAMINO CUMBRE (DE LA) 28,38713,922 185 000;922185000,198,Hospitales Generales,SERVICIOS E INSTITUTOS DE SALUD DE LAS COMUNIDADES AUTÓNOMAS,,Sin concierto,SI
538002380,380348,HOSPITAL DEL SUR,CANARIAS,SANTA CRUZ DE TENERIFE,Arona,CALLE LADERAS DEL MOJON S/N,38627,922174740,98,Hospitales Generales,SERVICIOS E INSTITUTOS DE SALUD DE LAS COMUNIDADES AUTÓNOMAS,,Sin concierto.,NO
538002381,380337,HOSPITAL DEL NORTE,CANARIAS,SANTA CRUZ DE TENERIFE,Icod de los Vinos,CALLE GAVIOTAS (LAS) 22,38437,922 678 061;922678061,51,Hospitales de media y larga estancia,SERVICIOS E INSTITUTOS DE SALUD DE LAS COMUNIDADES AUTÓNOMAS,,Sin concierto.,NO
538004230,380033,HOSPITAL DEL TORAX,CANARIAS,SANTA CRUZ DE TENERIFE,Santa Cruz de Tenerife,CALLE SANTA MARIA SOLEDAD 28,38010,922602000,63,Hospitales Generales,SERVICIOS E INSTITUTOS DE SALUD DE LAS COMUNIDADES AUTÓNOMAS,,Sin concierto.,NO
538004244,380048,HOSPITAL PSIQUIATRICO DE TENERIFE,CANARIAS,SANTA CRUZ DE TENERIFE,Santa Cruz de Tenerife,CALLE DOMINGO J MANRIQUE 2,38006,922678000,94,Hospitales de salud mental y tratamiento de toxicomanías,SERVICIOS E INSTITUTOS DE SALUD DE LAS COMUNIDADES AUTÓNOMAS,,Sin concierto.,NO
639000197,390015,HOSPITAL UNIVERSITARIO MARQUES DE VALDECILLA,CANTABRIA,CANTABRIA,Santander,AVENIDA VALDECILLA S/N,39008,942202520,923,Hospitales Generales,SERVICIOS E INSTITUTOS DE SALUD DE LAS COMUNIDADES AUTÓNOMAS,,Sin concierto,SI
639000455,390152,CLINICA MOMPIA,CANTABRIA,CANTABRIA,Santa Cruz de Bezana,AVENIDA DE LOS CONDES S/N,39109,942584100,105,Hospitales Generales,PRIVADOS,,Sin concierto,NO
639000456,390134,HOSPITAL COMARCAL DE LAREDO,CANTABRIA,CANTABRIA,Laredo,AVENIDA DERECHOS HUMANOS S/N,39770,942638500;942638502,131,Hospitales Generales,SERVICIOS E INSTITUTOS DE SALUD DE LAS COMUNIDADES AUTÓNOMAS,,Sin concierto,NO
639000462,390054,HOSPITAL SANTA CLOTILDE,CANTABRIA,CANTABRIA,Santander,CALLE GENERAL DAVILA 35,39006,942211678;942217711,127,Hospitales de media y larga estancia,PRIVADOS,,Sin concierto,NO
639000883,390041,HOSPITAL RAMON NEGRETE,CANTABRIA,CANTABRIA,Santander,AVENIDA DEL FARO NÃ?Âº 33,39012,942204100,30,Hospitales especializados,MÚTUAS COLABORADORAS CON LA SEGURIDAD SOCIAL,,Sin concierto,NO
639000989,390149,HOSPITAL SIERRALLANA,CANTABRIA,CANTABRIA,Torrelavega,BARRIO GANZO S/N,39300,942847400,301,Hospitales Generales,SERVICIOS E INSTITUTOS DE SALUD DE LAS COMUNIDADES AUTÓNOMAS,,Sin concierto,NO
639001300,390067,CENTRO HOSPITALARIO PADRE MENNI,CANTABRIA,CANTABRIA,Santander,AVENIDA CANTABRIA NÃ?Âº 52,39012,942390060;942391260,65,Hospitales de salud mental y tratamiento de toxicomanías,PRIVADOS,,Sin concierto,NO
705000769,50013,HOSPITAL NUESTRA SEÑORA DE SONSOLES (COMPLEJO ASISTENCIAL DE AVILA),CASTILLA Y LEÓN,ÁVILA,Ávila,AVENIDA DE JUAN CARLOS I 0,5071,920358027,340,Hospitales Generales,SERVICIOS E INSTITUTOS DE SALUD DE LAS COMUNIDADES AUTÓNOMAS,,Sin concierto.,NO
705000770,50049,HOSPITAL SANTA TERESA,CASTILLA Y LEÓN,ÁVILA,Ávila,AVENIDA SANTA CRUZ DE TENERIFE 11,5005,920221450,33,Hospitales Generales,PRIVADOS,,Sin concierto,NO
705000771,50034,HOSPITAL PROVINCIAL DE AVILA (COMPLEJO ASISTENCIAL DE AVILA),CASTILLA Y LEÓN,ÁVILA,Ávila,CALLE JESUS DEL GRAN PODER 42,5003,920358027,90,Otros Centros con Internamiento,SERVICIOS E INSTITUTOS DE SALUD DE LAS COMUNIDADES AUTÓNOMAS,,Sin concierto.,NO
705001823,50072,HOSPITAL DE SALUD MENTAL CASTA SALUD AREVALO,CASTILLA Y LEÓN,ÁVILA,Arévalo,PASEO SAN JUAN BOSCO 2,5200,920301400,80,Hospitales de salud mental y tratamiento de toxicomanías,PRIVADOS,,Concierto parcial,NO
709001369,90079,HOSPITAL SANTOS REYES,CASTILLA Y LEÓN,BURGOS,Aranda de Duero,AVENIDA RUPERTA BARAYA 6,9400,947522000,123,Hospitales Generales,SERVICIOS E INSTITUTOS DE SALUD DE LAS COMUNIDADES AUTÓNOMAS,,Sin concierto,NO
709001370,90098,HOSPITAL SANTIAGO APOSTOL,CASTILLA Y LEÓN,BURGOS,Miranda de Ebro,CARRETERA DE ORON S/N S/N,9200,947349000,114,Hospitales Generales,SERVICIOS E INSTITUTOS DE SALUD DE LAS COMUNIDADES AUTÓNOMAS,,Sin concierto,SI
709001371,90047,HOSPITAL RECOLETAS DE BURGOS,CASTILLA Y LEÓN,BURGOS,Burgos,CALLE CRUZ ROJA S/N S/N,9006,947244055,92,Hospitales Generales,PRIVADOS,,Sin concierto,NO
709001373,90155,HOSPITAL UNIVERSITARIO DE BURGOS (COMPLEJO ASISTENCIAL UNIVER. DE BURGOS),CASTILLA Y LEÓN,BURGOS,Burgos,AVENIDA ISLAS BALEARES S/N,9006,947256533,744,Hospitales Generales,SERVICIOS E INSTITUTOS DE SALUD DE LAS COMUNIDADES AUTÓNOMAS,,Sin concierto.,NO
709001374,90085,HOSPITAL RESIDENCIA ASISTIDA DE LA LUZ,CASTILLA Y LEÓN,BURGOS,Aranda de Duero,CALLE DURATON 2,9400,947500150,45,Hospitales de media y larga estancia,PRIVADOS,,Sin concierto,NO
709001375,90050,HOSPITAL SAN JUAN DE DIOS BURGOS,CASTILLA Y LEÓN,BURGOS,Burgos,PASEO DE LA ISLA 3,9003,947257730,160,Hospitales de media y larga estancia,ORGANIZACIONES NO GUBERNAMENTALES,,Concierto parcial,NO
709001376,90026,HOSPITAL FUENTE BERMEJA (COMPLEJO ASISTENCIAL UNIVERSITARIO DE BURGOS),CASTILLA Y LEÓN,BURGOS,Burgos,CALLE FRANCISCO SALINAS 0,9003,947256236,80,Hospitales de salud mental y tratamiento de toxicomanías,SERVICIOS E INSTITUTOS DE SALUD DE LAS COMUNIDADES AUTÓNOMAS,,Sin concierto.,NO
724001712,240016,HOSPITAL DE LEON (COMPLEJO ASISTENCIAL UNIVERSITARIO DE LEON),CASTILLA Y LEÓN,LEÓN,León,CALLE ALTOS DE NAVA 0,24073,987237400,801,Hospitales Generales,SERVICIOS E INSTITUTOS DE SALUD DE LAS COMUNIDADES AUTÓNOMAS,,Sin concierto.,NO
724001713,240135,HOSPITAL EL BIERZO,CASTILLA Y LEÓN,LEÓN,Ponferrada,CALLE MEDICOS SIN FRONTERAS 7,24411,987455304,402,Hospitales Generales,SERVICIOS E INSTITUTOS DE SALUD DE LAS COMUNIDADES AUTÓNOMAS,,Sin concierto,SI
724001714,240074,HOSPITAL HM SAN FRANCISCO,CASTILLA Y LEÓN,LEÓN,León,CALLE MARQUESES DE SAN ISIDRO 11,24004,987202111,75,Hospitales Generales,PRIVADOS,,Sin concierto,NO
724001715,240212,CLINICA PONFERRADA,CASTILLA Y LEÓN,LEÓN,Ponferrada,AVENIDA DE GALICIA 1,24400,987423732,53,Hospitales Generales,PRIVADOS,,Sin concierto,NO
724001716,240140,HOSPITAL DE LA REINA,CASTILLA Y LEÓN,LEÓN,Ponferrada,CALLE HOSPITAL 26-28,24401,987409109,72,Hospitales Generales,ORGANIZACIONES NO GUBERNAMENTALES,,Concierto parcial,NO
724001717,240188,HOSPITAL SAN JUAN DE DIOS LEON,CASTILLA Y LEÓN,LEÓN,San Andrés del Rabanedo,AVENIDA SAN IGNACIO DE LOYOLA 73,24010,000000000,216,Hospitales Generales,ORGANIZACIONES NO GUBERNAMENTALES,,Concierto parcial,NO
724001718,240055,REGLA HM HOSPITALES,CASTILLA Y LEÓN,LEÓN,León,CALLE CARDENAL LANDAZURI 2,24003,987236900,130,Hospitales Generales,PRIVADOS,,Sin concierto,NO
724001719,240021,HOSPITAL MONTE SAN ISIDRO COMPLEJO ASISTENCIAL UNIVERSITARIO DE LEON,CASTILLA Y LEÓN,LEÓN,León,CARRETERA DE ASTURIAS S/N S/N,24008,987227250,145,Hospitales de media y larga estancia,SERVICIOS E INSTITUTOS DE SALUD DE LAS COMUNIDADES AUTÓNOMAS,,Sin concierto.,NO
724001721,240220,HOSPITAL VALLE DE LACIANA,CASTILLA Y LEÓN,LEÓN,Villablino,AVENIDA DE ASTURIAS S/N S/N,24100,987481057,15,Hospitales de media y larga estancia,OTROS CENTROS O ESTABLECIMIENTOS PÚBLICOS DE DEPENDENCIA AUTONÓMICA,,Sin concierto,NO
724001722,240093,HOSPITAL SANTA ISABEL (COMPLEJO ASISTENCIAL UNIVERSITARIO DE LEON),CASTILLA Y LEÓN,LEÓN,León,"AVENIDA DE MADRID, 118",24080,987203000,117,Hospitales de salud mental y tratamiento de toxicomanías,SERVICIOS E INSTITUTOS DE SALUD DE LAS COMUNIDADES AUTÓNOMAS,,Sin concierto.,NO
734000718,340014,HOSPITAL RIO CARRION (COMPLEJO ASISTENCIAL UNIVERSITARIO DE PALENCIA),CASTILLA Y LEÓN,PALENCIA,Palencia,AVENIDA DONANTES DE SANGRE SN S/N,34005,979167000,376,Hospitales Generales,SERVICIOS E INSTITUTOS DE SALUD DE LAS COMUNIDADES AUTÓNOMAS,,Sin concierto.,NO
734000719,340029,HOSPITAL SAN TELMO (COMPLEJO ASISTENCIAL UNIVERSITARIO DE PALENCIA),CASTILLA Y LEÓN,PALENCIA,Palencia,AVENIDA SAN TELMO S/N,34005,979167000,119,Hospitales Generales,SERVICIOS E INSTITUTOS DE SALUD DE LAS COMUNIDADES AUTÓNOMAS,,Sin concierto.,NO
734000720,340053,HOSPITAL RECOLETAS DE PALENCIA,CASTILLA Y LEÓN,PALENCIA,Palencia,AVENIDA SIMON NIETO 31-34,34005,979747700,44,Hospitales Generales,PRIVADOS,,Concierto parcial,NO
734000721,340035,HOSPITAL PSIQUIATRICO SAN LUIS,CASTILLA Y LEÓN,PALENCIA,Palencia,"CARRETERA DE BURGOS, S/N S/N",34004,979165324,206,Hospitales de salud mental y tratamiento de toxicomanías,ORGANIZACIONES NO GUBERNAMENTALES,,Concierto parcial,NO
734000722,340040,AREA PSIQUIATRICA DEL CENTRO ASISTENCIAL  SAN JUAN DE DIOS,CASTILLA Y LEÓN,PALENCIA,Palencia,PASEO PADRE FAUSTINO CALVO 46,34005,979742300,97,Hospitales de salud mental y tratamiento de toxicomanías,ORGANIZACIONES NO GUBERNAMENTALES,,Red de utilización pública (RUP),NO
737001403,370037,HOSPITAL CLINICO UNIVERSITARIO DE SALAMANCA (COMPLEJO ASISTENCIAL UNIV.SA),CASTILLA Y LEÓN,SALAMANCA,Salamanca,PASEO DE SAN VICENTE 182,37007,923291100,616,Hospitales Generales,SERVICIOS E INSTITUTOS DE SALUD DE LAS COMUNIDADES AUTÓNOMAS,,Sin concierto.,NO
737001404,370074,HOSPITAL LOS MONTALVOS (COMPLEJO ASISTENCIAL UNIVERSITARIO DE SALAMANCA),CASTILLA Y LEÓN,SALAMANCA,Carrascal de Barregas,CARRETERA CIUDAD RODRIGO 0,37192,923291100,295,Hospitales Generales,SERVICIOS E INSTITUTOS DE SALUD DE LAS COMUNIDADES AUTÓNOMAS,,Sin concierto.,NO
737001405,370055,HOSPITAL GENERAL DE LA SANTISIMA TRINIDAD,CASTILLA Y LEÓN,SALAMANCA,Salamanca,"PASEO DE CARMELITAS, 74-94",37007,923269300,106,Hospitales Generales,PRIVADOS,,Sin concierto,NO
740000778,400019,HOSPITAL GENERAL DE SEGOVIA (COMPLEJO ASISTENCIAL DE SEGOVIA),CASTILLA Y LEÓN,SEGOVIA,Segovia,CALLE LUIS ERIK CLAVERIA NEUROLOGO S/N S/N,40002,921419100,375,Hospitales Generales,SERVICIOS E INSTITUTOS DE SALUD DE LAS COMUNIDADES AUTÓNOMAS,,Sin concierto,SI
740000779,400045,HOSPITAL RECOLETAS SEGOVIA NUESTRA SEÑORA DE LA MISERICORDIA,CASTILLA Y LEÓN,SEGOVIA,Segovia,CALLE DOCTOR VELASCO 21-23,40003,921460115,48,Hospitales Generales,PRIVADOS,,Sin concierto,NO
740000780,400058,UNIDAD DE REHABILITACION PSIQUIATRICA NUESTRA SEÑORA DE LA FUENCISLA,CASTILLA Y LEÓN,SEGOVIA,Palazuelos de Eresma,CARRETERA DE LA GRANJA 7,40194,921421800,56,Hospitales de salud mental y tratamiento de toxicomanías,DIPUTACIÓN O CABILDO,,Concierto parcial,NO
742000617,420011,HOSPITAL SANTA BARBARA (COMPLEJO ASISTENCIAL DE SORIA),CASTILLA Y LEÓN,SORIA,Soria,PASEO DE SANTA BARBARA 0,42005,975234301,250,Hospitales Generales,SERVICIOS E INSTITUTOS DE SALUD DE LAS COMUNIDADES AUTÓNOMAS,,Sin concierto.,NO
742000618,420026,HOSPITAL VIRGEN DEL MIRON (COMPLEJO ASISTENCIAL DE SORIA),CASTILLA Y LEÓN,SORIA,Soria,CARRETERA DE LOGROÑO 8,42005,975220850,91,Hospitales de media y larga estancia,SERVICIOS E INSTITUTOS DE SALUD DE LAS COMUNIDADES AUTÓNOMAS,,Sin concierto.,NO
747001312,470029,HOSPITAL CLINICO UNIVERSITARIO DE VALLADOLID,CASTILLA Y LEÓN,VALLADOLID,Valladolid,AVENIDA RAMON Y CAJAL 3,47003,983420000,777,Hospitales Generales,SERVICIOS E INSTITUTOS DE SALUD DE LAS COMUNIDADES AUTÓNOMAS,,Sin concierto,SI
747001314,470091,HOSPITAL MEDINA DEL CAMPO,CASTILLA Y LEÓN,VALLADOLID,Medina del Campo,CALLE PEÑARANDA DE BRACAMONTE 24,47000,983838001,111,Hospitales Generales,SERVICIOS E INSTITUTOS DE SALUD DE LAS COMUNIDADES AUTÓNOMAS,,Sin concierto,NO
747001315,470113,HOSPITAL RECOLETAS CAMPO GRANDE,CASTILLA Y LEÓN,VALLADOLID,Valladolid,"PLAZA DE COLON, S/N S/N",47000,983135555,93,Hospitales Generales,PRIVADOS,,Concierto parcial,NO
747001316,470105,HOSPITAL DE VALLADOLID FELIPE II,CASTILLA Y LEÓN,VALLADOLID,Valladolid,CALLE FELIPE II 9,47003,983358000,44,Hospitales Generales,PRIVADOS,,Concierto parcial,NO
747001317,470053,SANATORIO SAGRADO CORAZON,CASTILLA Y LEÓN,VALLADOLID,Valladolid,CALLE FIDEL RECIO 1,47002,983299000,75,Hospitales Generales,ORGANIZACIONES NO GUBERNAMENTALES,,Sin concierto,NO
747001319,470014,HOSPITAL UNIVERSITARIO DEL RIO HORTEGA,CASTILLA Y LEÓN,VALLADOLID,Valladolid,CALLE DULZAINA 2,47012,983420401,600,Hospitales Generales,SERVICIOS E INSTITUTOS DE SALUD DE LAS COMUNIDADES AUTÓNOMAS,,Sin concierto,SI
747001322,470072,CENTRO HOSPITALARIO BENITO MENNI,CASTILLA Y LEÓN,VALLADOLID,Valladolid,PASEO JUAN CARLOS I 10,47008,983272600,240,Hospitales de media y larga estancia,ORGANIZACIONES NO GUBERNAMENTALES,,Concierto parcial,NO
749000895,490013,HOSPITAL VIRGEN DE LA CONCHA (COMPLEJO ASISTENCIAL DE ZAMORA),CASTILLA Y LEÓN,ZAMORA,Zamora,AVENIDA REQUEJO 35,49022,980512838,349,Hospitales Generales,SERVICIOS E INSTITUTOS DE SALUD DE LAS COMUNIDADES AUTÓNOMAS,,Sin concierto.,NO
749000896,490028,HOSPITAL PROVINCIAL DE ZAMORA (COMPLEJO ASISTENCIAL DE ZAMORA),CASTILLA Y LEÓN,ZAMORA,Zamora,CALLE HERNAN CORTES 40,49021,980548200,140,Hospitales Generales,SERVICIOS E INSTITUTOS DE SALUD DE LAS COMUNIDADES AUTÓNOMAS,,Sin concierto.,NO
749000897,490065,HOSPITAL DE BENAVENTE (COMPLEJO ASISTENCIAL DE ZAMORA),CASTILLA Y LEÓN,ZAMORA,Benavente,CALLE LUISA MOZO 6,49600,980631900,51,Hospitales Generales,SERVICIOS E INSTITUTOS DE SALUD DE LAS COMUNIDADES AUTÓNOMAS,,Sin concierto.,NO
749000898,490081,HOSPITAL RECOLETAS DE ZAMORA,CASTILLA Y LEÓN,ZAMORA,Zamora,CALLE PINAR 7,49023,980545300,44,Hospitales Generales,PRIVADOS,,Concierto parcial,NO
802000003,20096,HOSPITAL DE HELLIN,CASTILLA-LA MANCHA,ALBACETE,Hellín,CALLE JUAN RAMON JIMENEZ 40,2400,967309500,135,Hospitales Generales,SERVICIOS E INSTITUTOS DE SALUD DE LAS COMUNIDADES AUTÓNOMAS,,Sin concierto,SI
802000031,20100,HOSPITAL QUIRONSALUD  ALBACETE,CASTILLA-LA MANCHA,ALBACETE,Albacete,PLAZA DEL MADROÑO 11,2008,967190072,65,Hospitales Generales,PRIVADOS,,Concierto parcial,NO
802000048,20061,HOSPITAL QUIRONSALUD SANTA CRISTINA,CASTILLA-LA MANCHA,ALBACETE,Albacete,CALLE PEREZ GALDOS 7-9,2003,967223300,42,Hospitales Generales,PRIVADOS,,Concierto parcial,NO
802000130,20030,HOSPITAL GENERAL UNIVERSITARIO DE ALBACETE,CASTILLA-LA MANCHA,ALBACETE,Albacete,CALLE HERMANOS FALCO 37,2006,967597100,505,Hospitales Generales,SERVICIOS E INSTITUTOS DE SALUD DE LAS COMUNIDADES AUTÓNOMAS,,Sin concierto.,NO
802000374,20117,HOSPITAL UNIVERSITARIO NUESTRA SEÑORA  DEL PERPETUO SOCORRO,CASTILLA-LA MANCHA,ALBACETE,Albacete,CALLE SEMINARIO 4,2006,967597799,166,Hospitales Generales,SERVICIOS E INSTITUTOS DE SALUD DE LAS COMUNIDADES AUTÓNOMAS,,Sin concierto.,NO
802000515,20158,CENTRO DE ATENCION A LA SALUD MENTAL LA MILAGROSA,CASTILLA-LA MANCHA,ALBACETE,Albacete,TRAVESIA DE LA IGUALDAD S/N,2006,967595300,31,Hospitales de salud mental y tratamiento de toxicomanías,SERVICIOS E INSTITUTOS DE SALUD DE LAS COMUNIDADES AUTÓNOMAS,,Sin concierto.,NO
802000755,20136,HOSPITAL GENERAL DE ALMANSA,CASTILLA-LA MANCHA,ALBACETE,Almansa,AVENIDA ADOLFO SUAREZ S/N,2640,967339526,93,Hospitales Generales,SERVICIOS E INSTITUTOS DE SALUD DE LAS COMUNIDADES AUTÓNOMAS,,Sin concierto,SI
802000780,20147,HOSPITAL GENERAL DE VILLARROBLEDO,CASTILLA-LA MANCHA,ALBACETE,Villarrobledo,"AVENIDA MIGUEL DE CERVANTES C/V CTRA. PROVENCIO KM. 0,3",2600,967133000,114,Hospitales Generales,SERVICIOS E INSTITUTOS DE SALUD DE LAS COMUNIDADES AUTÓNOMAS,,Sin concierto,NO
813000043,130049,HOSPITAL QUIRONSALUD CIUDAD REAL,CASTILLA-LA MANCHA,CIUDAD REAL,Ciudad Real,CALLE ALISOS 19,13002,926255008,47,Hospitales Generales,PRIVADOS,,Concierto parcial,NO
813000450,130052,HOSPITAL GENERAL LA MANCHA CENTRO,CASTILLA-LA MANCHA,CIUDAD REAL,Alcázar de San Juan,AVENIDA DE LA CONSTITUCION 3,13600,926580500,362,Hospitales Generales,SERVICIOS E INSTITUTOS DE SALUD DE LAS COMUNIDADES AUTÓNOMAS,,Sin concierto,SI
813000577,130065,HOSPITAL VIRGEN DE ALTAGRACIA,CASTILLA-LA MANCHA,CIUDAD REAL,Manzanares,AVENIDA D. EMILIANO GARCIA ROLDAN 2,13200,000000000,118,Hospitales Generales,SERVICIOS E INSTITUTOS DE SALUD DE LAS COMUNIDADES AUTÓNOMAS,,Sin concierto,NO
813000578,130071,HOSPITAL SANTA BARBARA,CASTILLA-LA MANCHA,CIUDAD REAL,Puertollano,CARRETERA MALAGON S/Nº,13500,926421100,141,Hospitales Generales,SERVICIOS E INSTITUTOS DE SALUD DE LAS COMUNIDADES AUTÓNOMAS,,Sin concierto,NO
813000583,130034,SERVICIOS SANITARIOS Y ASISTENCIALES,CASTILLA-LA MANCHA,CIUDAD REAL,Ciudad Real,RONDA DEL CARMEN S/Nº,13002,926231275,85,Hospitales de salud mental y tratamiento de toxicomanías,DIPUTACIÓN O CABILDO,,Sin concierto,NO
813000584,130087,HOSPITAL GENERAL DE VALDEPEÑAS,CASTILLA-LA MANCHA,CIUDAD REAL,Valdepeñas,AVENIDA DE LOS ESTUDIANTES S/Nº,13300,926320200,103,Hospitales Generales,SERVICIOS E INSTITUTOS DE SALUD DE LAS COMUNIDADES AUTÓNOMAS,,Sin concierto,NO
813000595,130127,HOSPITAL GENERAL DE CIUDAD REAL,CASTILLA-LA MANCHA,CIUDAD REAL,Ciudad Real,CALLE OBISPO RAFAEL TORIJA S/N,13005,926278000,564,Hospitales Generales,SERVICIOS E INSTITUTOS DE SALUD DE LAS COMUNIDADES AUTÓNOMAS,,Sin concierto,SI
813000931,130128,HOSPITAL GENERAL DE TOMELLOSO,CASTILLA-LA MANCHA,CIUDAD REAL,Tomelloso,CALLE VEREDA DE SOCUELLAMOS S/N,13700,926525800,155,Hospitales Generales,SERVICIOS E INSTITUTOS DE SALUD DE LAS COMUNIDADES AUTÓNOMAS,,Sin concierto,NO
816000170,160014,HOSPITAL VIRGEN DE LA LUZ,CASTILLA-LA MANCHA,CUENCA,Cuenca,CALLE HERMANDAD DONANTES DE SANGRE 1,16002,969179900,388,Hospitales Generales,SERVICIOS E INSTITUTOS DE SALUD DE LAS COMUNIDADES AUTÓNOMAS,,Sin concierto,SI
816000342,160053,"HOSPITAL RECOLETAS CUENCA, S.L.U.",CASTILLA-LA MANCHA,CUENCA,Cuenca,AVENIDA DE SAN JULIAN 1,16003,969232500,30,Hospitales Generales,PRIVADOS,,Concierto parcial,NO
819000009,190019,HOSPITAL UNIVERSITARIO DE GUADALAJARA,CASTILLA-LA MANCHA,GUADALAJARA,Guadalajara,AVENIDA DONANTES DE SANGRE S/N,19002,949209200,432,Hospitales Generales,SERVICIOS E INSTITUTOS DE SALUD DE LAS COMUNIDADES AUTÓNOMAS,,Sin concierto,SI
819000010,190077,INSTITUTO DE ENFERMEDADES NEUROLOGICAS DE CASTILLA-LA MANCHA,CASTILLA-LA MANCHA,GUADALAJARA,Guadalajara,PASEO DE LA ESTACION 2,19004,949211500,147,Hospitales de media y larga estancia,SERVICIOS E INSTITUTOS DE SALUD DE LAS COMUNIDADES AUTÓNOMAS,,Sin concierto,NO
819000025,190030,CLINICA LA ANTIGUA,CASTILLA-LA MANCHA,GUADALAJARA,Guadalajara,CALLE CONSTITUCION 18,19003,949223600,57,Hospitales Generales,PRIVADOS,,Concierto parcial,NO
819000180,190061,U.R.R. DE ENFERMOS PSIQUICOS ALCOHETE,CASTILLA-LA MANCHA,GUADALAJARA,Yebes,PASEO CONDE ROMANONES S/N S/N,19141,949291136,165,Hospitales de salud mental y tratamiento de toxicomanías,OTROS CENTROS O ESTABLECIMIENTOS PÚBLICOS DE DEPENDENCIA AUTONÓMICA,,Sin concierto,NO
819000193,190045,CLINICA DOCTOR SANZ VAZQUEZ,CASTILLA-LA MANCHA,GUADALAJARA,Guadalajara,PASEO DOCTOR FERNANDEZ IPARRAGUIRRE 6,19001,949227200,40,Hospitales Generales,PRIVADOS,,Sin concierto,NO
819001297,190088,CENTRO DE ACOGIDA PROYECTO HOMBRE,CASTILLA-LA MANCHA,GUADALAJARA,Guadalajara,CALLE BOLARQUE 3,19005,949253573,15,Hospitales de salud mental y tratamiento de toxicomanías,PRIVADOS,,Sin concierto,NO
845000003,450041,HOSPITAL PROVINCIAL NTRA.SRA.DE LA MISERICORDIA,CASTILLA-LA MANCHA,TOLEDO,Toledo,CALLE SAN SERVANDO S/N,45006,925259350,144,Hospitales Generales,SERVICIOS E INSTITUTOS DE SALUD DE LAS COMUNIDADES AUTÓNOMAS,,Sin concierto.,NO
845000006,450089,"CLINICA MARAZUELA, S.A.",CASTILLA-LA MANCHA,TOLEDO,Talavera de la Reina,AVENIDA DE EXTREMADURA 5,45600,925815281,15,Hospitales Generales,PRIVADOS,,Sin concierto,NO
845000027,450133,CENTRO DE TRATAMIENTO DE DROGODEPENDIENTES EL ALBA,CASTILLA-LA MANCHA,TOLEDO,Toledo,"CARRETERA PUEBLA DE MONTALBAN KM. 3,6",45071,925216154,30,Hospitales de salud mental y tratamiento de toxicomanías,OTROS CENTROS O ESTABLECIMIENTOS PÚBLICOS DE DEPENDENCIA AUTONÓMICA,,Sin concierto,NO
845000584,450122,HOSPITAL QUIRONSALUD TOLEDO,CASTILLA-LA MANCHA,TOLEDO,Toledo,CALLE URBANIZACION TRES CULTURAS S/N,45005,925266100,80,Hospitales Generales,PRIVADOS,,Concierto parcial,NO
845000702,450015,HOSPITAL VIRGEN DE LA SALUD,CASTILLA-LA MANCHA,TOLEDO,Toledo,AVENIDA DE BARBER 30,45004,925269200,953,Hospitales Generales,SERVICIOS E INSTITUTOS DE SALUD DE LAS COMUNIDADES AUTÓNOMAS,,Sin concierto.,NO
845000704,450020,HOSPITAL GERIATRICO VIRGEN DEL VALLE,CASTILLA-LA MANCHA,TOLEDO,Toledo,CARRETERA COBISA S/N,45004,925269300,155,Hospitales Generales,SERVICIOS E INSTITUTOS DE SALUD DE LAS COMUNIDADES AUTÓNOMAS,,Sin concierto.,NO
845000810,450067,HOSPITAL GENERAL NUESTRA SEÑORA DEL PRADO,CASTILLA-LA MANCHA,TOLEDO,Talavera de la Reina,CARRETERA MADRID KM 114,45600,925803600,312,Hospitales Generales,SERVICIOS E INSTITUTOS DE SALUD DE LAS COMUNIDADES AUTÓNOMAS,,Sin concierto,SI
845000812,450036,HOSPITAL NACIONAL DE PARAPLEJICOS,CASTILLA-LA MANCHA,TOLEDO,Toledo,CALLE FINCA DE LA PERALEDA S/N,45071,925247700,210,Hospitales especializados,SERVICIOS E INSTITUTOS DE SALUD DE LAS COMUNIDADES AUTÓNOMAS,,Sin concierto,SI
908005135,80673,HOSPITAL MUNICIPAL DE BADALONA,CATALUÑA,BARCELONA,Badalona,"VIA AUGUSTA, 9",8911,934648300,140,Hospitales Generales,MUNICIPIO,,Red de utilización pública (RUP),NO
908005136,80351,HESTIA PALAU.,CATALUÑA,BARCELONA,Barcelona,"CALLE SANT ANTONI MARIA CLARET , 135",8025,934501819,317,Hospitales de media y larga estancia,PRIVADOS,,Red de utilización pública (RUP),NO
908005137,80364,HOSPITAL UNIVERSITARI SAGRAT COR,CATALUÑA,BARCELONA,Barcelona,CALLE VILADOMAT 288,8029,933221111,367,Hospitales Generales,PRIVADOS,,Red de utilización pública (RUP),SI
908005138,80370,CLINICA CORACHAN,CATALUÑA,BARCELONA,Barcelona,CALLE BUIGAS 19,8017,932545800,162,Hospitales Generales,PRIVADOS,,Sin concierto,NO
908005139,80386,CLINICA TRES TORRES,CATALUÑA,BARCELONA,Barcelona,CALLE DOCTOR ROUX 76,8017,932041300,64,Hospitales Generales,PRIVADOS,,Sin concierto,NO
908005140,80291,HOSPITAL DE LA SANTA CREU I SANT PAU,CATALUÑA,BARCELONA,Barcelona,CALLE SANT QUINTI 89,8041,935537160,644,Hospitales Generales,PRIVADOS,,Red de utilización pública (RUP),SI
908005141,80543,HESTIA DURAN I REYNALS,CATALUÑA,BARCELONA,"Hospitalet de Llobregat, L'",AVENIDA GRAN  VIA 203,8908,934170400,428,Hospitales de media y larga estancia,PRIVADOS,,Red de utilización pública (RUP),NO
908005142,80399,HOSPITAL QUIRONSALUD BARCELONA,CATALUÑA,BARCELONA,Barcelona,PLAZA ALFONS COMIN 5-7,8023,932850000,192,Hospitales Generales,PRIVADOS,,Sin concierto,NO
908005143,80403,CENTRE  MEDIC  DELFOS,CATALUÑA,BARCELONA,Barcelona,AVENIDA VALLCARCA . 151,8023,932545000,264,Hospitales Generales,PRIVADOS,,Sin concierto,NO
908005144,80180,HOSPITAL EL PILAR,CATALUÑA,BARCELONA,Barcelona,CALLE BALMES 271,8006,932360500,186,Hospitales Generales,PRIVADOS,,Sin concierto,NO
908005145,80497,CENTRE HOSPITALARI POLICLINICA BARCELONA,CATALUÑA,BARCELONA,Barcelona,CALLE GUILLEM TELL 4,8006,934161616,28,Hospitales Generales,PRIVADOS,,Sin concierto,NO
908005146,80556,"SERVEIS CLINICS, S.A.",CATALUÑA,BARCELONA,Barcelona,CALLE GARCIA MARIÑO 4,8022,934174602,50,Hospitales de media y larga estancia,PRIVADOS,,Red de utilización pública (RUP),NO
908005147,80575,CLINICA COROLEU - SSR HESTIA.,CATALUÑA,BARCELONA,Barcelona,CALLE COROLEU 50,8030,931165500,74,Hospitales de salud mental y tratamiento de toxicomanías,PRIVADOS,,Red de utilización pública (RUP),NO
908005148,80410,CENTRE MEDIC SANT JORDI DE SANT ANDREU,CATALUÑA,BARCELONA,Barcelona,PLAZA ESTACIO 12,8030,933451604,57,Hospitales Generales,PRIVADOS,,Sin concierto,NO
908005149,82167,CLINICA DIAGONAL,CATALUÑA,BARCELONA,Esplugues de Llobregat,CALLE SANT MATEU 24,8950,932053213,101,Hospitales Generales,PRIVADOS,,Sin concierto,NO
908005150,80057,HOSPITAL DEL MAR.,CATALUÑA,BARCELONA,Barcelona,PASEO MARITIM DE LA BARCELONETA 25,8003,932483000,470,Hospitales Generales,OTRAS ENTIDADES U ORGANISMOS PÚBLICOS,,Red de utilización pública (RUP),SI
908005151,80431,HOSPITAL PLATO,CATALUÑA,BARCELONA,Barcelona,CALLE PLATO 21,8006,933069900,168,Hospitales Generales,PRIVADOS,,Red de utilización pública (RUP),NO
908005152,80446,HOSPITAL UNIVERSITARI QUIR¿N DEXEUS,CATALUÑA,BARCELONA,Barcelona,CALLE SABINO DE  ARANA 5-19,8028,932274747,170,Hospitales Generales,PRIVADOS,,Sin concierto,SI
908005153,80109,HOSPITAL CLINIC DE BARCELONA,CATALUÑA,BARCELONA,Barcelona,CALLE VILLARROEL 170,8036,932275400,844,Hospitales Generales,OTRAS ENTIDADES U ORGANISMOS PÚBLICOS,,Red de utilización pública (RUP),SI
908005154,80174,HOSPITAL DOS DE MAIG,CATALUÑA,BARCELONA,Barcelona,CALLE DOS DE MAIG 301,8025,935072700,229,Hospitales Generales,OTRAS ENTIDADES U ORGANISMOS PÚBLICOS,,Red de utilización pública (RUP),NO
908005155,80060,HOSPITAL DE L'ESPERANÇA.,CATALUÑA,BARCELONA,Barcelona,AVENIDA SANT JOSEP DE LA MUNTANYA 12,8024,933674100,161,Hospitales Generales,OTRAS ENTIDADES U ORGANISMOS PÚBLICOS,,Red de utilización pública (RUP),SI
908005157,80641,CLINICA PLANAS,CATALUÑA,BARCELONA,Barcelona,CALLE PERE II DE MONTCADA 16,8034,932032812,26,Hospitales especializados,PRIVADOS,,Sin concierto,NO
908005159,80116,"FREMAP, HOSPITAL DE BARCELONA",CATALUÑA,BARCELONA,Barcelona,CALLE MADRAZO 8,8006,934169100,62,Hospitales Generales,MÚTUAS COLABORADORAS CON LA SEGURIDAD SOCIAL,,Sin concierto,NO
908005160,80137,CENTRE DE PREVENCIO I REHABILITACIO ASEPEYO,CATALUÑA,BARCELONA,Sant Cugat del Vallès,AVENIDA ALCALDE BARNILS 54-60,8174,935653900,138,Hospitales Generales,MÚTUAS COLABORADORAS CON LA SEGURIDAD SOCIAL,,Sin concierto,SI
908005161,80142,CLINICA MC COPERNIC,CATALUÑA,BARCELONA,Barcelona,CALLE COPERNIC 58,8006,934141992,60,Hospitales Generales,MÚTUAS COLABORADORAS CON LA SEGURIDAD SOCIAL,,Sin concierto,NO
908005162,80348,FUNDACIO PUIGVERT - IUNA,CATALUÑA,BARCELONA,Barcelona,CALLE CARTAGENA . 340,8025,934169700,124,Hospitales especializados,PRIVADOS,,Red de utilización pública (RUP),SI
908005164,80312,NOU HOSPITAL EVANGELIC,CATALUÑA,BARCELONA,Barcelona,CALLE CAMELIES 15,8024,932859955,116,Hospitales de media y larga estancia,PRIVADOS,,Red de utilización pública (RUP),NO
908005165,80229,CLINICA NOSTRA SENYORA DEL REMEI,CATALUÑA,BARCELONA,Barcelona,CALLE ESCORIAL 148,8024,932850010,134,Hospitales Generales,PRIVADOS,,Sin concierto,NO
908005166,80168,HOSPITAL EGARSAT SANT HONORAT,CATALUÑA,BARCELONA,Barcelona,AVENIDA TIBIDABO 20,8022,932127000,14,Hospitales Generales,MÚTUAS COLABORADORAS CON LA SEGURIDAD SOCIAL,,Sin concierto,NO
908005167,80235,CLINICA SAGRADA FAMILIA,CATALUÑA,BARCELONA,Barcelona,CALLE TORRAS  I  PUJALT 1,8022,932122300,150,Hospitales Generales,PRIVADOS,,Sin concierto,NO
908005168,80214,HOSPITAL SANT RAFAEL,CATALUÑA,BARCELONA,Barcelona,PASEO VALL D'HEBRON 107,8035,932112508,213,Hospitales Generales,PRIVADOS,,Red de utilización pública (RUP),NO
908005169,80044,"HOSPITAL CLINIC DE BARCELONA, SEU SABINO DE ARANA",CATALUÑA,BARCELONA,Barcelona,CALLE SABINO DE ARANA 1,8028,932275600,130,Hospitales especializados,OTRAS ENTIDADES U ORGANISMOS PÚBLICOS,,Red de utilización pública (RUP),NO
908005170,80327,HOSPITAL DE NENS DE BARCELONA,CATALUÑA,BARCELONA,Barcelona,CALLE CONSELL DE CENT 437,8009,932310512,18,Hospitales especializados,PRIVADOS,,Sin concierto,NO
908005171,80478,"CENTRO MEDICO TEKNON,  GRUPO QUIRONSALUD",CATALUÑA,BARCELONA,Barcelona,CALLE VILANA 12,8022,932906242,285,Hospitales Generales,PRIVADOS,,Sin concierto,NO
908005172,80538,CENTRE D'OFTALMOLOGIA BARRAQUER,CATALUÑA,BARCELONA,Barcelona,CALLE MUNTANER 314,8021,932095311,70,Hospitales especializados,PRIVADOS,,Sin concierto,SI
908005173,80333,INSTITUT GUTTMANN,CATALUÑA,BARCELONA,Badalona,CAMINO CAN RUTI S/N,8916,934977700,152,Hospitales especializados,PRIVADOS,,Red de utilización pública (RUP),SI
908005174,80253,HOSPITAL MARE DE DEU DE LA MERCE,CATALUÑA,BARCELONA,Barcelona,PASEO UNIVERSAL 34,8042,934275250,113,Hospitales de salud mental y tratamiento de toxicomanías,PRIVADOS,,Red de utilización pública (RUP),NO
908005175,80692,HOSPITAL COMARCAL DE SANT BERNABE,CATALUÑA,BARCELONA,Berga,CARRETERA DE RIBES S/N,8600,938243400,150,Hospitales Generales,PRIVADOS,,Red de utilización pública (RUP),NO
908005176,80706,HOSPITAL COMARCAL SANT JAUME DE CALELLA,CATALUÑA,BARCELONA,Calella,CALLE SANT JAUME 209-217,8370,937690201,233,Hospitales Generales,OTRAS ENTIDADES U ORGANISMOS PÚBLICOS,,Red de utilización pública (RUP),SI
908005177,80713,HOSPITAL DE SANT JOAN DE DEU.,CATALUÑA,BARCELONA,Esplugues de Llobregat,CALLE SANT JOAN DE DEU 2,8950,932804000,401,Hospitales especializados,PRIVADOS,,Red de utilización pública (RUP),SI
908005178,80728,CLINICA NOSTRA SENYORA DE GUADALUPE,CATALUÑA,BARCELONA,Esplugues de Llobregat,CALLE FRANCESC MORAGAS 2,8950,934702970,159,Hospitales de media y larga estancia,PRIVADOS,,Red de utilización pública (RUP),NO
908005179,80734,HOSPITAL GENERAL DE GRANOLLERS,CATALUÑA,BARCELONA,Granollers,AVENIDA FRANCESC RIBAS 1,8402,938425000,316,Hospitales Generales,PRIVADOS,,Red de utilización pública (RUP),SI
908005180,80771,HOSPITAL GENERAL DE L'HOSPITALET,CATALUÑA,BARCELONA,"Hospitalet de Llobregat, L'","AVENIDA JOSEP MOLINS, 29",8906,934407500,89,Hospitales Generales,OTRAS ENTIDADES U ORGANISMOS PÚBLICOS,,Red de utilización pública (RUP),SI
908005181,80752,HOSPITAL UNIVERSITARI DE BELLVITGE,CATALUÑA,BARCELONA,"Hospitalet de Llobregat, L'",CALLE FEIXA LLARGA S/N,8907,933357011,1022,Hospitales Generales,SERVICIOS E INSTITUTOS DE SALUD DE LAS COMUNIDADES AUTÓNOMAS,,Red de utilización pública (RUP),SI
908005182,80787,FUNDACIO SANITARIA SANT JOSEP,CATALUÑA,BARCELONA,Igualada,CALLE CARME  VERDAGUER 56,8700,938032650,145,Hospitales de media y larga estancia,PRIVADOS,,Red de utilización pública (RUP),NO
908005183,80826,HOSPITAL  DE  SANT  JAUME,CATALUÑA,BARCELONA,Manlleu,CARRETERA D'OLOT 7,8560,938506565,90,Hospitales de media y larga estancia,OTRAS ENTIDADES U ORGANISMOS PÚBLICOS,,Red de utilización pública (RUP),NO
908005184,80879,HOSPITAL DE SANT ANDREU,CATALUÑA,BARCELONA,Manresa,CALLE REMEI DE DALT 3,8240,938743312,191,Hospitales de media y larga estancia,PRIVADOS,,Red de utilización pública (RUP),NO
908005185,80850,CENTRE HOSPITALARI.,CATALUÑA,BARCELONA,Manresa,AVENIDA BASES DE MANRESA 6-8,8242,938732550,309,Hospitales Generales,PRIVADOS,,Sin concierto,NO
908005186,80832,CLINICA SANT JOSEP,CATALUÑA,BARCELONA,Manresa,CALLE CAPUTXINS 16,8241,938744050,95,Hospitales Generales,PRIVADOS,,Sin concierto,NO
908005187,80885,GERMANES HOSPITALARIES. HOSPITAL SAGRAT COR.,CATALUÑA,BARCELONA,Martorell,AVENIDA COMTE DE LLOBREGAT 117,8760,937752200,488,Hospitales de salud mental y tratamiento de toxicomanías,PRIVADOS,,Red de utilización pública (RUP),SI
908005188,80898,FUNDACIO HOSPITAL SANT JOAN DE DEU,CATALUÑA,BARCELONA,Martorell,AVENIDA MANCOMUNITATS COMARCALS 1,8760,937750316,112,Hospitales Generales,PRIVADOS,,Red de utilización pública (RUP),NO
908005189,80930,"CENTRE MEDIC MOLINS, SL",CATALUÑA,BARCELONA,Molins de Rei,PASEO DEL TERRAPLE 97,8750,936680004,177,Hospitales de media y larga estancia,PRIVADOS,,Red de utilización pública (RUP),NO
908005190,80945,HOSPITAL DE MOLLET,CATALUÑA,BARCELONA,Mollet del Vallès,RONDA PINETONS 6-8,8100,935760300,174,Hospitales Generales,PRIVADOS,,Red de utilización pública (RUP),NO
908005192,80977,"BENITO MENNI,COMPLEX ASSISTENCIAL EN SALUT MENTAL.",CATALUÑA,BARCELONA,Sant Boi de Llobregat,CALLE DR. ANTONI PUJADAS 38,8830,936402400,774,Hospitales de salud mental y tratamiento de toxicomanías,PRIVADOS,,Red de utilización pública (RUP),SI
908005193,80983,PARC SANITARI SANT JOAN DE DEU - RECINTE SANT BOI.,CATALUÑA,BARCELONA,Sant Boi de Llobregat,CALLE DR. ANTONI PUJADAS 42,8830,936406350,1065,Hospitales Generales,PRIVADOS,,Red de utilización pública (RUP),SI
908005194,81000,HOSPITAL DE SANT CELONI.,CATALUÑA,BARCELONA,Sant Celoni,AVENIDA DE L'HOSPITAL 19,8470,938670617,100,Hospitales Generales,PRIVADOS,,Red de utilización pública (RUP),NO
908005195,81022,CASAL DE CURACIO,CATALUÑA,BARCELONA,Vilassar de Mar,CALLE MARIA VIDAL 19,8340,937590241,81,Hospitales de media y larga estancia,PRIVADOS,,Red de utilización pública (RUP),NO
908005196,81038,HOSPITAL RESIDENCIA SANT CAMIL - CONSORCI SANITARI DEL GARRAF.,CATALUÑA,BARCELONA,Sant Pere de Ribes,RONDA SANT  CAMIL S/N,8810,938960025,295,Hospitales Generales,OTRAS ENTIDADES U ORGANISMOS PÚBLICOS,,Red de utilización pública (RUP),SI
908005197,81069,FUNDACIO HOSPITAL DE L'ESPERIT SANT,CATALUÑA,BARCELONA,Santa Coloma de Gramenet,AVENIDA MOSSEN JOSEP PONS I ROBADA S/N,8923,933869648,177,Hospitales Generales,PRIVADOS,,Red de utilización pública (RUP),SI
908005198,81056,CENTRES ASSISTENCIALS DR. EMILI MIRA I LOPEZ (RECINTE TORRIBERA).,CATALUÑA,BARCELONA,Santa Coloma de Gramenet,CALLE PRAT DE LA RIBA 171,8921,934628926,454,Hospitales de salud mental y tratamiento de toxicomanías,OTRAS ENTIDADES U ORGANISMOS PÚBLICOS,,Red de utilización pública (RUP),SI
908005199,81081,HOSPITAL DE SANT LLATZER,CATALUÑA,BARCELONA,Terrassa,PLAZA DOCTOR ROBERT 1,8221,937837111,77,Hospitales de media y larga estancia,OTRAS ENTIDADES U ORGANISMOS PÚBLICOS,,Sin concierto,NO
908005200,81094,HOSPITAL UNIVERSITARI MUTUA DE TERRASSA,CATALUÑA,BARCELONA,Terrassa,PLAZA DOCTOR ROBERT 5,8221,937365050,534,Hospitales Generales,PRIVADOS,,Red de utilización pública (RUP),SI
908005202,81115,CLINICA SANT JOSEP,CATALUÑA,BARCELONA,Vic,CALLE SANT SEGIMON 3,8500,938861700,21,Hospitales Generales,PRIVADOS,,Sin concierto,NO
908005203,81120,HOSPITAL DE LA SANTA CREU,CATALUÑA,BARCELONA,Vic,RAMBLA HOSPITAL 52,8500,938833300,127,Hospitales de media y larga estancia,PRIVADOS,,Red de utilización pública (RUP),SI
908005204,81189,HOSPITAL SANT ANTONI ABAT - CONSORCI SANITARI DEL GARRAF.,CATALUÑA,BARCELONA,Vilanova i la Geltrú,CALLE SANT JOSEP 21,8800,938931616,111,Hospitales de media y larga estancia,OTRAS ENTIDADES U ORGANISMOS PÚBLICOS,,Red de utilización pública (RUP),SI
908005205,80667,HOSPITAL UNIVERSITARI GERMANS TRIAS I PUJOL DE BADALONA,CATALUÑA,BARCELONA,Badalona,CALLE CANYET S/N,8916,934651200,516,Hospitales Generales,SERVICIOS E INSTITUTOS DE SALUD DE LAS COMUNIDADES AUTÓNOMAS,,Sin concierto,SI
908005206,81017,HOSPITAL UNIVERSITARI GENERAL DE CATALUNYA,CATALUÑA,BARCELONA,Sant Cugat del Vallès,CALLE PEDRO I PONS 1,8195,935656000,286,Hospitales Generales,PRIVADOS,,Sin concierto,SI
908005207,81075,HOSPITAL DE TERRASSA.,CATALUÑA,BARCELONA,Terrassa,CARRETERA TORREBONICA S/N,8227,937310007,460,Hospitales Generales,OTRAS ENTIDADES U ORGANISMOS PÚBLICOS,,Red de utilización pública (RUP),SI
908005208,80958,HOSPITAL DE SABADELL,CATALUÑA,BARCELONA,Sabadell,PARQUE TAULI S/N,8208,937231010,861,Hospitales Generales,OTRAS ENTIDADES U ORGANISMOS PÚBLICOS,,Red de utilización pública (RUP),SI
908005209,81108,HOSPITAL  GENERAL  DE  VIC,CATALUÑA,BARCELONA,Vic,CALLE FRANCESC PLA EL VIGATA 1,8500,938891111,292,Hospitales Generales,OTRAS ENTIDADES U ORGANISMOS PÚBLICOS,,Red de utilización pública (RUP),SI
908005210,81141,HOSPITAL DE VILADECANS,CATALUÑA,BARCELONA,Viladecans,AVENIDA GAVA 38,8840,936590111,110,Hospitales Generales,SERVICIOS E INSTITUTOS DE SALUD DE LAS COMUNIDADES AUTÓNOMAS,,Red de utilización pública (RUP),SI
908005211,80484,HOSPITAL  DE  BARCELONA,CATALUÑA,BARCELONA,Barcelona,AVENIDA DIAGONAL . 656,8034,932542400,350,Hospitales Generales,PRIVADOS,,Sin concierto,NO
908005212,81234,CENTRE SOCIOSANITARI VERGE DEL PUIG,CATALUÑA,BARCELONA,Sant Celoni,CALLE CAMPINS 37,8470,938673995,40,Hospitales de media y larga estancia,PRIVADOS,,Red de utilización pública (RUP),NO
908005213,81228,PRYTANIS SANT BOI CENTRE SOCIOSANITARI,CATALUÑA,BARCELONA,Sant Boi de Llobregat,CALLE JOSEP TORRAS I BAGES 55,8830,936300931,122,Hospitales de media y larga estancia,PRIVADOS,,Red de utilización pública (RUP),NO
908005214,80689,CENTRE SOCIOSANITARI EL CARME,CATALUÑA,BARCELONA,Badalona,"CAMINO SANT JERONI DE LA MURTRA, 60",8917,935074710,210,Hospitales de media y larga estancia,MUNICIPIO,,Red de utilización pública (RUP),NO
908005215,81192,CENTRE SOCIOSANITARI CAN TORRAS,CATALUÑA,BARCELONA,Alella,CARRETERA EL MASNOU A ALELLA 1,8328,935551994,119,Hospitales de media y larga estancia,PRIVADOS,,Red de utilización pública (RUP),NO
908005216,81213,CENTRE GERIATRIC DEL MARESME,CATALUÑA,BARCELONA,Mataró,CALLE LEPANT 13-21,8301,937965003,125,Hospitales de media y larga estancia,PRIVADOS,,Red de utilización pública (RUP),NO
908005217,80863,HOSPITAL DE SANT JOAN DE DEU (MANRESA),CATALUÑA,BARCELONA,Manresa,CALLE DOCTOR  JOAN  SOLER 1-3,8243,938732550,280,Hospitales Generales,PRIVADOS,,Red de utilización pública (RUP),SI
908005218,81304,RESIDENCIA PUIG-REIG,CATALUÑA,BARCELONA,Puig-reig,CALLE LLOBREGAT 75,8692,938380045,30,Hospitales de media y larga estancia,PRIVADOS,,Red de utilización pública (RUP),NO
908005219,81287,RESIDENCIA L'ESTADA,CATALUÑA,BARCELONA,Sant Andreu de Llavaneres,CAMINO DE LA MASIA S/N,8392,937926612,60,Hospitales de media y larga estancia,PRIVADOS,,Red de utilización pública (RUP),NO
908005220,81311,RESIDENCIA SANTA SUSANNA,CATALUÑA,BARCELONA,Caldes de Montbui,CALLE FONT I BOET 16,8140,938654994,75,Hospitales de media y larga estancia,PRIVADOS,,Red de utilización pública (RUP),NO
908005221,81350,CENTRE POLIVALENT CAN FOSC,CATALUÑA,BARCELONA,"Ametlla del Vallès, L'",CARRETERA DE LLERONA S/N,8480,938432786,56,Hospitales de media y larga estancia,PRIVADOS,,Red de utilización pública (RUP),NO
908005225,81379,HOSPITAL SOCIOSANITARI MUTUAM GUELL,CATALUÑA,BARCELONA,Barcelona,CALLE MARE DE DEU DE LA SALUT 49,8024,932133400,167,Hospitales de media y larga estancia,PRIVADOS,,Red de utilización pública (RUP),SI
908005226,81616,COMUNITAT TERAPEUTICA ARENYS DE MUNT,CATALUÑA,BARCELONA,Arenys de Munt,CARRETERA BARRI ORIENT  CAN ZARIQUIEY 26,8358,937938006,42,Hospitales de salud mental y tratamiento de toxicomanías,PRIVADOS,,Red de utilización pública (RUP),NO
908005227,81402,"MUTUA DE GRANOLLERS, MUTUA DE PREVISIO SOCIAL A PRIMA FIXA",CATALUÑA,BARCELONA,Granollers,PLAZA PAU CASALS S/N,8402,938708099,20,Hospitales Generales,PRIVADOS,,Sin concierto,NO
908005228,81728,HOSPITAL GENERAL PENITENCIARI,CATALUÑA,BARCELONA,Terrassa,CARRETERA TORREBONICA S/N,8227,937317861,32,Hospitales Generales,OTRAS ENTIDADES U ORGANISMOS PÚBLICOS,,Sin concierto,NO
908005229,81430,HOSPITAL COMARCAL DE L'ALT PENEDES.,CATALUÑA,BARCELONA,Vilafranca del Penedès,CALLE ESPIRALL S/N,8720,938180440,144,Hospitales Generales,OTRAS ENTIDADES U ORGANISMOS PÚBLICOS,,Red de utilización pública (RUP),NO
908005230,81461,INSTITUT CATALA D'ONCOLOGIA - HOSPITAL DURAN I REYNALS,CATALUÑA,BARCELONA,"Hospitalet de Llobregat, L'",AVENIDA GRAN VIA 203,8908,933357011,126,Hospitales especializados,OTRAS ENTIDADES U ORGANISMOS PÚBLICOS,,Red de utilización pública (RUP),NO
908005231,81458,APTIMA CENTRE CLINIC - MUTUA DE TERRASSA,CATALUÑA,BARCELONA,Terrassa,PLAZA DOCTOR ROBERT 5,8221,937365072,70,Hospitales Generales,PRIVADOS,,Sin concierto,NO
908005232,81483,SAR MONT MARTI,CATALUÑA,BARCELONA,Puig-reig,CARRETERA CASSERRES (ABANS PO. LA SALA S/N) 1,8692,938290138,20,Hospitales de media y larga estancia,PRIVADOS,,Red de utilización pública (RUP),NO
908005234,81496,REGINA SAR,CATALUÑA,BARCELONA,Barcelona,CALLE MARE DE DEU DEL COLL 22-30,8023,932848635,12,Hospitales de media y larga estancia,PRIVADOS,,Red de utilización pública (RUP),NO
908005236,81568,ITA MARESME,CATALUÑA,BARCELONA,Argentona,CALLE BARO DE VIVER 58,8310,937530062,77,Hospitales especializados,PRIVADOS,,Sin concierto,NO
908005237,81326,HOSPITAL DE MATARO,CATALUÑA,BARCELONA,Mataró,CARRETERA CIRERA 230,8304,937417700,402,Hospitales Generales,OTRAS ENTIDADES U ORGANISMOS PÚBLICOS,,Red de utilización pública (RUP),SI
908005238,81574,CLINICA LLURIA,CATALUÑA,BARCELONA,Barcelona,PASAJE MERCADER 14,8008,934882142,40,Hospitales de salud mental y tratamiento de toxicomanías,PRIVADOS,,Red de utilización pública (RUP),NO
908005239,81537,CENTRE VALLPARADIS,CATALUÑA,BARCELONA,Terrassa,CALLE SANT ANTONI 52,8221,937365030,81,Hospitales de media y larga estancia,PRIVADOS,,Red de utilización pública (RUP),SI
908005240,81580,ANTIC HOSPITAL DE SANT JAUME I SANTA MAGDALENA,CATALUÑA,BARCELONA,Mataró,CALLE HOSPITAL 29-31,8301,937582800,70,Hospitales de media y larga estancia,OTRAS ENTIDADES U ORGANISMOS PÚBLICOS,,Red de utilización pública (RUP),NO
908005241,81593,PARC SANITARI SANT JOAN DE DEU - NUMANCIA,CATALUÑA,BARCELONA,Barcelona,CALLE NUMANCIA 7-13,8029,933249600,159,Hospitales de salud mental y tratamiento de toxicomanías,PRIVADOS,,Red de utilización pública (RUP),SI
908005242,81739,CENTRE SOCIOSANITARI DE L'HOSPITALET - CONSORCI SANITARI INTEGRAL,CATALUÑA,BARCELONA,"Hospitalet de Llobregat, L'",AVENIDA JOSEP MOLINS 41,8906,934407500,123,Hospitales de media y larga estancia,OTRAS ENTIDADES U ORGANISMOS PÚBLICOS,,Red de utilización pública (RUP),NO
908005243,81605,PRYTANIS HOSPITALET CENTRE SOCIOSANITARI,CATALUÑA,BARCELONA,"Hospitalet de Llobregat, L'",CALLE APRESTADORA 43-45,8902,932988090,97,Hospitales de media y larga estancia,PRIVADOS,,Red de utilización pública (RUP),NO
908005245,81706,CENTRE COLLSEROLA MUTUAL,CATALUÑA,BARCELONA,Barcelona,"PASEO VALL D'HEBRON, 159",8035,933613900,34,Hospitales de media y larga estancia,PRIVADOS,,Red de utilización pública (RUP),NO
908005247,81649,HOSPITAL SOCIOSANITARI PERE VIRGILI,CATALUÑA,BARCELONA,Barcelona,AVENIDA VALLCARCA 169-205,8023,932594000,366,Hospitales de media y larga estancia,OTRAS ENTIDADES U ORGANISMOS PÚBLICOS,,Red de utilización pública (RUP),NO
908005248,81661,BENITO MENNI COMPLEX ASSISTENCIAL EN SALUT MENTAL,CATALUÑA,BARCELONA,Granollers,CALLE FRANCESC RIBAS 59,8402,938425035,30,Hospitales de salud mental y tratamiento de toxicomanías,PRIVADOS,,Red de utilización pública (RUP),NO
908005250,81694,INSTITUT CATALA D'ONCOLOGIA - HOSPITAL GERMANS TRIAS I PUJOL,CATALUÑA,BARCELONA,Badalona,CARRETERA CANYET S/N,8916,934651200,36,Hospitales especializados,OTRAS ENTIDADES U ORGANISMOS PÚBLICOS,,Red de utilización pública (RUP),NO
908005251,81672,HOSPITAL  SANITAS CIMA,CATALUÑA,BARCELONA,Barcelona,PASEO MANUEL GIRONA 33,8034,935522700,83,Hospitales Generales,PRIVADOS,,Sin concierto,NO
908005252,81683,PARC SANITARI SANT JOAN DE DEU - BRIANS 1.,CATALUÑA,BARCELONA,Sant Esteve Sesrovires,"CARRETERA DE MARTORELL A CAPELLADES ,",8635,937758000,150,Hospitales Generales,PRIVADOS,,Red de utilización pública (RUP),SI
908005253,81885,HOSPITAL D'IGUALADA,CATALUÑA,BARCELONA,Igualada,AVENIDA CATALUNYA 11,8700,938075500,280,Hospitales Generales,OTRAS ENTIDADES U ORGANISMOS PÚBLICOS,,Red de utilización pública (RUP),SI
908005255,81717,CENTRE SOCIOSANITARI SARQUAVITAE SANT JORDI,CATALUÑA,BARCELONA,Cornellà de Llobregat,CARRETERA SANT JOAN DESPI 60,8940,934752690,51,Hospitales de media y larga estancia,PRIVADOS,,Red de utilización pública (RUP),NO
908005257,81784,CENTRE SOCIOSANITARI D'ESPLUGUES,CATALUÑA,BARCELONA,Esplugues de Llobregat,VIA AUGUSTA 66-70,8950,936406350,131,Hospitales de media y larga estancia,PRIVADOS,,Red de utilización pública (RUP),NO
908005259,81740,SAR LA SALUT JOSEP SERVAT,CATALUÑA,BARCELONA,Barcelona,"CALLE ANTEQUERA, 8-18",8024,932857512,56,Hospitales de media y larga estancia,PRIVADOS,,Red de utilización pública (RUP),NO
908005260,81795,CENTRE SOCIOSANITARI RICARD FORTUNY,CATALUÑA,BARCELONA,Vilafranca del Penedès,AVENIDA GARRAF 3,8720,938172357,187,Hospitales de media y larga estancia,OTRAS ENTIDADES U ORGANISMOS PÚBLICOS,,Red de utilización pública (RUP),NO
908005261,81751,CLINICA CREU BLANCA,CATALUÑA,BARCELONA,Barcelona,"PASEO REINA  ELISENDA  DE  MONTCADA, 17",8034,932522522,51,Hospitales Generales,PRIVADOS,,Sin concierto,NO
908005262,81919,PARC SANITARI SANT JOAN DE DEU-SERVEIS SANITARIS CENTRE PENITENCIARI BRIANS-2,CATALUÑA,BARCELONA,Sant Esteve Sesrovires,"CARRETERA MARTORELL A CAPELLADES ,",8635,936935000,152,Hospitales Generales,SERVICIOS E INSTITUTOS DE SALUD DE LAS COMUNIDADES AUTÓNOMAS,,Sin concierto,NO
908005263,81829,CENTRE FORUM,CATALUÑA,BARCELONA,Barcelona,"CALLE LLULL, 410",8019,932483000,223,Hospitales de media y larga estancia,OTRAS ENTIDADES U ORGANISMOS PÚBLICOS,,Red de utilización pública (RUP),SI
908005265,81762,HESTIA GRACIA,CATALUÑA,BARCELONA,Barcelona,CALLE SECRETARI COLOMA 95,8024,934170400,153,Hospitales de media y larga estancia,PRIVADOS,,Red de utilización pública (RUP),NO
908005268,80155,CLINICA MC LONDRES,CATALUÑA,BARCELONA,Barcelona,CALLE LONDRES 28-38,8029,934577200,22,Hospitales Generales,MÚTUAS COLABORADORAS CON LA SEGURIDAD SOCIAL,,Sin concierto,NO
908005269,81830,CENTRE SOCIOSANITARI BLAUCLINIC DOLORS ALEU,CATALUÑA,BARCELONA,Barcelona,CALLE MARQUES DE SANTA ANNA 9,8023,934343216,174,Hospitales de media y larga estancia,PRIVADOS,,Red de utilización pública (RUP),NO
908005270,81874,CLINICA GALATEA,CATALUÑA,BARCELONA,Barcelona,CALLE PALAFOLLS 15-19,8017,932057267,22,Hospitales de salud mental y tratamiento de toxicomanías,PRIVADOS,,Sin concierto,NO
908005271,81896,CENTRE SOCIAL I SANITARI FREDERICA MONTSENY,CATALUÑA,BARCELONA,Viladecans,CALLE ESLIDA 6-8,8840,936473525,76,Hospitales de media y larga estancia,PRIVADOS,,Red de utilización pública (RUP),NO
908005272,81964,UNITAT POLIVALENT SALUT MENTAL BARCELONA-NORD,CATALUÑA,BARCELONA,Barcelona,AVENIDA JORDA 8,8035,934275250,52,Hospitales de salud mental y tratamiento de toxicomanías,PRIVADOS,,Red de utilización pública (RUP),NO
908005273,82012,HOSPITAL QUIRON SALUD DEL VALLES - CLINICA DEL VALLES,CATALUÑA,BARCELONA,Sabadell,PASEO RUBIO I ORS 25-27,8203,937283100,107,Hospitales Generales,PRIVADOS,,Sin concierto,NO
908005275,81931,CENTRE SOCIOSANITARI SANT JORDI DE LA VALL D'HEBRON,CATALUÑA,BARCELONA,Barcelona,PASEO VALL D'HEBRON 135-141,8035,934280000,57,Hospitales de media y larga estancia,PRIVADOS,,Red de utilización pública (RUP),NO
908005279,81920,CENTRE INTEGRAL DE SERVEIS EN SALUT MENTAL COMUNITARIA,CATALUÑA,BARCELONA,Barcelona,CALLE VERNTALLAT 11-19,8024,932184908,25,Hospitales de salud mental y tratamiento de toxicomanías,PRIVADOS,,Sin concierto,NO
908005280,82156,CLINICA SANT ANTONI,CATALUÑA,BARCELONA,Barcelona,CALLE SANT ELOI 6-8,8038,932974010,224,Hospitales de media y larga estancia,PRIVADOS,,Red de utilización pública (RUP),NO
908005281,81953,MAPFRE QUAVITAE BARCELONA,CATALUÑA,BARCELONA,Barcelona,CALLE SANT ANTONI MARIA CLARET 200,8025,934579400,38,Hospitales de media y larga estancia,PRIVADOS,,Sin concierto,NO
908005282,81347,HOSPITAL UNIVERSITARI VALL D'HEBRON,CATALUÑA,BARCELONA,Barcelona,PASEO VALL D'HEBRON 119-129,8035,934894524,1315,Hospitales Generales,SERVICIOS E INSTITUTOS DE SALUD DE LAS COMUNIDADES AUTÓNOMAS,,Sin concierto,SI
908005283,82045,HESTIA STAUROS,CATALUÑA,BARCELONA,Barcelona,PLAZA KARL MARX 1,8042,931171074,98,Hospitales de media y larga estancia,PRIVADOS,,Sin concierto,NO
908005288,82066,HOSPITAL DE SANT JOAN DESPI MOISES BROGGI,CATALUÑA,BARCELONA,Sant Joan Despí,AVENIDA JACINT VERDAGUER 90,8970,935531200,328,Hospitales Generales,OTRAS ENTIDADES U ORGANISMOS PÚBLICOS,,Red de utilización pública (RUP),SI
908005290,82134,ITA MARESME,CATALUÑA,BARCELONA,Barcelona,CALLE AVENIR 14,8006,933621258,56,Hospitales especializados,PRIVADOS,,Sin concierto,NO
908005293,82112,UNITAT POLIVALENT BENITO MENNI EN SALUT MENTAL DE L'HOSPITALET-EL PRAT DE LLOBREGAT,CATALUÑA,BARCELONA,"Hospitalet de Llobregat, L'",CALLE SANT RAFAEL 11,8905,936402400,35,Hospitales de salud mental y tratamiento de toxicomanías,PRIVADOS,,Red de utilización pública (RUP),NO
908005298,82145,CENTRE SOCIOSANITARI DEL CENTRE INTEGRAL DE SALUT COTXERES,CATALUÑA,BARCELONA,Barcelona,AVENIDA BORBO 18-30,8016,932438991,209,Hospitales de media y larga estancia,PRIVADOS,,Red de utilización pública (RUP),NO
908005627,82178,HOSPITAL SOCIOSANITARI DE MOLLET,CATALUÑA,BARCELONA,Mollet del Vallès,CALLE SANT LLORENÇ 39-41,8100,935760300,109,Hospitales de media y larga estancia,PRIVADOS,,Red de utilización pública (RUP),NO
908005675,82190,IVAN MAÑERO CLINIC,CATALUÑA,BARCELONA,Sant Cugat del Vallès,CALLE VICTOR HUGO 24,8174,902401540,17,Hospitales especializados,PRIVADOS,,Sin concierto,NO
908007616,82224,SARQUAVITAE BONANOVA,CATALUÑA,BARCELONA,Barcelona,CALLE CALATRAVA 83,8017,932534940,28,Hospitales de media y larga estancia,PRIVADOS,,Sin concierto,NO
908007674,82213,CENTRE D'HOSPITALITZACIO I HOSPITAL DE DIA TRASTORNS DE LA CONDUCTA,CATALUÑA,BARCELONA,Argentona,CALLE CIRES S/N,8310,937533006,40,Hospitales de salud mental y tratamiento de toxicomanías,PRIVADOS,,Sin concierto,NO
908008299,82189,CENTRE SOCIOSANITARI ISABEL ROIG,CATALUÑA,BARCELONA,Barcelona,CALLE FERNANDO PESSOA 47-51,8030,931780667,251,Hospitales de media y larga estancia,PRIVADOS,,Sin concierto,NO
908009231,82236,CENTRE LA CREUETA,CATALUÑA,BARCELONA,Sabadell,PLAZA DE LES VAQUES S/N,8202,937451164,46,Hospitales de media y larga estancia,PRIVADOS,,Red de utilización pública (RUP),NO
908012300,82246,UNITAT TERAPEUTICA-EDUCATIVA ACOMPANYA'M,CATALUÑA,BARCELONA,Barcelona,CALLE JESUS I MARIA 18-20,8022,932532100,30,Hospitales de salud mental y tratamiento de toxicomanías,PRIVADOS,,Sin concierto,NO
908013068,82257,CAT BARCELONA,CATALUÑA,BARCELONA,Barcelona,CALLE POMARET 20,8017,932540157,28,Hospitales de salud mental y tratamiento de toxicomanías,PRIVADOS,,Sin concierto,NO
917000807,170097,CLINICA SALUS INFIRMORUM,CATALUÑA,GIRONA,Banyoles,PASEO MOSSEN LLUIS CONSTANS 130,17820,972570208,100,Hospitales de media y larga estancia,PRIVADOS,,Red de utilización pública (RUP),NO
917000808,170101,HOSPITAL DE SANT JAUME,CATALUÑA,GIRONA,Blanes,CALLE JAUME ARCELOS 1,17300,972331550,23,Hospitales de media y larga estancia,OTRAS ENTIDADES U ORGANISMOS PÚBLICOS,,Red de utilización pública (RUP),NO
917000809,170118,HOSPITAL DE CAMPDEVANOL,CATALUÑA,GIRONA,Campdevànol,CARRETERA DE GOMBREN 20,17530,972730028,80,Hospitales Generales,PRIVADOS,,Red de utilización pública (RUP),NO
917000810,170123,HOSPITAL DE FIGUERES,CATALUÑA,GIRONA,Figueres,RONDA RECTOR AROLAS S/N,17600,972501400,168,Hospitales Generales,PRIVADOS,,Red de utilización pública (RUP),SI
917000811,170139,CLINICA SANTA CREU,CATALUÑA,GIRONA,Figueres,"CALLE PERE III, 41",17600,972503650,35,Hospitales Generales,PRIVADOS,,Sin concierto,NO
917000812,170031,CLINICA BOFILL,CATALUÑA,GIRONA,Girona,"RONDA SANT ANTONI MARIA CLARET, 20",17002,972204350,47,Hospitales Generales,PRIVADOS,,Sin concierto,NO
917000813,170010,HOSPITAL UNIVERSITARI DE GIRONA DR. JOSEP TRUETA,CATALUÑA,GIRONA,Girona,AVENIDA FRANÇA S/N,17007,972940200,431,Hospitales Generales,SERVICIOS E INSTITUTOS DE SALUD DE LAS COMUNIDADES AUTÓNOMAS,,Red de utilización pública (RUP),SI
917000814,170059,CLINICA GIRONA,CATALUÑA,GIRONA,Girona,CALLE JOAN  MARAGALL 26,17002,972204500,123,Hospitales Generales,PRIVADOS,,Red de utilización pública (RUP),NO
917000815,170062,CLINICA QUIRURGICA ONYAR,CATALUÑA,GIRONA,Girona,CALLE HEROINES DE SANTA BARBARA 6,17004,972204900,38,Hospitales Generales,PRIVADOS,,Sin concierto,NO
917000816,170301,HOSPITAL SANTA CATERINA-IAS,CATALUÑA,GIRONA,Salt,AVENIDA DOCTOR CASTANY (P. H. MARTI I JULIA) S/N,17190,972182600,178,Hospitales Generales,OTRAS ENTIDADES U ORGANISMOS PÚBLICOS,,Red de utilización pública (RUP),SI
917000817,170216,HOSPITAL PSIQUIATRIC,CATALUÑA,GIRONA,Salt,"CALLE DOCTOR CASTANY, S/N",17190,972182512,593,Hospitales de salud mental y tratamiento de toxicomanías,OTRAS ENTIDADES U ORGANISMOS PÚBLICOS,,Red de utilización pública (RUP),SI
917000818,170160,HOSPITAL SOCIOSANITARI DE LLORET DE MAR,CATALUÑA,GIRONA,Lloret de Mar,"CALLE VALL DE VENECIA, 59",17310,972364736,63,Hospitales de media y larga estancia,OTRAS ENTIDADES U ORGANISMOS PÚBLICOS,,Red de utilización pública (RUP),NO
917000819,170176,HOSPITAL D'OLOT I COMARCAL DE LA GARROTXA,CATALUÑA,GIRONA,Olot,AVENIDA PAISOS  CATALANS 86,17800,972261800,137,Hospitales Generales,PRIVADOS,,Red de utilización pública (RUP),NO
917000820,170195,HOSPITAL DE PALAMOS,CATALUÑA,GIRONA,Palamós,CALLE HOSPITAL 36,17230,972600160,136,Hospitales Generales,PRIVADOS,,Red de utilización pública (RUP),SI
917000822,170221,RESIDENCIA DE GENT GRAN PUIG D'EN ROCA,CATALUÑA,GIRONA,Girona,CALLE ANTONI VARES I MARTINELL 37,17007,972209250,55,Hospitales de media y larga estancia,SERVICIOS E INSTITUTOS DE SALUD DE LAS COMUNIDADES AUTÓNOMAS,,Red de utilización pública (RUP),NO
917000823,170237,HOSPITAL COMARCAL DE BLANES,CATALUÑA,GIRONA,Blanes,CARRETERA ACCES CALA SANT FRANCESC 5,17300,972353264,121,Hospitales Generales,OTRAS ENTIDADES U ORGANISMOS PÚBLICOS,,Red de utilización pública (RUP),NO
917000824,170242,RESIDENCIA GERIATRICA MARIA GAY,CATALUÑA,GIRONA,Girona,CALLE PORTAL NOU 12,17004,972205045,24,Hospitales de media y larga estancia,PRIVADOS,,Red de utilización pública (RUP),NO
917000825,170255,CENTRE SOCIOSANITARI MUTUAM GIRONA,CATALUÑA,GIRONA,Girona,AVENIDA FRANÇA 64,17007,972171819,90,Hospitales de media y larga estancia,PRIVADOS,,Red de utilización pública (RUP),NO
917000826,170277,CENTRE SOCIOSANITARI DE PUIGCERDA,CATALUÑA,GIRONA,Puigcerdà,CAMINO ANTIC DE LLIVIA S/N,17520,972880150,52,Hospitales de media y larga estancia,PRIVADOS,,Red de utilización pública (RUP),NO
917000827,170288,CENTRE SOCIOSANITARI BERNAT JAUME,CATALUÑA,GIRONA,Figueres,RONDA RECTOR AROLAS S/N,17600,972501400,121,Hospitales de media y larga estancia,PRIVADOS,,Red de utilización pública (RUP),NO
917000828,170299,INSTITUT CATALA D'ONCOLOGIA GIRONA - HOSPITAL JOSEP TRUETA,CATALUÑA,GIRONA,Girona,AVENIDA FRANÇA S/N,17007,972940200,26,Hospitales especializados,OTRAS ENTIDADES U ORGANISMOS PÚBLICOS,,Red de utilización pública (RUP),NO
917000829,170323,CENTRE SOCIOSANITARI PARC HOSPITALARI MARTI I JULIA,CATALUÑA,GIRONA,Salt,CALLE DR. CASTANY S/N,17190,972182512,120,Hospitales de media y larga estancia,OTRAS ENTIDADES U ORGANISMOS PÚBLICOS,,Red de utilización pública (RUP),SI
917000830,170312,CENTRE PALAMOS GENT GRAN,CATALUÑA,GIRONA,Palamós,CALLE PROVENÇA 36,17230,972600160,100,Hospitales de media y larga estancia,PRIVADOS,,Red de utilización pública (RUP),NO
917001139,170334,HOSPITAL DE CERDANYA / HOPITAL DE CERDAGNE,CATALUÑA,GIRONA,Puigcerdà,CAMINO D'UR 31,17520,972114090,66,Hospitales Generales,OTRAS ENTIDADES U ORGANISMOS PÚBLICOS,,Sin concierto,NO
925000571,250077,CLINICA PSIQUIATRICA BELLAVISTA,CATALUÑA,LLEIDA,Lleida,AVENIDA ROVIRA ROURE 116,25198,973231698,75,Hospitales de salud mental y tratamiento de toxicomanías,PRIVADOS,,Sin concierto,NO
925000572,250019,HOSPITAL UNIVERSITARI ARNAU DE VILANOVA DE LLEIDA.,CATALUÑA,LLEIDA,Lleida,AVENIDA ALCALDE  ROVIRA  ROURE 80,25198,973248100,463,Hospitales Generales,SERVICIOS E INSTITUTOS DE SALUD DE LAS COMUNIDADES AUTÓNOMAS,,Red de utilización pública (RUP),SI
925000574,250045,VITHAS HOSPITAL MONTSERRAT,CATALUÑA,LLEIDA,Lleida,CALLE BISBE TORRES 13,25002,973266300,47,Hospitales Generales,PRIVADOS,,Sin concierto,NO
925000575,250058,"CLINICA PERPETUO SOCORRO DE LERIDA, GRUPO HLA, SLU",CATALUÑA,LLEIDA,Lleida,CALLE BISBE MESSEGUER 3,25003,973266100,58,Hospitales Generales,PRIVADOS,,Sin concierto,NO
925000576,250024,HOSPITAL SANTA MARIA,CATALUÑA,LLEIDA,Lleida,AVENIDA ALCALDE ROVIRA ROURE 44,25198,973727222,229,Hospitales Generales,OTRAS ENTIDADES U ORGANISMOS PÚBLICOS,,Red de utilización pública (RUP),SI
925000578,250117,FUNDACIO SANT HOSPITAL.,CATALUÑA,LLEIDA,"Seu d'Urgell, La",PASEO JOAN BRUDIEU 8,25700,973350050,88,Hospitales Generales,PRIVADOS,,Red de utilización pública (RUP),NO
925000579,250143,HOSPITAL COMARCAL DEL PALLARS,CATALUÑA,LLEIDA,Tremp,CALLE PAU CASALS 5,25620,973652255,63,Hospitales Generales,OTRAS ENTIDADES U ORGANISMOS PÚBLICOS,,Red de utilización pública (RUP),NO
925000580,250156,ESPITAU VAL D'ARAN,CATALUÑA,LLEIDA,Vielha e Mijaran,"CALLE ESPITAU, 8",25530,973640004,31,Hospitales Generales,PRIVADOS,,Sin concierto,NO
925000581,250138,"CENTRE SANITARI DEL SOLSONES, FPC",CATALUÑA,LLEIDA,Solsona,"PLAZA ANTONI GUITART, 1",25280,973481172,32,Hospitales de media y larga estancia,OTRAS ENTIDADES U ORGANISMOS PÚBLICOS,,Red de utilización pública (RUP),NO
925000582,250169,HESTIA BALAGUER.,CATALUÑA,LLEIDA,Balaguer,CALLE GREGORI GALLEGO 22-28,25600,973450304,120,Hospitales de media y larga estancia,PRIVADOS,,Red de utilización pública (RUP),NO
925000583,250175,RESIDENCIA TERRAFERMA,CATALUÑA,LLEIDA,Alpicat,CALLE PARTIDA DEL GRAO S/N,25110,973737455,137,Hospitales de media y larga estancia,PRIVADOS,,Red de utilización pública (RUP),NO
925000584,250181,"CASTELL D'OLIANA RESIDENCIAL,S.L",CATALUÑA,LLEIDA,Oliana,CARRETERA DE LLEIDA A PUIGCERDA .,25790,973463030,20,Hospitales de salud mental y tratamiento de toxicomanías,PRIVADOS,,Red de utilización pública (RUP),NO
925000586,250209,HOSPITAL JAUME NADAL MEROLES,CATALUÑA,LLEIDA,Lleida,CALLE ACADEMIA 41,25002,973289333,126,Hospitales de media y larga estancia,PRIVADOS,,Red de utilización pública (RUP),NO
925000587,250210,SANT JOAN DE DEU TERRES DE LLEIDA,CATALUÑA,LLEIDA,Almacelles,CARRETERA N-240 .,25100,973740010,14,Hospitales de salud mental y tratamiento de toxicomanías,PRIVADOS,,Red de utilización pública (RUP),SI
925000909,250232,HOSPITAL SANT JOAN DE DEU LLEIDA,CATALUÑA,LLEIDA,Lleida,AVENIDA CANADENCA S/N,25001,973740010,130,Hospitales de salud mental y tratamiento de toxicomanías,PRIVADOS,,Red de utilización pública (RUP),SI
943000750,430108,CENTRE MQ REUS,CATALUÑA,TARRAGONA,Reus,CALLE ANTONI GAUDI 26,43203,977010800,50,Hospitales Generales,PRIVADOS,,Red de utilización pública (RUP),NO
943000751,430115,"VILLABLANCA SERVEIS ASSISTENCIALS, SA",CATALUÑA,TARRAGONA,Reus,PARTIDA BELLISENS S/N,43205,977390011,350,Hospitales de salud mental y tratamiento de toxicomanías,PRIVADOS,,Red de utilización pública (RUP),SI
943000752,430120,"INSTITUT PERE MATA, S.A",CATALUÑA,TARRAGONA,Reus,CARRETERA DE L'INSTITUT PERE MATA S/N,43206,977338565,727,Hospitales de salud mental y tratamiento de toxicomanías,PRIVADOS,,Red de utilización pública (RUP),SI
943000753,430069,CLINICA ACTIVA MUTUA 2008,CATALUÑA,TARRAGONA,Tarragona,CALLE PIN I SOLER 12,43002,977217900,22,Hospitales especializados,MÚTUAS COLABORADORAS CON LA SEGURIDAD SOCIAL,,Sin concierto,NO
943000754,430043,HOSPITAL DE SANT PAU I SANTA TECLA,CATALUÑA,TARRAGONA,Tarragona,RAMBLA VELLA 14,43003,977259900,186,Hospitales Generales,PRIVADOS,,Red de utilización pública (RUP),SI
943000755,430017,HOSPITAL UNIVERSITARI JOAN XXIII DE TARRAGONA,CATALUÑA,TARRAGONA,Tarragona,CALLE DOCTOR MALLAFRE GUASCH 4,43007,977295800,372,Hospitales Generales,SERVICIOS E INSTITUTOS DE SALUD DE LAS COMUNIDADES AUTÓNOMAS,,Red de utilización pública (RUP),SI
943000756,430022,HOSPITAL SOCIOSANITARI FRANCOLI,CATALUÑA,TARRAGONA,Tarragona,CALLE DOCTOR MALLAFRE GUASCH S/N,43005,977232714,156,Hospitales de media y larga estancia,OTRAS ENTIDADES U ORGANISMOS PÚBLICOS,,Red de utilización pública (RUP),NO
943000757,430056,HOSPITAL VIAMED MONEGAL,CATALUÑA,TARRAGONA,Tarragona,CALLE LOPEZ PELAEZ 15-17,43002,977225012,53,Hospitales Generales,PRIVADOS,,Sin concierto,NO
943000758,430173,HOSPITAL DE LA SANTA CREU,CATALUÑA,TARRAGONA,Tortosa,PASEO MOSSEN VALLS BARTOMEU 1,43590,977500533,250,Hospitales de media y larga estancia,MUNICIPIO,,Red de utilización pública (RUP),SI
943000759,430189,CLINICA TERRES DE L'EBRE,CATALUÑA,TARRAGONA,Tortosa,PLAZA JOAQUIM  BAU 6-8,43500,977588200,40,Hospitales Generales,MUNICIPIO,,Red de utilización pública (RUP),NO
943000760,430167,HOSPITAL DE TORTOSA VERGE DE LA CINTA,CATALUÑA,TARRAGONA,Tortosa,CALLE ESPLANETES . 44,43500,977519100,248,Hospitales Generales,SERVICIOS E INSTITUTOS DE SALUD DE LAS COMUNIDADES AUTÓNOMAS,,Red de utilización pública (RUP),SI
943000761,430081,HOSPITAL COMARCAL MORA D'EBRE,CATALUÑA,TARRAGONA,Móra d'Ebre,CALLE BENET MESSEGUER S/N,43740,977401863,120,Hospitales Generales,PRIVADOS,,Red de utilización pública (RUP),NO
943000762,430228,PIUS HOSPITAL DE VALLS,CATALUÑA,TARRAGONA,Valls,PLAZA SANT FRANCESC S/N,43800,977613000,142,Hospitales Generales,PRIVADOS,,Red de utilización pública (RUP),SI
943000763,430234,RESIDENCIA ALT CAMP,CATALUÑA,TARRAGONA,Valls,CAMINO DEL BOSC S/N,43800,977600292,50,Hospitales de media y larga estancia,PRIVADOS,,Concierto parcial,NO
943000764,430213,POLICLINICA COMARCAL DEL VENDRELL.,CATALUÑA,TARRAGONA,Santa Oliva,AVENIDA SANTA OLIVA 1-13,43710,977660140,136,Hospitales de media y larga estancia,PRIVADOS,,Red de utilización pública (RUP),NO
943000765,430249,CENTRE SOCIOSANITARI CIUTAT DE REUS,CATALUÑA,TARRAGONA,Reus,CAMINO DE TARRAGONA 10,43204,977300021,85,Hospitales de media y larga estancia,PRIVADOS,,Red de utilización pública (RUP),NO
943000766,430252,HOSPITAL COMARCAL D'AMPOSTA,CATALUÑA,TARRAGONA,Amposta,CALLE JACINT VERDAGUER 11,43870,977700050,88,Hospitales Generales,MUNICIPIO,,Red de utilización pública (RUP),NO
943000769,430265,CENTRE SOCIOSANITARI LLEVANT,CATALUÑA,TARRAGONA,Tarragona,CALLE JOAN FUSTER ORTELLS S/N,43007,977239412,60,Hospitales de media y larga estancia,PRIVADOS,,Concierto parcial,NO
943000770,430276,RESIDENCIA VILA-SECA,CATALUÑA,TARRAGONA,Vila-seca,CALLE REQUET DE FELIX 35,43480,977395825,35,Hospitales de media y larga estancia,PRIVADOS,,Red de utilización pública (RUP),NO
943000771,430298,HOSPITAL DEL VENDRELL,CATALUÑA,TARRAGONA,"Vendrell, El",CARRETERA N-340 1193,43700,977257900,120,Hospitales Generales,PRIVADOS,,Red de utilización pública (RUP),NO
943000772,430287,UNITAT POLIVALENT EN SALUT MENTAL D'AMPOSTA,CATALUÑA,TARRAGONA,Amposta,CALLE AMERICA 15,43870,977338565,127,Hospitales de salud mental y tratamiento de toxicomanías,PRIVADOS,,Red de utilización pública (RUP),NO
943000775,430300,CENTRE SOCIOSANITARI I RESIDENCIA ASSISTIDA SALOU,CATALUÑA,TARRAGONA,Salou,AVENIDA PAU CASALS 3,43840,977774705,30,Hospitales de media y larga estancia,PRIVADOS,,Red de utilización pública (RUP),NO
943000777,430322,RESIDENCIA SANTA TECLA PONENT,CATALUÑA,TARRAGONA,Tarragona,CALLE MENORCA 26,43006,977540678,70,Hospitales de media y larga estancia,PRIVADOS,,Red de utilización pública (RUP),NO
943001036,430094,HOSPITAL UNIVERSITARI DE SANT JOAN DE REUS,CATALUÑA,TARRAGONA,Reus,AVENIDA JOSEP LAPORTE 2,43204,977310300,313,Hospitales Generales,MUNICIPIO,,Red de utilización pública (RUP),SI
1003000040,30190,SANATORIO SAN FRANCISCO DE BORJA FONTILLES,COMUNIDAD VALENCIANA,ALICANTE,"Vall de Laguar, la","CARRETERA ORBA-VALL DE LAGUAR, KM 4 NUMERO S/N",3791,963511583;965583350,96,Hospitales de media y larga estancia,ORGANIZACIONES NO GUBERNAMENTALES,,Concierto parcial,NO
1003000098,30351,HOSPITAL LA PEDRERA,COMUNIDAD VALENCIANA,ALICANTE,Dénia,PARTIDA PLANA EST 4,3700,965579702;966467170,107,Hospitales de media y larga estancia,SERVICIOS E INSTITUTOS DE SALUD DE LAS COMUNIDADES AUTÓNOMAS,,Sin concierto,NO
1003000121,30187,HOSPITAL SANT VICENT DEL RASPEIG,COMUNIDAD VALENCIANA,ALICANTE,San Vicente del Raspeig/Sant Vicent del Raspeig,CALLE LILLO JUAN 137,3690,965907700,179,Hospitales de media y larga estancia,SERVICIOS E INSTITUTOS DE SALUD DE LAS COMUNIDADES AUTÓNOMAS,,Sin concierto,NO
1003000129,30041,VITHAS HOSPITAL PERPETUO INTERNACIONAL,COMUNIDAD VALENCIANA,ALICANTE,Alicante/Alacant,PLAZA DOCTOR GOMEZ ULLA 15,3013,965201100;965230332,103,Hospitales Generales,PRIVADOS,,Sin concierto,NO
1003000134,30036,CLINICA VISTAHERMOSA GRUPO HLA,COMUNIDAD VALENCIANA,ALICANTE,Alicante/Alacant,AVENIDA DENIA 103,3015,649303489;965268000,106,Hospitales Generales,PRIVADOS,,Sin concierto,NO
1003000135,30067,HOSPITAL VIRGEN DE LOS LIRIOS,COMUNIDAD VALENCIANA,ALICANTE,Alcoy/Alcoi,CALLE CARAMANXEL S/N,3804,965537400;965537499,305,Hospitales Generales,SERVICIOS E INSTITUTOS DE SALUD DE LAS COMUNIDADES AUTÓNOMAS,,Sin concierto,SI
1003000136,30204,HOSPITAL MARINA BAIXA DE LA VILA JOIOSA,COMUNIDAD VALENCIANA,ALICANTE,"Villajoyosa/Vila Joiosa, la",AVENIDA ALCALDE EN JAUME BOTELLA MAYOR 7,3570,966859800;966859858,270,Hospitales Generales,SERVICIOS E INSTITUTOS DE SALUD DE LAS COMUNIDADES AUTÓNOMAS,,Sin concierto,SI
1003000142,30152,HOSPITAL GENERAL UNIVERSITARIO DE ELCHE,COMUNIDAD VALENCIANA,ALICANTE,Elche/Elx,CALLE CAMI ALMAZARA 11,3203,966616211;966616900,408,Hospitales Generales,SERVICIOS E INSTITUTOS DE SALUD DE LAS COMUNIDADES AUTÓNOMAS,,Sin concierto,SI
1003000144,30092,HOSPITAL CLINICA BENIDORM,COMUNIDAD VALENCIANA,ALICANTE,Benidorm,AVENIDA ALFONSO PUCHADES 8,3501,965853850;966831004,163,Hospitales Generales,PRIVADOS,,Sin concierto,NO
1003000161,30211,HOSPITAL VEGA BAJA DE ORIHUELA,COMUNIDAD VALENCIANA,ALICANTE,Orihuela,PARAJE CARRETERA ALMORADI S/N,3325,966749000;966749054,336,Hospitales Generales,SERVICIOS E INSTITUTOS DE SALUD DE LAS COMUNIDADES AUTÓNOMAS,,Sin concierto,SI
1003000167,30298,HOSPITAL QUIRONSALUD TORREVIEJA,COMUNIDAD VALENCIANA,ALICANTE,Torrevieja,PARTIDA DE LA LOMA S/N,3184,966921313,132,Hospitales Generales,PRIVADOS,,Concierto parcial,NO
1003000176,30328,HOSPITAL IMED LEVANTE,COMUNIDAD VALENCIANA,ALICANTE,Benidorm,CALLE DR SANTIAGO RAMON Y CAJAL 7,3503,966878783;966878787,100,Hospitales Generales,PRIVADOS,,Concierto parcial,NO
1003000177,30232,HOSPITAL PSIQUIATRICO PENITENCIARIO DE FONTCALENT,COMUNIDAD VALENCIANA,ALICANTE,Alicante/Alacant,COMPLEJO CENTRO PENITENC. FONTCALEN 1,3113,965101230;965102222,432,Hospitales de salud mental y tratamiento de toxicomanías,OTROS CENTROS O ESTABLECIMIENTOS PÚBLICOS DE DEPENDENCIA ESTATAL,,Sin concierto,NO
1003000179,30128,HOSPITAL SAN CARLOS DE DENIA GRUPO HLA,COMUNIDAD VALENCIANA,ALICANTE,Dénia,PARTIDA MADRIGUERES SUD 8,3700,902300124;965781550,31,Hospitales Generales,PRIVADOS,,Sin concierto,NO
1003000200,30165,HOSPITAL GENERAL UNIVERSITARIO DE ELDA-VIRGEN DE LA SALUD,COMUNIDAD VALENCIANA,ALICANTE,Elda,CARRETERA SAX S/N,3600,966989000;966989010,513,Hospitales Generales,SERVICIOS E INSTITUTOS DE SALUD DE LAS COMUNIDADES AUTÓNOMAS,,Sin concierto,SI
1003000220,30015,HOSPITAL GENERAL UNIVERSITARIO DE ALICANTE,COMUNIDAD VALENCIANA,ALICANTE,Alicante/Alacant,AVENIDA PINTOR BAEZA 12,3010,965913496;965933000,807,Hospitales Generales,SERVICIOS E INSTITUTOS DE SALUD DE LAS COMUNIDADES AUTÓNOMAS,,Sin concierto,SI
1003000233,30339,HOSPITAL UNIVERSITARIO DE TORREVIEJA,COMUNIDAD VALENCIANA,ALICANTE,Torrevieja,CARRETERA CARRETERA CV 95 S. MIGUEL SALINAS-TORREVIEJA PDA. LA CEÑUELA S/N,3186,965721200;966799433,269,Hospitales Generales,SERVICIOS E INSTITUTOS DE SALUD DE LAS COMUNIDADES AUTÓNOMAS,,Sin concierto,SI
1003000237,30226,HOSPITAL  MEDIMAR INTERNACIONAL,COMUNIDAD VALENCIANA,ALICANTE,Alicante/Alacant,AVENIDA DENIA 78,3016,600926782;965230331,66,Hospitales Generales,PRIVADOS,,Sin concierto,NO
1003000247,30250,HOSPITAL UNIVERSITARIO SAN JUAN DE ALICANTE,COMUNIDAD VALENCIANA,ALICANTE,Sant Joan d'Alacant,"CARRETERA C.NAL. 332, ALICANTE-VALENCIA S/N",3550,965169400;965938699,396,Hospitales Generales,SERVICIOS E INSTITUTOS DE SALUD DE LAS COMUNIDADES AUTÓNOMAS,,Sin concierto,SI
1003000248,30340,HOSPITAL DE DENIA,COMUNIDAD VALENCIANA,ALICANTE,Dénia,CALLE BENIADLA S/N,3700,966429000;966429101,266,Hospitales Generales,SERVICIOS E INSTITUTOS DE SALUD DE LAS COMUNIDADES AUTÓNOMAS,,Sin concierto,SI
1003000254,30362,CENTRO DE REHABILITACION NEUROLOGICA CASAVERDE,COMUNIDAD VALENCIANA,ALICANTE,Mutxamel,CALLE PONENT 15,3110,965950711,40,Hospitales especializados,PRIVADOS,,Sin concierto,NO
1003000255,30373,HOSPITAL UNIVERSITARIO VINALOPO,COMUNIDAD VALENCIANA,ALICANTE,Elche/Elx,CALLE TONICO SANSANO MORA 14,3293,966679800,214,Hospitales Generales,SERVICIOS E INSTITUTOS DE SALUD DE LAS COMUNIDADES AUTÓNOMAS,,Sin concierto,SI
1003000333,30384,HOSPITAL IMED ELCHE,COMUNIDAD VALENCIANA,ALICANTE,Elche/Elx,CALLE MAX PLANCK S/N,3203,965503030;966915151,98,Hospitales Generales,PRIVADOS,,Concierto parcial,NO
1012000178,120136,HOSPITAL UNIVERSITARIO DE LA PLANA,COMUNIDAD VALENCIANA,CASTELLÓN,Vila-real,"CARRETERA VILA-REAL A BORRIANA KM 0,5",12540,964399775;964399845,258,Hospitales Generales,SERVICIOS E INSTITUTOS DE SALUD DE LAS COMUNIDADES AUTÓNOMAS,,Sin concierto,SI
1012000180,120017,HOSPITAL GENERAL UNIVERSITARIO DE CASTELLON,COMUNIDAD VALENCIANA,CASTELLÓN,Castelló de la Plana,AVENIDA BENICASIM S/N,12004,964725000;964726510,521,Hospitales Generales,SERVICIOS E INSTITUTOS DE SALUD DE LAS COMUNIDADES AUTÓNOMAS,,Sin concierto,SI
1012000182,120038,HOSPITAL LA MAGDALENA,COMUNIDAD VALENCIANA,CASTELLÓN,Castelló de la Plana,CAMINO COLLET 32,12004,964356800,128,Hospitales de media y larga estancia,SERVICIOS E INSTITUTOS DE SALUD DE LAS COMUNIDADES AUTÓNOMAS,,Sin concierto,NO
1012000183,120043,CONSORCIO HOSPITALARIO PROVINCIAL DE CASTELLON,COMUNIDAD VALENCIANA,CASTELLÓN,Castelló de la Plana,AVENIDA DOCTOR CLARA 19,12002,964354303;964359700,257,Hospitales Generales,OTROS CENTROS O ESTABLECIMIENTOS PÚBLICOS DE DEPENDENCIA AUTONÓMICA,,Sin concierto,SI
1012000255,120159,HOSPITAL REY D. JAIME,COMUNIDAD VALENCIANA,CASTELLÓN,Castelló de la Plana,CALLE MARIA ROSA MOLAS 25,12004,964726000,96,Hospitales Generales,PRIVADOS,,Sin concierto,NO
1012000256,120148,INSTITUTO DE TRAUMATOLOGIA DE UNION DE MUTUAS (MATEPSS Nº 267),COMUNIDAD VALENCIANA,CASTELLÓN,Castelló de la Plana,AVENIDA VIRGEN DE LIDON 67,12004,964231212,28,Hospitales especializados,MÚTUAS COLABORADORAS CON LA SEGURIDAD SOCIAL,,Sin concierto,NO
1012000288,120115,HOSPITAL COMARCAL DE VINAROS,COMUNIDAD VALENCIANA,CASTELLÓN,Vinaròs,AVENIDA GIL DE ATROCILLO S/N,12500,964400032;964477000,174,Hospitales Generales,SERVICIOS E INSTITUTOS DE SALUD DE LAS COMUNIDADES AUTÓNOMAS,,Sin concierto,NO
1012002627,120171,CENTRO MEDICALIZADO CENTRO DE TECNIFICACION DEPORTIVA VILA-REAL,COMUNIDAD VALENCIANA,CASTELLÓN,Vila-real,TRAVESIA CAMI BETXI 65,12540,964399845,36,Otros Centros con Internamiento,SERVICIOS E INSTITUTOS DE SALUD DE LAS COMUNIDADES AUTÓNOMAS,,Sin concierto,NO
1046000057,460060,CONSORCIO HOSPITAL GENERAL UNIVERSITARIO DE VALENCIA,COMUNIDAD VALENCIANA,VALENCIA,València,AVENIDA TRES CRUCES 2,46014,963131800,546,Hospitales Generales,OTROS CENTROS O ESTABLECIMIENTOS PÚBLICOS DE DEPENDENCIA AUTONÓMICA,,Sin concierto,SI
1046000096,460291,HOSPITAL 9 DE OCTUBRE,COMUNIDAD VALENCIANA,VALENCIA,València,CALLE VALLE DE LA BALLESTERA 59,46015,963179100;963179200,300,Hospitales Generales,PRIVADOS,,Sin concierto,NO
1046000268,460207,HOSPITAL FRANCESC DE BORJA DE GANDIA,COMUNIDAD VALENCIANA,VALENCIA,Gandia,AVENIDA MEDICINA (DE LA) 6,46702,962849500,285,Hospitales Generales,SERVICIOS E INSTITUTOS DE SALUD DE LAS COMUNIDADES AUTÓNOMAS,,Red de utilización pública (RUP),SI
1046000270,460381,HOSPITAL DE CRONICOS DE MISLATA (ANTIGUO HOSPITAL MILITAR DE VALENCIA),COMUNIDAD VALENCIANA,VALENCIA,Mislata,CALLE DOLORES IBARRURI 1,46920,963874693,38,Hospitales de media y larga estancia,SERVICIOS E INSTITUTOS DE SALUD DE LAS COMUNIDADES AUTÓNOMAS,,Sin concierto,NO
1046000278,460180,CASA DE REPOSO SAN ONOFRE,COMUNIDAD VALENCIANA,VALENCIA,Godella,AVENIDA JOAN PESET 31,46110,639634017;963638036,76,Hospitales de salud mental y tratamiento de toxicomanías,PRIVADOS,,Sin concierto,NO
1046000290,460288,HOSPITAL GENERAL DE REQUENA,COMUNIDAD VALENCIANA,VALENCIA,Requena,CALLE CASABLANCA S/N,46340,962339180;962339181,113,Hospitales Generales,SERVICIOS E INSTITUTOS DE SALUD DE LAS COMUNIDADES AUTÓNOMAS,,Sin concierto,SI
1046000319,460109,FUNDACION INSTITUTO VALENCIANO DE ONCOLOGIA,COMUNIDAD VALENCIANA,VALENCIA,València,CALLE PROFESOR BELTRAN BAGUENA 8,46009,961114000;961114099,160,Hospitales especializados,ORGANIZACIONES NO GUBERNAMENTALES,,Concierto sustitutorio,SI
1046000325,460023,HOSPITAL UNIVERSITARIO DR. PESET ALEIXANDRE,COMUNIDAD VALENCIANA,VALENCIA,València,AVENIDA GASPAR AGUILAR 90,46017,961622300,539,Hospitales Generales,SERVICIOS E INSTITUTOS DE SALUD DE LAS COMUNIDADES AUTÓNOMAS,,Sin concierto,SI
1046000342,460044,HOSPITAL CLINICO UNIVERSITARIO DE VALENCIA,COMUNIDAD VALENCIANA,VALENCIA,València,AVENIDA BLASCO IBAÑEZ 17,46010,961973500;961973691,582,Hospitales Generales,SERVICIOS E INSTITUTOS DE SALUD DE LAS COMUNIDADES AUTÓNOMAS,,Red de utilización pública (RUP),SI
1046000344,460116,HOSPITAL VIRGEN DEL CONSUELO,COMUNIDAD VALENCIANA,VALENCIA,València,CALLE CALLOSA D'EN SARRIA 12,46007,963177800,156,Hospitales Generales,PRIVADOS,,Concierto parcial,NO
1046000353,460229,HOSPITAL LLUIS ALCANYIS DE XATIVA,COMUNIDAD VALENCIANA,VALENCIA,Xàtiva,CARRETERA XATIVA-SILLA KM. 2,46800,962289300;962289340,273,Hospitales Generales,SERVICIOS E INSTITUTOS DE SALUD DE LAS COMUNIDADES AUTÓNOMAS,,Sin concierto,SI
1046000362,460018,HOSPITAL UNIVERSITARIO Y POLITECNICO LA FE,COMUNIDAD VALENCIANA,VALENCIA,València,AVENIDA FERNANDO ABRIL MARTORELL 106,46026,961244000;961244226,1000,Hospitales Generales,SERVICIOS E INSTITUTOS DE SALUD DE LAS COMUNIDADES AUTÓNOMAS,,Sin concierto,SI
1046000383,460266,HOSPITAL DE SAGUNTO,COMUNIDAD VALENCIANA,VALENCIA,Sagunto/Sagunt,CALLE RAMON Y CAJAL 46,46520,962339300;962339308,252,Hospitales Generales,SERVICIOS E INSTITUTOS DE SALUD DE LAS COMUNIDADES AUTÓNOMAS,,Sin concierto,SI
1046000388,460333,HOSPITAL NISA AGUAS VIVAS,COMUNIDAD VALENCIANA,VALENCIA,Carcaixent,"URBANIZACION VALL D'AIGUES VIVES, DE LA S/N",46740,962588800;962588933,96,Hospitales Generales,PRIVADOS,,Sin concierto,NO
1046000390,460327,HOSPITAL IMED GANDIA,COMUNIDAD VALENCIANA,VALENCIA,Gandia,CALLE DAIMUS 26,46701,962874740,12,Hospitales Generales,PRIVADOS,,Sin concierto,NO
1046000414,460240,HOSPITAL INTERMUTUAL DE LEVANTE,COMUNIDAD VALENCIANA,VALENCIA,San Antonio de Benagéber,"CARRETERA CTRA VALENCIA-ADEMUZ KM 11,700",46184,961350250,230,Hospitales especializados,MÚTUAS COLABORADORAS CON LA SEGURIDAD SOCIAL,,Sin concierto,NO
1046000421,460137,HOSPITAL QUIRONSALUD VALENCIA,COMUNIDAD VALENCIANA,VALENCIA,València,AVENIDA BLASCO IBAÑEZ 14,46010,963690600,88,Hospitales Generales,PRIVADOS,,Concierto parcial,NO
1046000423,460351,HOSPITAL UNIVERSITARIO DE LA RIBERA,COMUNIDAD VALENCIANA,VALENCIA,Alzira,CARRETERA CORBERA 1,46600,962458100;962458234,364,Hospitales Generales,SERVICIOS E INSTITUTOS DE SALUD DE LAS COMUNIDADES AUTÓNOMAS,,Sin concierto,SI
1046000556,460272,HOSPITAL DOCTOR MOLINER,COMUNIDAD VALENCIANA,VALENCIA,Serra,CALLE PORTA COELI S/N,46118,961687900;961687912,179,Hospitales de media y larga estancia,SERVICIOS E INSTITUTOS DE SALUD DE LAS COMUNIDADES AUTÓNOMAS,,Sin concierto,NO
1046000568,460082,HOSPITAL CATOLICO CASA DE SALUD,COMUNIDAD VALENCIANA,VALENCIA,València,CALLE DOCTOR MANUEL CANDELA 41,46021,963897700;963897716,192,Hospitales Generales,PRIVADOS,,Sin concierto,NO
1046000576,460369,HOSPITAL PARE JOFRE,COMUNIDAD VALENCIANA,VALENCIA,València,CALLE SAN LAZARO S/N,46017,961925200,125,Hospitales de media y larga estancia,SERVICIOS E INSTITUTOS DE SALUD DE LAS COMUNIDADES AUTÓNOMAS,,Sin concierto,NO
1046000577,460235,HOSPITAL GENERAL DE ONTINYENT,COMUNIDAD VALENCIANA,VALENCIA,Ontinyent,AVENIDA DE FRANCISCO CERDA 3,46870,962989200,56,Hospitales Generales,SERVICIOS E INSTITUTOS DE SALUD DE LAS COMUNIDADES AUTÓNOMAS,,Sin concierto,NO
1046000629,460168,HOSPITAL PSIQUIATRICO PROVINCIAL,COMUNIDAD VALENCIANA,VALENCIA,Bétera,CARRETERA BURJASSOT - TORRES TORRES KM 9,46117,961699019;961699080,80,Hospitales de salud mental y tratamiento de toxicomanías,DIPUTACIÓN O CABILDO,,Sin concierto,NO
1046000651,460039,HOSPITAL ARNAU DE VILANOVA,COMUNIDAD VALENCIANA,VALENCIA,València,CALLE SAN CLEMENTE 12,46015,961976000;961976010,282,Hospitales Generales,SERVICIOS E INSTITUTOS DE SALUD DE LAS COMUNIDADES AUTÓNOMAS,,Sin concierto,SI
1046000667,460370,HOSPITAL DE MANISES,COMUNIDAD VALENCIANA,VALENCIA,Manises,AVENIDA GENERALITAT VALENCIANA 50,46940,961845000;961845065,354,Hospitales Generales,SERVICIOS E INSTITUTOS DE SALUD DE LAS COMUNIDADES AUTÓNOMAS,,Sin concierto,SI
1046004933,460415,UNIDAD DE DESINTOXICACION HOSPITALARIA,COMUNIDAD VALENCIANA,VALENCIA,Carcaixent,CALLE CTRA. ALZIRA-TAVERNES DE V. CV50,46740,962588800,16,Otros Centros con Internamiento,PRIVADOS,,Sin concierto,NO
1046006312,460392,HOSPITAL DE LLIRIA,COMUNIDAD VALENCIANA,VALENCIA,Llíria,"PARAJE PARATGE CABEÇO DE L'AGUILA, CV 35 S/N",46160,962718800,92,Hospitales Generales,SERVICIOS E INSTITUTOS DE SALUD DE LAS COMUNIDADES AUTÓNOMAS,,Sin concierto,SI
1046008287,460404,IMED VALENCIA,COMUNIDAD VALENCIANA,VALENCIA,Burjassot,CALLE FERROCARRIL 57,46100,963003003;966878783,207,Hospitales Generales,PRIVADOS,,Concierto parcial,NO
1046009364,460437,CLINICA IMSKE,COMUNIDAD VALENCIANA,VALENCIA,València,CALLE SUIZA S/N,46024,646521270;649204566,18,Hospitales especializados,PRIVADOS,,Sin concierto,NO
1046009450,460426,CENTRO HABILITADO ERNEST LLUCH,COMUNIDAD VALENCIANA,VALENCIA,València,AVENIDA CAMPANAR 66,46015,961244226,165,Otros Centros con Internamiento,SERVICIOS E INSTITUTOS DE SALUD DE LAS COMUNIDADES AUTÓNOMAS,,Sin concierto,NO
1106000332,60021,HOSPITAL UNIVERSITARIO DE BADAJOZ,EXTREMADURA,BADAJOZ,Badajoz,AVENIDA ELVAS 0,6006,924218100,529,Hospitales Generales,SERVICIOS E INSTITUTOS DE SALUD DE LAS COMUNIDADES AUTÓNOMAS,,Sin concierto.,NO
1106000566,60037,HOSPITAL MATERNO-INFANTIL,EXTREMADURA,BADAJOZ,Badajoz,CALLE VIOLETA 1,6010,924215000,225,Hospitales especializados,SERVICIOS E INSTITUTOS DE SALUD DE LAS COMUNIDADES AUTÓNOMAS,,Sin concierto.,NO
1106000744,60297,HOSPITAL PARQUE VEGAS ALTAS,EXTREMADURA,BADAJOZ,Don Benito,AVENIDA MADRID 1,6400,924808482,21,Hospitales Generales,PRIVADOS,,Concierto parcial,SI
1106000791,60080,RIBERA SALUD INFRAESTRUCTURAS S.L.U,EXTREMADURA,BADAJOZ,Almendralejo,PASEO PIEDAD 5,6200,924670017,105,Hospitales de media y larga estancia,PRIVADOS,,Sin concierto,NO
1106000792,60093,HOSPITAL DON BENITO-VILLANUEVA DE LA SERENA,EXTREMADURA,BADAJOZ,Don Benito,CARRETERA DON BENITO VILLANUEVA 0,6400,924386800,292,Hospitales Generales,SERVICIOS E INSTITUTOS DE SALUD DE LAS COMUNIDADES AUTÓNOMAS,,Sin concierto.,NO
1106000794,60114,HOSPITAL GENERAL DE LLERENA,EXTREMADURA,BADAJOZ,Llerena,AVENIDA BADAJOZ 1,6900,924877000,138,Hospitales Generales,SERVICIOS E INSTITUTOS DE SALUD DE LAS COMUNIDADES AUTÓNOMAS,,Sin concierto.,NO
1106000795,60129,HOSPITAL DE MERIDA,EXTREMADURA,BADAJOZ,Mérida,AVENIDA DON ANTONIO CAMPOS HOYOS 26,6800,924381000,331,Hospitales Generales,SERVICIOS E INSTITUTOS DE SALUD DE LAS COMUNIDADES AUTÓNOMAS,,Sin concierto.,NO
1106000796,60135,CENTRO SOCIOSANITARIO DE MERIDA,EXTREMADURA,BADAJOZ,Mérida,CARRETERA VALVERDE 0,6800,924388081,296,Hospitales de media y larga estancia,SERVICIOS E INSTITUTOS DE SALUD DE LAS COMUNIDADES AUTÓNOMAS,,Sin concierto,NO
1106000797,60140,RIBERA SALUD-HOSPITAL SANTA JUSTA,EXTREMADURA,BADAJOZ,Villanueva de la Serena,CALLE CONCEPCION 24,6700,924845463,29,Hospitales Generales,PRIVADOS,,Sin concierto,NO
1106000798,60172,HOSPITAL QUIRONSALUD CLIDEBA,EXTREMADURA,BADAJOZ,Badajoz,CALLE ELADIO SALINERO DE LOS SANTOS 6,6011,924229050,76,Hospitales Generales,PRIVADOS,,Concierto parcial,NO
1106000801,60208,HOSPITAL DE ZAFRA,EXTREMADURA,BADAJOZ,Zafra,CARRETERA BADAJOZ GRANADA 0,6300,924029200,91,Hospitales Generales,SERVICIOS E INSTITUTOS DE SALUD DE LAS COMUNIDADES AUTÓNOMAS,,Sin concierto.,NO
1106000803,60220,HOSPITAL PERPETUO SOCORRO,EXTREMADURA,BADAJOZ,Badajoz,AVENIDA DAMIAN TELLEZ LAFUENTE 0,6010,924215060,282,Hospitales Generales,SERVICIOS E INSTITUTOS DE SALUD DE LAS COMUNIDADES AUTÓNOMAS,,Sin concierto.,NO
1106000804,60231,HOSPITAL SIBERIA-SERENA,EXTREMADURA,BADAJOZ,Talarrubias,CARRETERA TALARRUBIAS-AGUDO   KM 2 0,6640,924648100,43,Hospitales Generales,SERVICIOS E INSTITUTOS DE SALUD DE LAS COMUNIDADES AUTÓNOMAS,,Sin concierto.,NO
1106000805,60242,HOSPITAL TIERRA DE BARROS,EXTREMADURA,BADAJOZ,Almendralejo,CARRETERA NACIONAL 630 0,6200,924699200,50,Hospitales Generales,SERVICIOS E INSTITUTOS DE SALUD DE LAS COMUNIDADES AUTÓNOMAS,,Sin concierto.,NO
1106001192,60275,CASAVERDE CENTRO DE REHABILITACION NEUROLOGICO DE EXTREMADURA S.L.,EXTREMADURA,BADAJOZ,Mérida,AVENIDA ADOLFO SUAREZ 56,6800,924380330,100,Hospitales especializados,PRIVADOS,,Red de utilización pública (RUP),NO
1110000306,100015,HOSPITAL SAN PEDRO DE ALCANTARA,EXTREMADURA,CÁCERES,Cáceres,AVENIDA PABLO NARANJO PORRAS 0,10005,927256211,419,Hospitales Generales,SERVICIOS E INSTITUTOS DE SALUD DE LAS COMUNIDADES AUTÓNOMAS,,Sin concierto.,NO
1110000361,100020,HOSPITAL PROVINCIAL NUESTRA SEÑORA DE LA MONTAÑA,EXTREMADURA,CÁCERES,Cáceres,AVENIDA DE ESPAÑA 1,10004,927256800,116,Hospitales Generales,SERVICIOS E INSTITUTOS DE SALUD DE LAS COMUNIDADES AUTÓNOMAS,,Sin concierto.,NO
1110000563,100041,HOSPITAL CIUDAD DE CORIA,EXTREMADURA,CÁCERES,Coria,CALLE CERVANTES 75,10800,927149200,108,Hospitales Generales,SERVICIOS E INSTITUTOS DE SALUD DE LAS COMUNIDADES AUTÓNOMAS,,Sin concierto,NO
1110000572,100054,HOSPITAL CAMPO ARAÑUELO,EXTREMADURA,CÁCERES,Navalmoral de la Mata,CALLE TOMAS YUSTE MIRON 0,10300,927548900,99,Hospitales Generales,SERVICIOS E INSTITUTOS DE SALUD DE LAS COMUNIDADES AUTÓNOMAS,,Sin concierto,SI
1110000692,100067,HOSPITAL VIRGEN DEL PUERTO,EXTREMADURA,CÁCERES,Plasencia,FINCA VALCORCHERO 2,10600,927428328,275,Hospitales Generales,SERVICIOS E INSTITUTOS DE SALUD DE LAS COMUNIDADES AUTÓNOMAS,,Sin concierto,SI
1110000693,100073,CENTRO SOCIOSANITARIO DE PLASENCIA,EXTREMADURA,CÁCERES,Plasencia,CARRETERA CACERES 0,10600,927413100,350,Hospitales de media y larga estancia,OTROS CENTROS O ESTABLECIMIENTOS PÚBLICOS DE DEPENDENCIA AUTONÓMICA,,Sin concierto,SI
1110000695,100092,HOSPITAL QUIRONSALUD CACERES,EXTREMADURA,CÁCERES,Cáceres,AVENIDA DE LA UNIVERSIDAD 5,10004,927181360,26,Hospitales Generales,PRIVADOS,,Sin concierto,NO
1110000696,100106,CLINICA SOQUIMEX,EXTREMADURA,CÁCERES,Plasencia,AVENIDA LA SALLE 22,10600,927418484,20,Hospitales Generales,PRIVADOS,,Sin concierto,NO
1110000697,100113,CLINICA SAN FRANCISCO CLINICA QUIRURGICA CACEREÑA,EXTREMADURA,CÁCERES,Cáceres,RONDA DE SAN FRANCISCO 0,10005,927012200,33,Hospitales Generales,PRIVADOS,,Sin concierto,NO
1110001384,100115,HOSPITAL UNIVERSITARIO DE CACERES,EXTREMADURA,CÁCERES,Cáceres,AVENIDA DE LA UNIVERSIDAD 75,10004,927256364,269,Hospitales Generales,SERVICIOS E INSTITUTOS DE SALUD DE LAS COMUNIDADES AUTÓNOMAS,,Sin concierto.,NO
1215000169,150308,SANATORIO LA ROBLEDA,GALICIA,A CORUÑA,"Pino, O",LUGAR SANTISO S/N,15821,981585811,96,Hospitales de salud mental y tratamiento de toxicomanías,PRIVADOS,,Sin concierto,NO
1215000172,150011,COMPLEXO HOSPITALARIO UNIVERSITARIO A CORUÑA,GALICIA,A CORUÑA,"Coruña, A",LUGAR JUBIAS DE ARRIBA 84,15006,981178000,1341,Hospitales Generales,SERVICIOS E INSTITUTOS DE SALUD DE LAS COMUNIDADES AUTÓNOMAS,,Sin concierto,SI
1215000173,150050,CENTRO ONCOLOXICO DE GALICIA,GALICIA,A CORUÑA,"Coruña, A",CALLE DOCTOR CAMILO VEIRAS 1,15009,981287499,56,Hospitales especializados,PRIVADOS,,Concierto sustitutorio,NO
1215000174,150063,HOSPITAL QUIRONSALUD A CORUÑA,GALICIA,A CORUÑA,"Coruña, A",CALLE LONDRES 2,15009,981219800,127,Hospitales Generales,PRIVADOS,,Concierto parcial,NO
1215000175,150079,HOSPITAL SAN RAFAEL,GALICIA,A CORUÑA,"Coruña, A",LUGAR JUBIAS DE ARRIBA 82,15006,981179000,120,Hospitales Generales,PRIVADOS,,Concierto parcial,NO
1215000176,150354,HM MODELO-BELEN,GALICIA,A CORUÑA,"Coruña, A",CALLE VIRREY OSORIO 30,15011,981147300,146,Hospitales Generales,PRIVADOS,,Concierto parcial,NO
1215000177,150130,COMPLEXO HOSPITALARIO UNIVERSITARIO DE FERROL,GALICIA,A CORUÑA,Ferrol,AVENIDA RESIDENCIA S/N,15405,981334000,457,Hospitales Generales,SERVICIOS E INSTITUTOS DE SALUD DE LAS COMUNIDADES AUTÓNOMAS,,Sin concierto,SI
1215000178,150177,HOSPITAL JUAN CARDONA,GALICIA,A CORUÑA,Ferrol,CALLE PARDO BAZAN S/N,15406,981312500,150,Hospitales Generales,PRIVADOS,,Sin concierto,NO
1215000179,150200,COMPLEXO HOSPITALARIO UNIVERSITARIO DE SANTIAGO,GALICIA,A CORUÑA,Santiago de Compostela,CALLE CHOUPANA (DA) S/N,15706,981950000,1395,Hospitales Generales,SERVICIOS E INSTITUTOS DE SALUD DE LAS COMUNIDADES AUTÓNOMAS,,Sin concierto,SI
1215000181,150365,HOSPITAL HM ROSALEDA - HM LA ESPERANZA,GALICIA,A CORUÑA,Santiago de Compostela,CALLE SANTIAGO LEON DE CARACAS (DE) 1,15701,981551200;981551225,119,Hospitales Generales,PRIVADOS,,Concierto parcial,NO
1215000182,150336,HOSPITAL PUBLICO DA BARBANZA,GALICIA,A CORUÑA,Ribeira,LUGAR SALMON S/N,15993,981835985,81,Hospitales Generales,SERVICIOS E INSTITUTOS DE SALUD DE LAS COMUNIDADES AUTÓNOMAS,,Sin concierto,NO
1215000183,150341,HOSPITAL PUBLICO VIRXE DA XUNQUEIRA,GALICIA,A CORUÑA,Cee,PASEO ALCALDE PEPE SANCHEZ 7,15270,981706010,74,Hospitales Generales,SERVICIOS E INSTITUTOS DE SALUD DE LAS COMUNIDADES AUTÓNOMAS,,Sin concierto,NO
1227000093,270018,COMPLEXO HOSPITALARIO UNIVERSITARIO DE LUGO,GALICIA,LUGO,Lugo,CALLE ULISES ROMERO 1,27003,982296000,848,Hospitales Generales,SERVICIOS E INSTITUTOS DE SALUD DE LAS COMUNIDADES AUTÓNOMAS,,Sin concierto,SI
1227000094,270095,HOSPITAL PUBLICO DA MARIÑA,GALICIA,LUGO,Burela,CALLE MEDICO VIOR S/N,27880,982589901,139,Hospitales Generales,SERVICIOS E INSTITUTOS DE SALUD DE LAS COMUNIDADES AUTÓNOMAS,,Sin concierto,SI
1227000095,270109,HOSPITAL PUBLICO DE MONFORTE,GALICIA,LUGO,Monforte de Lemos,CALLE CORREDOIRA S/N,27400,982417900,140,Hospitales Generales,SERVICIOS E INSTITUTOS DE SALUD DE LAS COMUNIDADES AUTÓNOMAS,,Sin concierto,NO
1227000096,270057,HOSPITAL POLUSA,GALICIA,LUGO,Lugo,CALLE DOUTOR IGLESIAS OTERO S/N,27004,982222854,97,Hospitales Generales,PRIVADOS,,Concierto parcial,NO
1227000097,270076,SANATORIO NOSA SEÑORA DOS OLLOS GRANDES,GALICIA,LUGO,Lugo,CALLE MONTEVIDEO 23,27001,982284040,69,Hospitales Generales,PRIVADOS,,Sin concierto,NO
1232000111,320013,COMPLEXO HOSPITALARIO UNIVERSITARIO DE OURENSE,GALICIA,OURENSE,Ourense,CALLE RAMON PUGA 52,32005,988385500,869,Hospitales Generales,SERVICIOS E INSTITUTOS DE SALUD DE LAS COMUNIDADES AUTÓNOMAS,,Sin concierto,SI
1232000112,320126,HOSPITAL PUBLICO DE VALDEORRAS,GALICIA,OURENSE,"Barco de Valdeorras, O",AVENIDA CONDE DE FENOSA 50,32300,988339000,100,Hospitales Generales,SERVICIOS E INSTITUTOS DE SALUD DE LAS COMUNIDADES AUTÓNOMAS,,Sin concierto,NO
1232000113,320150,HOSPITAL PUBLICO DE VERIN,GALICIA,OURENSE,Verín,CARRETERA LAZA (DE) S/N,32600,988413636,80,Hospitales Generales,SERVICIOS E INSTITUTOS DE SALUD DE LAS COMUNIDADES AUTÓNOMAS,,Sin concierto,NO
1232000114,320087,CENTRO MEDICO EL CARMEN,GALICIA,OURENSE,Ourense,AVENIDA HABANA (DE LA) 50,32003,988223400,43,Hospitales Generales,PRIVADOS,,Concierto parcial,NO
1232000115,320163,CLINICA SANTA TERESA,GALICIA,OURENSE,Ourense,CALLE SAENZ DIEZ 11,32003,988371710,49,Hospitales Generales,PRIVADOS,,Concierto parcial,NO
1236000115,360182,HOSPITAL POVISA,GALICIA,PONTEVEDRA,Vigo,CALLE SALAMANCA 5,36211,986413144,573,Hospitales Generales,PRIVADOS,,Concierto sustitutorio,SI
1236000116,360340,COMPLEXO HOSPITALARIO UNIVERSITARIO DE PONTEVEDRA,GALICIA,PONTEVEDRA,Pontevedra,CALLE MOURENTE S/N,36071,986800000,605,Hospitales Generales,SERVICIOS E INSTITUTOS DE SALUD DE LAS COMUNIDADES AUTÓNOMAS,,Sin concierto,SI
1236000117,360059,GRUPO QUIRONSALUD PONTEVEDRA,GALICIA,PONTEVEDRA,Pontevedra,CALLE FRAY JUAN NAVARRETE 9,36001,986856800,127,Hospitales Generales,PRIVADOS,,Sin concierto,NO
1236000118,360031,HESTIA SANTA MARIA,GALICIA,PONTEVEDRA,Pontevedra,AVENIDA SANTA MARIA (DE) 9,36002,610527859;986856562,70,Otros Centros con Internamiento,PRIVADOS,,Sin concierto,NO
1236000120,360209,VITHAS HOSPITAL NOSA SEÑORA DE FATIMA,GALICIA,PONTEVEDRA,Vigo,CALLE VIA NORTE 48,36206,986821100,200,Hospitales Generales,PRIVADOS,,Concierto parcial,NO
1236000122,360268,SANATORIO PSIQUIATRICO SAN JOSE,GALICIA,PONTEVEDRA,Vigo,CALLE TOMAS A ALONSO 89,36208,986235606,48,Hospitales de salud mental y tratamiento de toxicomanías,PRIVADOS,,Sin concierto,NO
1236000123,360255,CENTRO MEDICO PINTADO,GALICIA,PONTEVEDRA,Vigo,AVENIDA HISPANIDADE 40,36203,986413300,12,Hospitales Generales,PRIVADOS,,Sin concierto,NO
1236000124,360160,"FREMAP, HOSPITAL DE VIGO",GALICIA,PONTEVEDRA,Vigo,CALLE FELICIANO ROLAN 12,36203,986413033,17,Hospitales especializados,MÚTUAS COLABORADORAS CON LA SEGURIDAD SOCIAL,,Sin concierto,NO
1236000125,360274,CLINICA RESIDENCIA EL PINAR,GALICIA,PONTEVEDRA,Vigo,CARRETERA VELLA MADRID 120,36214,986266400,84,Hospitales de salud mental y tratamiento de toxicomanías,PRIVADOS,,Red de utilización pública (RUP),NO
1236000126,360216,CONCHEIRO CENTRO MEDICO QUIRURGICO,GALICIA,PONTEVEDRA,Vigo,AVENIDA MADRID 4,36204,986413244,40,Hospitales Generales,PRIVADOS,,Concierto parcial,NO
1236000127,360353,HOSPITAL PUBLICO DO SALNES,GALICIA,PONTEVEDRA,Vilagarcía de Arousa,CALLE HOSPITAL DO SALNES 30,36619,986568000,122,Hospitales Generales,SERVICIOS E INSTITUTOS DE SALUD DE LAS COMUNIDADES AUTÓNOMAS,,Sin concierto,SI
1236000128,360368,COMPLEXO HOSPITALARIO UNIVERSITARIO DE VIGO,GALICIA,PONTEVEDRA,Vigo,CARRETERA CLARA CAMPOAMOR 341,36312,986816000,1273,Hospitales Generales,SERVICIOS E INSTITUTOS DE SALUD DE LAS COMUNIDADES AUTÓNOMAS,,Sin concierto,SI
1328000001,280856,FREMAP HOSPITAL MAJADAHONDA,MADRID,MADRID,Majadahonda,CARRETERA M-515 (POZUELO) 61,28220,917461540,116,Hospitales especializados,MÚTUAS COLABORADORAS CON LA SEGURIDAD SOCIAL,,Sin concierto,SI
1328000004,280783,CENTRO SAN JUAN DE DIOS CIEMPOZUELOS,MADRID,MADRID,Ciempozuelos,AVENIDA DE SAN JUAN DE DIOS 1,28350,918930001,339,Otros Centros con Internamiento,PRIVADOS,,Concierto parcial,SI
1328000006,280549,HOSPITAL FUENSANTA,MADRID,MADRID,Madrid,CALLE DE ARTURO SORIA 17,28027,914079295,30,Hospitales Generales,PRIVADOS,,Concierto parcial,NO
1328000007,280534,"CLINICA LA LUZ, S.L.",MADRID,MADRID,Madrid,CALLE DEL MAESTRO ANGEL LLORCA 8,28003,915530500,180,Hospitales Generales,PRIVADOS,,Concierto parcial,NO
1328000008,280604,HOSPITAL UNIVERSITARIO LA ZARZUELA,MADRID,MADRID,Madrid,CALLE DE PLEYADES 25,28023,915858000,116,Hospitales Generales,PRIVADOS,,Sin concierto,SI
1328000009,280421,HOSPITAL UNIVERSITARIO FUNDACION JIMENEZ DIAZ,MADRID,MADRID,Madrid,AVENIDA DE LOS REYES CATOLICOS 2,28040,915504800,660,Hospitales Generales,PRIVADOS,,Concierto sustitutorio,NO
1328000010,280474,HOSPITAL NUESTRA SEÑORA DE AMERICA,MADRID,MADRID,Madrid,CALLE DE ARTURO SORIA 103-105-107,28043,914130061,100,Hospitales Generales,PRIVADOS,,Concierto parcial,NO
1328000011,280626,HOSPITAL HM NUEVO BELEN,MADRID,MADRID,Madrid,CALLE DE JOSE SILVA 7,28043,917444100,60,Hospitales especializados,PRIVADOS,,Sin concierto,SI
1328000013,280552,HOSPITAL RUBER JUAN BRAVO,MADRID,MADRID,Madrid,CALLE DE JUAN BRAVO 49,28006,914026100,163,Hospitales Generales,PRIVADOS,,Concierto parcial,NO
1328000014,280468,HOSPITAL SAN CAMILO,MADRID,MADRID,Madrid,CALLE DE JUAN BRAVO 39,28006,914022100,70,Hospitales Generales,PRIVADOS,,Concierto parcial,NO
1328000015,280376,CLINICA SANTA ELENA,MADRID,MADRID,Madrid,CALLE DE LA GRANJA 8,28003,914539400,76,Hospitales Generales,PRIVADOS,,Concierto parcial,NO
1328000016,280164,HOSPITAL CARLOS III,MADRID,MADRID,Madrid,CALLE DE SINESIO DELGADO 8-10,28029,914532500,90,Otros Centros con Internamiento,SERVICIOS E INSTITUTOS DE SALUD DE LAS COMUNIDADES AUTÓNOMAS,,Sin concierto.,NO
1328000017,280035,HOSPITAL UNIVERSITARIO 12 DE OCTUBRE,MADRID,MADRID,Madrid,AVENIDA DE CORDOBA S/N,28041,913908000,1196,Hospitales Generales,SERVICIOS E INSTITUTOS DE SALUD DE LAS COMUNIDADES AUTÓNOMAS,,Sin concierto,SI
1328000018,280360,HOSPITAL BEATA MARIA ANA,MADRID,MADRID,Madrid,CALLE DEL DOCTOR ESQUERDO 83,28007,914097423,160,Hospitales Generales,PRIVADOS,,Concierto parcial,NO
1328000019,280210,HOSPITAL DE CANTOBLANCO,MADRID,MADRID,Madrid,"CARRETERA DE COLMENAR VIEJO K.14,8",28049,915867575,126,Hospitales Generales,SERVICIOS E INSTITUTOS DE SALUD DE LAS COMUNIDADES AUTÓNOMAS,,Sin concierto.,NO
1328000020,280148,"HOSPITAL CENTRAL DE LA CRUZ ROJA, SAN JOSE Y SANTA ADELA",MADRID,MADRID,Madrid,AVENIDA DE LA REINA VICTORIA 22-26,28003,914538300,154,Otros Centros con Internamiento,SERVICIOS E INSTITUTOS DE SALUD DE LAS COMUNIDADES AUTÓNOMAS,,Sin concierto,SI
1328000021,280920,HOSPITAL EL ESCORIAL,MADRID,MADRID,San Lorenzo de El Escorial,"CARRETERA DE M-600 (GUADARRAMA) KM.6,255",28200,918973000,91,Hospitales Generales,SERVICIOS E INSTITUTOS DE SALUD DE LAS COMUNIDADES AUTÓNOMAS,,Sin concierto,SI
1328000022,280761,HOSPITAL DE LA FUENFRIA,MADRID,MADRID,Cercedilla,CARRETERA DE DEHESAS S/N,28470,918520300,192,Hospitales de media y larga estancia,SERVICIOS E INSTITUTOS DE SALUD DE LAS COMUNIDADES AUTÓNOMAS,,Sin concierto,SI
1328000023,280127,HOSPITAL UNIVERSITARIO DE LA PRINCESA,MADRID,MADRID,Madrid,CALLE DE DIEGO DE LEON 62,28006,915202200,524,Hospitales Generales,SERVICIOS E INSTITUTOS DE SALUD DE LAS COMUNIDADES AUTÓNOMAS,,Sin concierto,SI
1328000024,280344,HOSPITAL DE LA V.O.T. DE SAN FRANCISCO DE ASIS,MADRID,MADRID,Madrid,CALLE DE SAN BERNABE 13,28005,913657600,72,Hospitales Generales,PRIVADOS,,Concierto parcial,NO
1328000025,280954,HOSPITAL UNIVERSITARIO HM MADRID,MADRID,MADRID,Madrid,PLAZA DEL CONDE DEL VALLE DE SUCHIL 16,28015,914476600,99,Hospitales Generales,PRIVADOS,,Concierto parcial,SI
1328000026,280894,HOSPITAL UNIVERSITARIO DE MOSTOLES,MADRID,MADRID,Móstoles,CALLE RIO JUCAR S/N,28935,916648600,332,Hospitales Generales,SERVICIOS E INSTITUTOS DE SALUD DE LAS COMUNIDADES AUTÓNOMAS,,Sin concierto,SI
1328000027,280246,HOSPITAL GENERAL UNIVERSITARIO GREGORIO MARAÑON,MADRID,MADRID,Madrid,CALLE DEL DOCTOR ESQUERDO 46,28009,915868000,1253,Hospitales Generales,SERVICIOS E INSTITUTOS DE SALUD DE LAS COMUNIDADES AUTÓNOMAS,,Sin concierto.,NO
1328000028,280133,HOSPITAL INFANTIL UNIVERSITARIO NIÑO JESUS,MADRID,MADRID,Madrid,AVENIDA DE MENENDEZ PELAYO 65,28009,915035900,170,Hospitales especializados,SERVICIOS E INSTITUTOS DE SALUD DE LAS COMUNIDADES AUTÓNOMAS,,Sin concierto,SI
1328000029,280416,FUNDACION INSTITUTO SAN JOSE,MADRID,MADRID,Madrid,CALLE DEL PINAR DE SAN JOSE 98,28054,915080140,259,Hospitales de media y larga estancia,PRIVADOS,,Concierto parcial,NO
1328000030,280565,HOSPITAL RUBER INTERNACIONAL,MADRID,MADRID,Madrid,CALLE DE LA MASO 38,28034,913875000,143,Hospitales Generales,PRIVADOS,,Concierto parcial,NO
1328000031,280014,HOSPITAL UNIVERSITARIO LA PAZ,MADRID,MADRID,Madrid,PASEO DE LA CASTELLANA 261,28046,917277000,1052,Hospitales Generales,SERVICIOS E INSTITUTOS DE SALUD DE LAS COMUNIDADES AUTÓNOMAS,,Sin concierto.,NO
1328000032,280796,HOSPITAL ASEPEYO MADRID,MADRID,MADRID,Coslada,CALLE DE JOAQUIN DE CARDENAS 2,28823,916735011,133,Hospitales especializados,MÚTUAS COLABORADORAS CON LA SEGURIDAD SOCIAL,,Sin concierto,SI
1328000033,280800,HOSPITAL DE GUADARRAMA,MADRID,MADRID,Guadarrama,PASEO MOLINO DEL REY 2,28440,918562000,144,Hospitales de media y larga estancia,SERVICIOS E INSTITUTOS DE SALUD DE LAS COMUNIDADES AUTÓNOMAS,,Sin concierto,NO
1328000034,280745,HOSPITAL UNIVERSITARIO PRINCIPE DE ASTURIAS,MADRID,MADRID,Alcalá de Henares,CARRETERA DE MECO S/N,28805,918878100,507,Hospitales Generales,SERVICIOS E INSTITUTOS DE SALUD DE LAS COMUNIDADES AUTÓNOMAS,,Sin concierto,SI
1328000035,280936,HOSPITAL VIRGEN DE LA POVEDA,MADRID,MADRID,Villa del Prado,CARRETERA M-952 (ACCESO AL HOSPITAL) KM.5,28630,918608000,202,Hospitales de media y larga estancia,SERVICIOS E INSTITUTOS DE SALUD DE LAS COMUNIDADES AUTÓNOMAS,,Sin concierto,NO
1328000036,280262,HOSPITAL PSIQUIATRICO DOCTOR RODRIGUEZ LAFORA,MADRID,MADRID,Madrid,"CARRETERA DE COLMENAR VIEJO K.13,8",28049,915867500,334,Hospitales de salud mental y tratamiento de toxicomanías,SERVICIOS E INSTITUTOS DE SALUD DE LAS COMUNIDADES AUTÓNOMAS,,Sin concierto,SI
1328000037,280777,COMPLEJO ASISTENCIAL BENITO MENNI,MADRID,MADRID,Ciempozuelos,CALLE DE LOS JARDINES 1,28350,918930150,318,Hospitales de salud mental y tratamiento de toxicomanías,PRIVADOS,,Concierto parcial,NO
1328000039,280029,HOSPITAL UNIVERSITARIO RAMON Y CAJAL,MADRID,MADRID,Madrid,"CARRETERA DE COLMENAR VIEJO KM.9,1",28034,913368000,901,Hospitales Generales,SERVICIOS E INSTITUTOS DE SALUD DE LAS COMUNIDADES AUTÓNOMAS,,Sin concierto,SI
1328000040,280339,HOSPITAL SAN RAFAEL,MADRID,MADRID,Madrid,CALLE DE SERRANO 199,28016,915649943,188,Hospitales Generales,PRIVADOS,,Concierto parcial,NO
1328000041,280112,HOSPITAL UNIVERSITARIO SANTA CRISTINA,MADRID,MADRID,Madrid,CALLE DE O'DONNELL 59,28009,915574300,156,Hospitales Generales,SERVICIOS E INSTITUTOS DE SALUD DE LAS COMUNIDADES AUTÓNOMAS,,Sin concierto,NO
1328000042,280838,HOSPITAL UNIVERSITARIO SEVERO OCHOA,MADRID,MADRID,Leganés,AVENIDA ORELLANA S/N,28911,914818000,386,Hospitales Generales,SERVICIOS E INSTITUTOS DE SALUD DE LAS COMUNIDADES AUTÓNOMAS,,Sin concierto,SI
1328000043,280072,HOSPITAL UNIVERSITARIO CLINICO SAN CARLOS,MADRID,MADRID,Madrid,CALLE DEL PROFESOR MARTIN LAGOS S/N,28040,913303000,861,Hospitales Generales,SERVICIOS E INSTITUTOS DE SALUD DE LAS COMUNIDADES AUTÓNOMAS,,Sin concierto,SI
1328000044,280091,HOSPITAL VIRGEN DE LA TORRE,MADRID,MADRID,Madrid,CALLE DEL PUERTO DE LUMBRERAS 5,28031,913315814,92,Hospitales de media y larga estancia,SERVICIOS E INSTITUTOS DE SALUD DE LAS COMUNIDADES AUTÓNOMAS,,Sin concierto.,NO
1328000046,280650,CLINICA LOPEZ IBOR,MADRID,MADRID,Madrid,CALLE DEL DOCTOR JUAN JOSE LOPEZ IBOR 2,28035,913162740,67,Hospitales de salud mental y tratamiento de toxicomanías,PRIVADOS,,Sin concierto,NO
1328000048,280259,INSTITUTO PROVINCIAL DE REHABILITACION,MADRID,MADRID,Madrid,CALLE DE FRANCISCO SILVELA 40,28028,915868967,96,Hospitales especializados,SERVICIOS E INSTITUTOS DE SALUD DE LAS COMUNIDADES AUTÓNOMAS,,Sin concierto.,NO
1328000049,280843,INSTITUTO PSIQUIATRICO SERVICIOS DE SALUD MENTAL JOSE GERMAIN - 1 LUNA,MADRID,MADRID,Leganés,CALLE LUNA 1,28911,915856500,42,Hospitales de salud mental y tratamiento de toxicomanías,SERVICIOS E INSTITUTOS DE SALUD DE LAS COMUNIDADES AUTÓNOMAS,,Sin concierto.,NO
1328000050,280409,CLINICA NUESTRA SEÑORA DE LA PAZ,MADRID,MADRID,Madrid,CALLE DE LOPEZ DE HOYOS 259,28043,914156000,99,Hospitales de salud mental y tratamiento de toxicomanías,PRIVADOS,,Concierto parcial,SI
1328000051,280395,CLINICA SAN MIGUEL,MADRID,MADRID,Madrid,CALLE DE ARTURO SORIA 204,28043,914135011,94,Hospitales de salud mental y tratamiento de toxicomanías,PRIVADOS,,Concierto parcial,NO
1328000052,280679,"SANATORIO ESQUERDO, S.A.",MADRID,MADRID,Madrid,AVENIDA DE LOS POBLADOS 70,28044,917061100,115,Hospitales de salud mental y tratamiento de toxicomanías,PRIVADOS,,Sin concierto,NO
1328000053,280587,HOSPITAL LA MILAGROSA S.A.,MADRID,MADRID,Madrid,CALLE DE MODESTO LAFUENTE 14,28010,914472100,171,Hospitales Generales,PRIVADOS,,Concierto parcial,NO
1328000054,280647,CLINICA DR. LEON,MADRID,MADRID,Madrid,PLAZA DE MARIANO DE CAVIA 3,28007,914332948,96,Hospitales de salud mental y tratamiento de toxicomanías,PRIVADOS,,Sin concierto,NO
1328000056,280528,"HOSPITAL UNIVERSITARIO VIRGEN DE LA PALOMA, S.L.",MADRID,MADRID,Madrid,CALLE DE LA LOMA 1,28003,915348207,92,Hospitales Generales,PRIVADOS,,Sin concierto,NO
1328000057,280323,SANATORIO NUESTRA SEÑORA DEL ROSARIO,MADRID,MADRID,Madrid,CALLE DEL PRINCIPE DE VERGARA 53,28006,914359100,176,Hospitales Generales,PRIVADOS,,Sin concierto,NO
1328000058,280442,HOSPITAL VIRGEN DEL MAR,MADRID,MADRID,Madrid,CALLE DE HONDURAS 14,28016,913539500,76,Hospitales Generales,PRIVADOS,,Sin concierto,NO
1328000059,280382,HOSPITAL SAN FRANCISCO DE ASIS,MADRID,MADRID,Madrid,CALLE DE JOAQUIN COSTA 28,28002,915630360,168,Hospitales Generales,PRIVADOS,,Concierto parcial,NO
1328000060,280357,HOSPITAL QUIRONSALUD SAN JOSE,MADRID,MADRID,Madrid,CALLE DE CARTAGENA 111,28002,914153100,84,Hospitales Generales,PRIVADOS,,Concierto parcial,NO
1328000061,280455,CLINICA SEAR,MADRID,MADRID,Madrid,CARRETERA DE COLMENAR VIEJO KM.16,28049,917340500,250,Hospitales de media y larga estancia,PRIVADOS,,Red de utilización pública (RUP),NO
1328000062,280989,HOSPITAL UNIVERSITARIO DE GETAFE,MADRID,MADRID,Getafe,"CARRETERA DE MADRID-TOLEDO KM.12,500",28905,916839360,510,Hospitales Generales,SERVICIOS E INSTITUTOS DE SALUD DE LAS COMUNIDADES AUTÓNOMAS,,Sin concierto,SI
1328000063,281034,CLINICA ISADORA S.A.,MADRID,MADRID,Madrid,CALLE DE LOS PIRINEOS 7,28040,913111000,19,Otros Centros con Internamiento,PRIVADOS,,Concierto parcial,NO
1328000064,281049,HOSPITAL HLA UNIVERSITARIO MONCLOA,MADRID,MADRID,Madrid,AVENIDA DE VALLADOLID 83,28008,915954500,235,Hospitales Generales,PRIVADOS,,Concierto parcial,NO
1328000065,281087,CLINICA CEMTRO,MADRID,MADRID,Madrid,AVENIDA DEL VENTISQUERO DE LA CONDESA 42,28035,917355757,94,Hospitales Generales,PRIVADOS,,Sin concierto,NO
1328000066,281071,HOSPITAL UNIVERSITARIO FUNDACION ALCORCON,MADRID,MADRID,Alcorcón,CALLE BUDAPEST 1,28922,916219400,400,Hospitales Generales,SERVICIOS E INSTITUTOS DE SALUD DE LAS COMUNIDADES AUTÓNOMAS,,Sin concierto,SI
1328000067,281090,HOSPITAL UNIVERSITARIO HM MONTEPRINCIPE,MADRID,MADRID,Boadilla del Monte,AVENIDA DE MONTEPRINCIPE 25,28660,917089900,170,Hospitales Generales,PRIVADOS,,Concierto parcial,SI
1328000069,281113,HOSPITAL MD ANDERSON CANCER CENTER MADRID,MADRID,MADRID,Madrid,CALLE DE GOMEZ HEMANS 2,28033,913834980,99,Hospitales especializados,PRIVADOS,,Concierto parcial,NO
1328000070,281124,HOSPITAL QUIRONSALUD SUR,MADRID,MADRID,Alcorcón,CALLE DE ESTAMBUL 30,28922,917810682,81,Hospitales Generales,PRIVADOS,,Concierto parcial,NO
1328000071,281146,HOSPITAL UNIVERSITARIO DE FUENLABRADA,MADRID,MADRID,Fuenlabrada,CAMINO DEL MOLINO 2,28942,916006000,406,Hospitales Generales,SERVICIOS E INSTITUTOS DE SALUD DE LAS COMUNIDADES AUTÓNOMAS,,Sin concierto,SI
1328000072,281157,HOSPITAL UNIVERSITARIO HM TORRELODONES,MADRID,MADRID,Torrelodones,AVENIDA CASTILLO DE OLIVARES S/N,28250,912675000,86,Hospitales Generales,PRIVADOS,,Concierto parcial,SI
1328000073,281180,HOSPITAL LOS MADROÑOS,MADRID,MADRID,Brunete,"CARRETERA DE M-501 (DE ALCORCON A PLASENCIA) KM.17,900",28690,918163526,53,Hospitales Generales,PRIVADOS,,Concierto parcial,NO
1328000074,281179,HOSPITAL UNIVERSITARIO LA MORALEJA,MADRID,MADRID,Madrid,AVENIDA DE FRANCISCO PI Y MARGALL 81,28050,913244805,126,Hospitales Generales,PRIVADOS,,Sin concierto,SI
1328000076,281203,HOSPITAL UNIVERSITARIO QUIRONSALUD MADRID,MADRID,MADRID,Pozuelo de Alarcón,CALLE DIEGO DE VELAZQUEZ 1,28223,917992380,280,Hospitales Generales,PRIVADOS,,Concierto parcial,SI
1328000077,281247,HOSPITAL PARDO DE ARAVACA,MADRID,MADRID,Madrid,CALLE DE LA SALLE 12,28023,917402682,98,Hospitales Generales,PRIVADOS,,Concierto parcial,NO
1328000078,281225,HOSPITAL UNIVERSITARIO HM SANCHINARRO,MADRID,MADRID,Madrid,CALLE DE OÑA 10,28050,917567800,198,Hospitales Generales,PRIVADOS,,Concierto parcial,SI
1328000079,281214,HOSPITAL CENTRO DE CUIDADOS LAGUNA,MADRID,MADRID,Madrid,CALLE DEL CONCEJAL FRANCISCO JOSE JIMENEZ MARTIN 128,28047,914010708,47,Hospitales de media y larga estancia,PRIVADOS,,Concierto parcial,NO
1328000080,281236,HOSPITAL UNIVERSITARIO INFANTA ELENA,MADRID,MADRID,Valdemoro,AVENIDA REYES CATOLICOS 21,28342,918948410,158,Hospitales Generales,SERVICIOS E INSTITUTOS DE SALUD DE LAS COMUNIDADES AUTÓNOMAS,,Sin concierto,SI
1328000081,281269,EMPRESA PUBLICA HOSPITAL DEL HENARES,MADRID,MADRID,Coslada,AVENIDA MARIE CURIE S/N,28822,911912000,243,Hospitales Generales,SERVICIOS E INSTITUTOS DE SALUD DE LAS COMUNIDADES AUTÓNOMAS,,Sin concierto,SI
1328000082,281258,HOSPITAL UNIVERSITARIO INFANTA SOFIA,MADRID,MADRID,San Sebastián de los Reyes,PASEO EUROPA 34,28702,911914000,271,Hospitales Generales,SERVICIOS E INSTITUTOS DE SALUD DE LAS COMUNIDADES AUTÓNOMAS,,Sin concierto,SI
1328000083,281304,EMPRESA PUBLICA HOSPITAL DEL SUR HOSPITAL INFANTA CRISTINA,MADRID,MADRID,Madrid,PASEO CASTELLANA 83,28046,911913000,188,Hospitales Generales,SERVICIOS E INSTITUTOS DE SALUD DE LAS COMUNIDADES AUTÓNOMAS,,Sin concierto,SI
1328000084,281292,HOSPITAL DEL TAJO S.A.,MADRID,MADRID,Aranjuez,AVENIDA AMAZONAS CENTRAL S/N,28300,918014100,99,Hospitales Generales,SERVICIOS E INSTITUTOS DE SALUD DE LAS COMUNIDADES AUTÓNOMAS,,Sin concierto,SI
1328000085,281281,HOSPITAL UNIVERSITARIO DEL SURESTE - EMPRESA PUBLICA HOSPTIAL DEL SURESTE,MADRID,MADRID,Arganda del Rey,RONDA DEL SUR 10,28500,918394000,132,Hospitales Generales,SERVICIOS E INSTITUTOS DE SALUD DE LAS COMUNIDADES AUTÓNOMAS,,Sin concierto,SI
1328000086,281270,HOSPITAL UNIVERSITARIO INFANTA LEONOR,MADRID,MADRID,Madrid,AVENIDA DE LA GRAN VIA DEL ESTE 80,28031,911918000,269,Hospitales Generales,SERVICIOS E INSTITUTOS DE SALUD DE LAS COMUNIDADES AUTÓNOMAS,,Sin concierto.,NO
1328000087,281315,HOSPITAL UNIVERSITARIO PUERTA DE HIERRO MAJADAHONDA,MADRID,MADRID,Majadahonda,CALLE MANUEL DE FALLA 1,28222,911916000,613,Hospitales Generales,SERVICIOS E INSTITUTOS DE SALUD DE LAS COMUNIDADES AUTÓNOMAS,,Sin concierto,SI
1328000088,281326,"CASTA SALUD, S.L.U.",MADRID,MADRID,Guadarrama,"CARRETERA DE LA CORUÑA KM.50,300",28440,915949500,144,Hospitales de salud mental y tratamiento de toxicomanías,PRIVADOS,,Concierto parcial,NO
1328000089,281337,HOSPITAL UNIVERSITARIO DE TORREJON,MADRID,MADRID,Torrejón de Ardoz,CALLE MATEO INURRIA 1,28850,000000000,250,Hospitales Generales,SERVICIOS E INSTITUTOS DE SALUD DE LAS COMUNIDADES AUTÓNOMAS,,Sin concierto,SI
1328000090,281348,HOSPITAL UNIVERSITARIO REY JUAN CARLOS,MADRID,MADRID,Móstoles,CALLE GLADIOLO S/N,28933,000000000,364,Hospitales Generales,SERVICIOS E INSTITUTOS DE SALUD DE LAS COMUNIDADES AUTÓNOMAS,,Sin concierto,SI
1328016665,281359,HOSPITAL GENERAL DE VILLALBA,MADRID,MADRID,Collado Villalba,"CARRETERA DE ALPEDRETE M-608, KM. 41",28400,000000000,209,Hospitales Generales,SERVICIOS E INSTITUTOS DE SALUD DE LAS COMUNIDADES AUTÓNOMAS,,Sin concierto,NO
1328016888,281360,HOSPITAL UNIVERSITARIO HM PUERTA DEL SUR,MADRID,MADRID,Móstoles,AVENIDA DE CARLOS V 70,28938,000000000,182,Hospitales Generales,PRIVADOS,,Concierto parcial,SI
1328017532,281382,HOSPITAL CASAVERDE MADRID,MADRID,MADRID,Navalcarnero,CALLE DON JOSE MARIA LOPEZ MALLA 3,28600,000000000,100,Hospitales de media y larga estancia,PRIVADOS,,Sin concierto,NO
1328019438,280724,HOSPITAL CENTRAL DE LA DEFENSA EN MADRID,MADRID,MADRID,Madrid,GLORIETA DEL EJERCITO S/N S/N,28047,914222000,500,Hospitales Generales,MINISTERIO DE DEFENSA,,Concierto sustitutorio,SI
1328020032,281393,CLINICA UNIVERSIDAD DE NAVARRA,MADRID,MADRID,Madrid,CALLE DEL MARQUESADO DE SANTA MARTA 1,28022,000000000,72,Hospitales Generales,PRIVADOS,,Sin concierto,NO
1328020928,281416,CLINICA SAN VICENTE,MADRID,MADRID,Madrid,AVENIDA DEL VENTISQUERO DE LA CONDESA 46,28035,000000000,45,Hospitales de media y larga estancia,PRIVADOS,,Concierto parcial,NO
1328020932,281371,HOSPITAL HM VALLES,MADRID,MADRID,Alcalá de Henares,CALLE SANTIAGO 14,28801,918883262,20,Otros Centros con Internamiento,PRIVADOS,,Concierto parcial,SI
1328020933,281438,INSTITUTO PSIQUIATRICO SERVICIOS DE SALUD MENTAL JOSE GERMAIN - 2 ARAGON,MADRID,MADRID,Leganés,CALLE ARAGON 17,28913,000000000,136,Hospitales de salud mental y tratamiento de toxicomanías,SERVICIOS E INSTITUTOS DE SALUD DE LAS COMUNIDADES AUTÓNOMAS,,Sin concierto.,NO
1328021504,281383,"FRATERNIDAD MUPRESPA, MUTUA COLABORADORA CON LA SEGURIDAD SOCIAL Nº 275",MADRID,MADRID,Madrid,PASEO DE LA HABANA 83,28036,000000000,50,Hospitales especializados,MÚTUAS COLABORADORAS CON LA SEGURIDAD SOCIAL,,Sin concierto,SI
1328022274,281385,"ITA CLINIC BCN, S.L.",MADRID,MADRID,Alcalá de Henares,CALLE FAUSTO ELHUYAR 9,28806,000000000,74,Otros Centros con Internamiento,PRIVADOS,,Sin concierto,NO
1328023076,281445,SERVICIO MADRILEÑO DE SALUD,MADRID,MADRID,Madrid,AVENIDA DE MANUEL FRAGA IRIBARNE 2,28055,000000000,1008,Otros Centros con Internamiento,SERVICIOS E INSTITUTOS DE SALUD DE LAS COMUNIDADES AUTÓNOMAS,,Sin concierto,NO
1430000001,300177,HOSPITAL NTRA. SRA. DEL PERPETUO SOCORRO,MURCIA,MURCIA,Cartagena,CALLE SEBASTIAN FERINGAN 12,30205,968510500,214,Otros Centros con Internamiento,PRIVADOS,,Concierto parcial,NO
1430000002,300294,HOSPITAL DE MOLINA,MURCIA,MURCIA,Molina de Segura,CALLE ASOCIACION S/N,30500,968644030,83,Otros Centros con Internamiento,PRIVADOS,,Concierto parcial,NO
1430000003,300085,HOSPITAL MESA DEL CASTILLO,MURCIA,MURCIA,Murcia,RONDA SUR 20,30010,968246116,76,Otros Centros con Internamiento,PRIVADOS,,Concierto parcial,NO
1430000004,300317,CLINICA SAN FELIPE DEL MEDITERRANEO,MURCIA,MURCIA,Murcia,FINCA EL MAYAYO 16,30120,968889096,62,Hospitales de salud mental y tratamiento de toxicomanías,PRIVADOS,,Concierto parcial,NO
1430000005,300026,HOSPITAL GENERAL UNIVERSITARIO REINA SOFIA,MURCIA,MURCIA,Murcia,AVENIDA INTENDENTE JORGE PALACIOS 1,30003,968359000,339,Hospitales Generales,SERVICIOS E INSTITUTOS DE SALUD DE LAS COMUNIDADES AUTÓNOMAS,,Sin concierto,SI
1430000007,300339,HOSPITAL DE CUIDADOS MEDIOS VILLADEMAR,MURCIA,MURCIA,San Pedro del Pinatar,AVENIDA CONCEJAL MARIANO HENAREJOS 13,30740,968187346,99,Hospitales de media y larga estancia,PRIVADOS,,Concierto parcial,NO
1430000009,300340,RESIDENCIA LOS ALMENDROS,MURCIA,MURCIA,Cartagena,PARAJE LOS PINOS S/N,30396,968537261,60,Hospitales de media y larga estancia,PRIVADOS,,Concierto parcial,NO
1430000036,300362,HOSPITAL GENERAL UNIVERSITARIO SANTA LUCIA,MURCIA,MURCIA,Cartagena,CALLE MEZQUITA (PARAJE LOS ARCOS) S/N,30202,968128600,603,Hospitales Generales,SERVICIOS E INSTITUTOS DE SALUD DE LAS COMUNIDADES AUTÓNOMAS,,Sin concierto.,NO
1430000047,300222,HOSPITAL GENERAL UNIVERSITARIO LOS ARCOS DEL MAR MENOR,MURCIA,MURCIA,San Javier,PARAJE TORRE OCTAVIO S/N,30739,968565000,255,Hospitales Generales,SERVICIOS E INSTITUTOS DE SALUD DE LAS COMUNIDADES AUTÓNOMAS,,Sin concierto,SI
1430000051,300269,HOSPITAL G. UNIVERSITARIO J.M. MORALES MESEGUER,MURCIA,MURCIA,Murcia,AVENIDA MARQUES DE  LOS VELEZ 0,30008,968240601,394,Hospitales Generales,SERVICIOS E INSTITUTOS DE SALUD DE LAS COMUNIDADES AUTÓNOMAS,,Sin concierto,SI
1430000053,300079,HOSPITAL LA VEGA GRUPO HLA,MURCIA,MURCIA,Murcia,CALLE DOCTOR ROMAN ALBERCA S/N,30008,968278100,123,Hospitales Generales,PRIVADOS,,Concierto parcial,NO
1430000054,300161,SANTO Y REAL HOSPITAL DE CARIDAD,MURCIA,MURCIA,Cartagena,CAMINO BARRIO PERAL S/N,30310,968510300,154,Hospitales de media y larga estancia,PRIVADOS,,Concierto parcial,NO
1430000055,300050,HOSPITAL QUIRONSALUD MURCIA,MURCIA,MURCIA,Murcia,CALLE MIGUEL HERNANDEZ 12,30011,968365000,131,Hospitales Generales,PRIVADOS,,Concierto parcial,NO
1430000056,300098,SANATORIO DR. MUÑOZ,MURCIA,MURCIA,Murcia,CARRETERA CARTAGENA 59,30120,968885550,50,Hospitales de salud mental y tratamiento de toxicomanías,PRIVADOS,,Sin concierto,NO
1430000057,300275,HOSPITAL  IBERMUTUAMUR - PATOLOGIA LABORAL,MURCIA,MURCIA,Murcia,CALLE ANTONIO ROCAMORA 4,30100,968394000,26,Hospitales especializados,MÚTUAS COLABORADORAS CON LA SEGURIDAD SOCIAL,,Sin concierto,NO
1430000058,300281,HOSPITAL DE LA VEGA LORENZO GUIRAO,MURCIA,MURCIA,Cieza,CARRETERA DE ABARAN S/N,30530,968775550,124,Hospitales Generales,SERVICIOS E INSTITUTOS DE SALUD DE LAS COMUNIDADES AUTÓNOMAS,,Sin concierto,SI
1430000059,300243,HOSPITAL VIRGEN DEL CASTILLO,MURCIA,MURCIA,Yecla,AVENIDA DE LA FERIA S/N,30510,968719804,96,Hospitales Generales,SERVICIOS E INSTITUTOS DE SALUD DE LAS COMUNIDADES AUTÓNOMAS,,Sin concierto,SI
1430000060,300011,HOSPITAL CLINICO UNIVERSITARIO VIRGEN DE LA ARRIXACA,MURCIA,MURCIA,Murcia,CARRETERA MADRID-CARTAGENA S/N,30120,968369500,920,Hospitales Generales,SERVICIOS E INSTITUTOS DE SALUD DE LAS COMUNIDADES AUTÓNOMAS,,Sin concierto,SI
1430000061,300124,HOSPITAL COMARCAL DEL NOROESTE,MURCIA,MURCIA,Caravaca de la Cruz,AVENIDA MIGUEL ESPINOSA S/N,30400,968709100,103,Hospitales Generales,SERVICIOS E INSTITUTOS DE SALUD DE LAS COMUNIDADES AUTÓNOMAS,,Sin concierto,SI
1430000062,300145,HOSPITAL SANTA MARIA DEL ROSELL,MURCIA,MURCIA,Cartagena,PASEO ALFONSO  XIII 61,30203,968504800,41,Hospitales Generales,SERVICIOS E INSTITUTOS DE SALUD DE LAS COMUNIDADES AUTÓNOMAS,,Sin concierto.,NO
1430000063,300256,HOSPITAL RAFAEL MENDEZ,MURCIA,MURCIA,Lorca,"CARRETERA NACIONAL 340, KM 589 S/N",30817,968445500,287,Hospitales Generales,SERVICIOS E INSTITUTOS DE SALUD DE LAS COMUNIDADES AUTÓNOMAS,,Sin concierto,SI
1430000064,300217,HOSPITAL VIRGEN DEL ALCAZAR DE LORCA,MURCIA,MURCIA,Lorca,ALAMEDA DE LOS TRISTES S/N,30800,968468600,175,Otros Centros con Internamiento,PRIVADOS,,Concierto parcial,NO
1430000065,300119,CLINICA MEDICO-QUIRURGICA SAN JOSE,MURCIA,MURCIA,Alcantarilla,CALLE MAESTRA LOLA MESEGUER S/N,30820,968800600,139,Otros Centros con Internamiento,PRIVADOS,,Concierto parcial,NO
1430000066,300196,FUNDACION HOSPITAL REAL PIEDAD,MURCIA,MURCIA,Cehegín,PLAZA MESONCICO 3,30430,968741156,40,Hospitales de media y larga estancia,PRIVADOS,,Concierto parcial,NO
1430000067,300032,HOSPITAL PSIQUIATRICO ROMAN ALBERCA,MURCIA,MURCIA,Murcia,CALLE LORCA 58,30120,968365800,96,Hospitales de salud mental y tratamiento de toxicomanías,SERVICIOS E INSTITUTOS DE SALUD DE LAS COMUNIDADES AUTÓNOMAS,,Sin concierto,SI
1430000068,300130,CLINICA DOCTOR BERNAL,MURCIA,MURCIA,Caravaca de la Cruz,CALLE DOCTOR ROBLES S/N,30400,968705541,39,Otros Centros con Internamiento,PRIVADOS,,Concierto parcial,NO
1430000348,300384,HOSPITAL C. M. VIRGEN DE LA CARIDAD CARTAGENA,MURCIA,MURCIA,Cartagena,CALLE JORGE JUAN 30,30205,968506666,40,Otros Centros con Internamiento,PRIVADOS,,Concierto parcial,NO
1430002216,300373,HOSPITAL PERPETUO SOCORRO ALAMEDA,MURCIA,MURCIA,Cartagena,CALLE ALAMEDA  SAN ANTON 6,30205,968510500,93,Otros Centros con Internamiento,PRIVADOS,,Concierto parcial,NO
1531000729,310137,HOSPITAL REINA SOFIA,NAVARRA,NAVARRA,Tudela,CARRETERA TARAZONA KM. 3 -,31500,848434000,192,Hospitales Generales,SERVICIOS E INSTITUTOS DE SALUD DE LAS COMUNIDADES AUTÓNOMAS,,Sin concierto,SI
1531000730,310121,HOSPITAL GARCIA ORCOYEN,NAVARRA,NAVARRA,Estella-Lizarra,CALLE SANTA SORIA 22 -,31200,848435000,93,Hospitales Generales,SERVICIOS E INSTITUTOS DE SALUD DE LAS COMUNIDADES AUTÓNOMAS,,Sin concierto,NO
1531000733,310060,CLINICA UNIVERSIDAD DE NAVARRA,NAVARRA,NAVARRA,Pamplona/Iruña,AVENIDA PIO XII 36 -,31008,948255400,230,Hospitales Generales,PRIVADOS,,Concierto parcial,SI
1531000734,310109,CENTRO HOSPITALARIO BENITO MENNI,NAVARRA,NAVARRA,Baztan,CALLE MENDINUETA S/N -,31700,948452162,154,Hospitales de salud mental y tratamiento de toxicomanías,PRIVADOS,,Concierto parcial,NO
1531000736,310057,CLINICA PSIQUIATRICA PADRE MENNI,NAVARRA,NAVARRA,Pamplona/Iruña,CALLE JOAQUIN BEUNZA 45 -,31014,948140611,234,Hospitales de salud mental y tratamiento de toxicomanías,PRIVADOS,,Concierto parcial,NO
1531000737,310044,HOSPITAL SAN JUAN DE DIOS,NAVARRA,NAVARRA,Pamplona/Iruña,CALLE BELOSO ALTO 3 -,31006,948231800,230,Hospitales Generales,PRIVADOS,,Sin concierto,NO
1531000738,310076,CLINICA SAN MIGUEL - PAMPLONA,NAVARRA,NAVARRA,Pamplona/Iruña,CALLE BELOSO ALTO. 32 -,31006,948296000,72,Hospitales Generales,PRIVADOS,,Concierto parcial,NO
1531000739,310039,CENTRO SAN FRANCISCO JAVIER,NAVARRA,NAVARRA,Pamplona/Iruña,AVENIDA VILLAVA 53 -,31015,948422730,28,Hospitales de salud mental y tratamiento de toxicomanías,SERVICIOS E INSTITUTOS DE SALUD DE LAS COMUNIDADES AUTÓNOMAS,,Sin concierto,NO
1531000740,310142,CLINICA PSICOGERIATRICA JOSEFINA ARREGUI,NAVARRA,NAVARRA,Altsasu/Alsasua,CALLE ERBURU S/N -,31800,948563850,21,Hospitales especializados,PRIVADOS,,Sin concierto,NO
1531002230,310150,COMPLEJO HOSPITALARIO DE NAVARRA,NAVARRA,NAVARRA,Pamplona/Iruña,CALLE IRUNLARREA 3 -,31008,848422222,1077,Hospitales Generales,SERVICIOS E INSTITUTOS DE SALUD DE LAS COMUNIDADES AUTÓNOMAS,,Sin concierto,SI
1601000003,10040,HOSPITAL SAN JOSE,PAÍS VASCO,ÁLAVA,Vitoria-Gasteiz,"CALLE BEATO TOMAS DE ZUMARRAGA, CALLE/KALEA 10",1008,945140900,68,Hospitales Generales,PRIVADOS,,Concierto parcial,NO
1601000004,10053,HOSPITAL QUIRONSALUD VITORIA,PAÍS VASCO,ÁLAVA,Vitoria-Gasteiz,CALLE ESPERANZA (LA) 3,1002,945252500,26,Hospitales Generales,PRIVADOS,,Concierto parcial,NO
1601000005,10066,HOSPITAL DE CUIDADOS SAN ONOFRE SL,PAÍS VASCO,ÁLAVA,Vitoria-Gasteiz,CALLE SALVATIERRABIDE 9,1007,674342402;945142100,92,Hospitales de media y larga estancia,PRIVADOS,,Concierto parcial,NO
1601000006,10088,HOSPITAL DE LEZA,PAÍS VASCO,ÁLAVA,Laguardia,CALLE VITORIA-LOGROÑO KM. 59 (ER/CR) S/N,1309,945006900,63,Hospitales de media y larga estancia,SERVICIOS E INSTITUTOS DE SALUD DE LAS COMUNIDADES AUTÓNOMAS,,Sin concierto,NO
1601000007,10035,RED DE SALUD MENTAL DE ARABA (HOSPITAL PSIQUIATRICO DE ARABA),PAÍS VASCO,ÁLAVA,Vitoria-Gasteiz,CALLE ALAVA 43,1006,945006555,175,Hospitales de salud mental y tratamiento de toxicomanías,SERVICIOS E INSTITUTOS DE SALUD DE LAS COMUNIDADES AUTÓNOMAS,,Sin concierto,SI
1601000510,10090,HOSPITAL UNIVERSITARIO ARABA (SEDE TXAGORRITXU Y SEDE SANTIAGO),PAÍS VASCO,ÁLAVA,Vitoria-Gasteiz,"CALLE JOSE ACHOTEGUI, CALLE/KALEA S/N",1009,945007000;945007007,806,Hospitales Generales,SERVICIOS E INSTITUTOS DE SALUD DE LAS COMUNIDADES AUTÓNOMAS,,Sin concierto,SI
1620000001,200049,MUTUALIA CLINICA PAKEA,PAÍS VASCO,GUIPÚZCOA,Donostia/San Sebastián,CALLE PASEO DE ARRIOLA 26,20018,902540250;943212600,19,Hospitales especializados,MÚTUAS COLABORADORAS CON LA SEGURIDAD SOCIAL,,Sin concierto,NO
1620000002,200104,POLICLINICA GIPUZKOA,PAÍS VASCO,GUIPÚZCOA,Donostia/San Sebastián,PASEO PASEO DE MIRAMON 174,20009,943002800;943309550,149,Hospitales Generales,PRIVADOS,,Concierto parcial,NO
1620000005,200163,HOSPITAL BIDASOA (OSI BIDASOA),PAÍS VASCO,GUIPÚZCOA,Hondarribia,"CALLE FINCA ZUBIETA, BARRIO MENDELU S/N",20280,943007702;943007703,96,Hospitales Generales,SERVICIOS E INSTITUTOS DE SALUD DE LAS COMUNIDADES AUTÓNOMAS,,Sin concierto,SI
1620000006,200258,HOSPITAL DE MENDARO (OSI BAJO DEBA),PAÍS VASCO,GUIPÚZCOA,Mendaro,CALLE MENDAROZABAL S/N,20850,943032800,111,Hospitales Generales,SERVICIOS E INSTITUTOS DE SALUD DE LAS COMUNIDADES AUTÓNOMAS,,Sin concierto,NO
1620000007,200185,ORGANIZACION SANITARIA INTEGRADA DEBAGOIENA,PAÍS VASCO,GUIPÚZCOA,Arrasate/Mondragón,"AVENIDA NAFARROA, AVENIDA/ETORBIDEA 16",20500,943035300,95,Hospitales Generales,SERVICIOS E INSTITUTOS DE SALUD DE LAS COMUNIDADES AUTÓNOMAS,,Sin concierto,SI
1620000008,200219,"CLINICA SANTA MARIA DE LA ASUNCION (INVIZA, S. A.)",PAÍS VASCO,GUIPÚZCOA,Tolosa,CALLE CARRETERA IZASKUN 9,20400,943697000,120,Hospitales Generales,PRIVADOS,,Concierto parcial,NO
1620000009,200245,HOSPITAL DE ZUMARRAGA (OSI GOIERRI - ALTO UROLA),PAÍS VASCO,GUIPÚZCOA,Zumarraga,GRUPO ARGIXAO S/N,20700,943035000;943035027,118,Hospitales Generales,SERVICIOS E INSTITUTOS DE SALUD DE LAS COMUNIDADES AUTÓNOMAS,,Sin concierto,SI
1620000010,200261,HOSPITAL UNIVERSITARIO DONOSTIA,PAÍS VASCO,GUIPÚZCOA,Donostia/San Sebastián,CALLE DOCTOR JOSE BEGIRISTAIN 109,20014,943007060,1034,Hospitales Generales,SERVICIOS E INSTITUTOS DE SALUD DE LAS COMUNIDADES AUTÓNOMAS,,Sin concierto,SI
1620000011,200132,FUNDACION ONKOLOGIKOA FUNDAZIOA,PAÍS VASCO,GUIPÚZCOA,Donostia/San Sebastián,CALLE PASEO DOCTOR BEGUIRISTAIN 121,20014,943328000,26,Hospitales especializados,PRIVADOS,,Concierto parcial,SI
1620000012,200071,HOSPITAL RICARDO BERMINGHAM,PAÍS VASCO,GUIPÚZCOA,Donostia/San Sebastián,"CAMINO LOS PINOS, CAMINO/BIDEA 35",20018,943317102,123,Hospitales de media y larga estancia,PRIVADOS,,Concierto parcial,SI
1620000013,200271,HOSPITAL SAN JUAN DE DIOS,PAÍS VASCO,GUIPÚZCOA,Donostia/San Sebastián,CAMINO CAMINO SAN JUAN DE DIOS 12,20009,943460033,81,Hospitales de salud mental y tratamiento de toxicomanías,ORGANIZACIONES NO GUBERNAMENTALES,,Concierto parcial,NO
1620000014,200198,HOSPITAL AITA MENNI,PAÍS VASCO,GUIPÚZCOA,Arrasate/Mondragón,CALLE GESALIBAR 15,20509,943794411,437,Hospitales de salud mental y tratamiento de toxicomanías,ORGANIZACIONES NO GUBERNAMENTALES,,Concierto parcial,NO
1620000015,200202,HOSPITAL PSIQUIATRICO SAN JUAN DE DIOS,PAÍS VASCO,GUIPÚZCOA,Arrasate/Mondragón,CALLE GESALIBAR ( AU/BA ) 14,20509,943793078;943793900,276,Hospitales de salud mental y tratamiento de toxicomanías,ORGANIZACIONES NO GUBERNAMENTALES,,Concierto parcial,NO
1620000016,200230,"SANATORIO USURBIL, S. L.",PAÍS VASCO,GUIPÚZCOA,Usurbil,BARRIO SAN ESTEBAN AUZOA 48,20170,0;943361124,80,Hospitales de salud mental y tratamiento de toxicomanías,PRIVADOS,,Concierto parcial,NO
1620003048,200270,EIBAR OSPITALEA,PAÍS VASCO,GUIPÚZCOA,Eibar,CALLE 6-8 S/N,20600,943032802,40,Hospitales de media y larga estancia,OTROS CENTROS O ESTABLECIMIENTOS PÚBLICOS DE DEPENDENCIA AUTONÓMICA,,Sin concierto,NO
1648000005,480078,HOSPITAL UNIVERSITARIO BASURTO,PAÍS VASCO,VIZCAYA,Bilbao,AVENIDA MONTEVIDEO 16-18,48013,944006000,697,Hospitales Generales,SERVICIOS E INSTITUTOS DE SALUD DE LAS COMUNIDADES AUTÓNOMAS,,Sin concierto,SI
1648000006,480046,HOSPITAL CRUZ ROJA DE BILBAO (VICTORIA EUGENIA),PAÍS VASCO,VIZCAYA,Bilbao,ALAMEDA URQUIJO (DE) 65,48013,944434792,68,Hospitales Generales,ORGANIZACIONES NO GUBERNAMENTALES,,Red de utilización pública (RUP),NO
1648000008,480097,CLINICA VIRGEN BLANCA,PAÍS VASCO,VIZCAYA,Bilbao,CALLE MAESTRO MENDIRI 2,48006,944127011,74,Hospitales Generales,PRIVADOS,,Concierto parcial,NO
1648000010,480123,"CLINICA GUIMON, S.A.",PAÍS VASCO,VIZCAYA,Bilbao,CALLE MANUEL ALLENDE 24,48010,944215200,42,Hospitales Generales,PRIVADOS,,Sin concierto,NO
1648000011,480059,SANATORIO BILBAINO,PAÍS VASCO,VIZCAYA,Bilbao,CALLE GORDONIZ 18,48010,944430150,44,Hospitales Generales,ORGANIZACIONES NO GUBERNAMENTALES,,Sin concierto,NO
1648000012,480160,"CLINICA INDAUTXU, S.A.",PAÍS VASCO,VIZCAYA,Bilbao,CALLE GORDONIZ 9,48010,639141723;944445012,36,Hospitales Generales,PRIVADOS,,Sin concierto,NO
1648000013,480176,HOSPITAL UNIVERSITARIO CRUCES,PAÍS VASCO,VIZCAYA,Barakaldo,PLAZA CRUCES 12,48903,946006000,981,Hospitales Generales,SERVICIOS E INSTITUTOS DE SALUD DE LAS COMUNIDADES AUTÓNOMAS,,Sin concierto,SI
1648000014,480182,HOSPITAL SAN ELOY,PAÍS VASCO,VIZCAYA,Barakaldo,AVENIDA AVDA. ANTONIO MIRANDA 5,48902,944006733,128,Hospitales Generales,SERVICIOS E INSTITUTOS DE SALUD DE LAS COMUNIDADES AUTÓNOMAS,,Sin concierto,SI
1648000015,480209,HOSPITAL GALDAKAO-USANSOLO,PAÍS VASCO,VIZCAYA,Galdakao,CALLE LABEAGA 46A,48960,944007000,481,Hospitales Generales,SERVICIOS E INSTITUTOS DE SALUD DE LAS COMUNIDADES AUTÓNOMAS,,Sin concierto,SI
1648000016,480255,HOSPITAL SAN JUAN DE DIOS,PAÍS VASCO,VIZCAYA,Santurtzi,AVENIDA CRISTOBAL MURRIETA ( ET/AV ) 70,48980,902012450;944939900,100,Hospitales Generales,ORGANIZACIONES NO GUBERNAMENTALES,,Concierto parcial,NO
1648000017,480305,HOSPITAL QUIRONSALUD BIZKAIA,PAÍS VASCO,VIZCAYA,Erandio,"CARRETERA LEIOA-UNBE, CARRETERA/ERREPIDEA 33",48950,944898000,110,Hospitales Generales,PRIVADOS,,Concierto parcial,NO
1648000018,480025,HOSPITAL INTERMUTUAL DE EUSKADI,PAÍS VASCO,VIZCAYA,Bilbao,CALLE FONTECHA Y SALAZAR 6,48007,944132380,44,Hospitales especializados,MÚTUAS COLABORADORAS CON LA SEGURIDAD SOCIAL,,Sin concierto,NO
1648000019,480031,CLINICA ERCILLA MUTUALIA,PAÍS VASCO,VIZCAYA,Bilbao,"CALLE ERCILLA, CALLE/KALEA 10",48009,944252500;944252502,22,Hospitales especializados,MÚTUAS COLABORADORAS CON LA SEGURIDAD SOCIAL,,Sin concierto,NO
1648000020,480010,HOSPITAL SANTA MARINA,PAÍS VASCO,VIZCAYA,Bilbao,"CARRETERA SANTA MARINA, CARRETERA/ERREPIDEA 41",48004,944006900,234,Hospitales de media y larga estancia,SERVICIOS E INSTITUTOS DE SALUD DE LAS COMUNIDADES AUTÓNOMAS,,Sin concierto,NO
1648000021,480216,HOSPITAL DE GORLIZ,PAÍS VASCO,VIZCAYA,Gorliz,PASEO UREZARANTZA 1,48630,944006600;944006603,149,Hospitales de media y larga estancia,SERVICIOS E INSTITUTOS DE SALUD DE LAS COMUNIDADES AUTÓNOMAS,,Sin concierto,NO
1648000022,480293,AMSA SERVICIO DE PSIQUIATRIA,PAÍS VASCO,VIZCAYA,Santurtzi,AVENIDA CRISTOBAL MURRIETA ( ET/AV ) 70,48980,0;944947071,24,Hospitales de salud mental y tratamiento de toxicomanías,PRIVADOS,,Sin concierto,NO
1648000023,480195,HOSPITAL DE BERMEO,PAÍS VASCO,VIZCAYA,Bermeo,CALLE TONPOI BIDEA S/N,48370,946029000,188,Hospitales de salud mental y tratamiento de toxicomanías,SERVICIOS E INSTITUTOS DE SALUD DE LAS COMUNIDADES AUTÓNOMAS,,Sin concierto,NO
1648000025,480268,HOSPITAL DE ZALDIBAR,PAÍS VASCO,VIZCAYA,Zaldibar,CALLE BILBAO ( ET/AV ) S/N,48250,946032800,120,Hospitales de salud mental y tratamiento de toxicomanías,SERVICIOS E INSTITUTOS DE SALUD DE LAS COMUNIDADES AUTÓNOMAS,,Sin concierto,NO
1648000026,480274,HOSPITAL DE ZAMUDIO,PAÍS VASCO,VIZCAYA,Zamudio,BARRIO SAN MARTIN DE ARTEAGA ( AU/BA ) 45,48170,0;944006524,142,Hospitales de salud mental y tratamiento de toxicomanías,SERVICIOS E INSTITUTOS DE SALUD DE LAS COMUNIDADES AUTÓNOMAS,,Sin concierto,NO
1648002635,480316,CLINICA IMQ ZORROTZAURRE,PAÍS VASCO,VIZCAYA,Bilbao,CALLE BALLETS OLAETA 4,48014,944755000,128,Hospitales Generales,PRIVADOS,,Sin concierto,NO
1648004434,480327,URDULIZ OSPITALEA,PAÍS VASCO,VIZCAYA,Urduliz,CALLE GOIETA KALEA 32,48610,946007005;946134800,128,Hospitales Generales,SERVICIOS E INSTITUTOS DE SALUD DE LAS COMUNIDADES AUTÓNOMAS,,Sin concierto,NO
1726000067,260048,HOSPITAL DE LA RIOJA,LA RIOJA,LA RIOJA,Logroño,AVENIDA AVENIDA DE VIANA 1,26071,941298401,68,Hospitales Generales,SERVICIOS E INSTITUTOS DE SALUD DE LAS COMUNIDADES AUTÓNOMAS,,Sin concierto.,NO
1726000080,260109,CLINICA LOS MANZANOS,LA RIOJA,LA RIOJA,Lardero,CALLE HNOS. MARISTAS S/N,26140,941499490,52,Otros Centros con Internamiento,PRIVADOS,,Sin concierto,NO
1726000383,260121,CENTRO SOCIOSANITARIO DE CONVALENCENCIA LOS JAZMINES,LA RIOJA,LA RIOJA,Haro,CALLE SEVERO OCHOA 5,26200,941303650,26,Hospitales de media y larga estancia,PRIVADOS,,Red de utilización pública (RUP),NO
1726000542,260099,FUNDACION HOSPITAL CALAHORRA,LA RIOJA,LA RIOJA,Calahorra,CARRETERA CARRETERA DE LOGROÑO S/N,26500,941151000,80,Hospitales Generales,SERVICIOS E INSTITUTOS DE SALUD DE LAS COMUNIDADES AUTÓNOMAS,,Sin concierto,NO
1726000576,260027,HOSPITAL SAN PEDRO,LA RIOJA,LA RIOJA,Logroño,CALLE PIQUERAS 98,26006,941298000,522,Hospitales Generales,SERVICIOS E INSTITUTOS DE SALUD DE LAS COMUNIDADES AUTÓNOMAS,,Sin concierto.,NO
1726000699,260110,CENTRO ASISTENCIAL ALBELDA DE IREGUA,LA RIOJA,LA RIOJA,Albelda de Iregua,CARRETERA DE SORIA KM. 8,26120,941279220,140,Hospitales de salud mental y tratamiento de toxicomanías,SERVICIOS E INSTITUTOS DE SALUD DE LAS COMUNIDADES AUTÓNOMAS,,Sin concierto,NO
1726000825,260132,CENTRO SOCIOSANITARIO DE CONVALECENCIA NUESTRA SEÑORA VIRGEN DEL CARMEN,LA RIOJA,LA RIOJA,Calahorra,POLIGONO 38 PARCELA 10 HOYA VEDADA,26500,941010000,75,Hospitales de media y larga estancia,OTROS CENTROS O ESTABLECIMIENTOS PÚBLICOS DE DEPENDENCIA AUTONÓMICA,,Red de utilización pública (RUP),NO
1726000846,260051,POLICLINICO RIOJANO NUESTRA SEÑORA DE VALVANERA,LA RIOJA,LA RIOJA,Logroño,CALLE RAMON Y CAJAL S/N,26006,941211900,87,Hospitales de media y larga estancia,PRIVADOS,,Sin concierto,NO
1851000001,510039,HOSPITAL UNIVERSITARIO DE CEUTA,CEUTA,CEUTA,Ceuta,CALLE LOMA COLMENAR S/N,51003,856907000,252,Hospitales Generales,INSTITUTO DE GESTIÓN SANITARIA-INGESA,,Sin concierto,SI
1952000109,520018,HOSPITAL COMARCAL DE MELILLA,MELILLA,MELILLA,Melilla,CALLE REMONTA S/N,52005,952670000,170,Hospitales Generales,INSTITUTO DE GESTIÓN SANITARIA-INGESA,,Sin concierto,SI
